MSR_Id,MedianCarSpeed,Latitude,Longitude,Direction,Canton,Name,Direction:1,Street
CH:0769.02,,47.7224503,8.66835976,positive,SH,HERBLINGEN,positive,A 4
CH:0319.04,113.5,47.1410522,8.44602394,positive,ZG,BUONAS (AB),positive,A 4
CH:0248.04,,47.5420876,7.76009703,positive,AG,"RHEINFELDEN, AUTOBAHNZUBRINGER A3",positive,A 3
CH:0678.03,100.0,47.0836792,8.27282715,negative,LU,ANSCHL. EMMEN NORD,negative,A 2
CH:0678.04,100.0,47.083744,8.27288723,positive,LU,ANSCHL. EMMEN NORD,positive,A 2
CH:0319.02,121.0,47.1410217,8.4459095,negative,ZG,BUONAS (AB),negative,A 4
CH:0678.01,71.5999985,47.0834274,8.27382278,,LU,ANSCHL. EMMEN NORD,,A 2
CH:0561.02,42.0,47.3723679,8.41979027,,ZH,ANSCHLUSS URDORF S 1 - ZH1102,,A 4
CH:0678.02,94.0,47.0836525,8.27282619,negative,LU,ANSCHL. EMMEN NORD,negative,A 2
CH:0319.01,109.800003,47.1410065,8.44586849,negative,ZG,BUONAS (AB),negative,A 4
CH:0678.07,69.6999969,47.0838737,8.27362919,,LU,ANSCHL. EMMEN NORD,,A 2
CH:0678.08,70.8000031,47.0839005,8.27365398,,LU,ANSCHL. EMMEN NORD,,A 2
CH:0131.01,72.4000015,46.8281059,9.40422058,negative,GR,TAMINS,negative,H 19
CH:0248.02,,47.5418854,7.75970888,negative,AG,"RHEINFELDEN, AUTOBAHNZUBRINGER A3",negative,A 3
CH:0678.06,92.0,47.0838165,8.27288818,positive,LU,ANSCHL. EMMEN NORD,positive,A 2
CH:0248.03,,47.5420341,7.75982332,positive,AG,"RHEINFELDEN, AUTOBAHNZUBRINGER A3",positive,A 3
CH:0131.02,69.8000031,46.8280792,9.4042263,positive,GR,TAMINS,positive,H 19
CH:0027.01,72.5,46.7153511,8.88228989,negative,GR,DISENTIS E,negative,H 19
CH:0027.02,73.0,46.7153206,8.88231087,positive,GR,DISENTIS E,positive,H 19
CH:0528.04,100.800003,46.7300224,8.62692451,positive,UR,GURTNELLEN (AB),positive,A 2
CH:0340.05,,47.4585419,8.28537464,negative,AG,BADEN-WEST (AB) - AG1441,negative,A 1
CH:0528.01,95.8000031,46.7300987,8.62681007,negative,UR,GURTNELLEN (AB),negative,A 2
CH:0528.02,109.0,46.7300797,8.62683964,negative,UR,GURTNELLEN (AB),negative,A 2
CH:0340.07,,47.4586067,8.28535461,negative,AG,BADEN-WEST (AB) - AG1441,negative,A 1
CH:0340.02,,47.4581795,8.28518867,,AG,BADEN-WEST (AB) - AG1441,,A 1
CH:0340.04,,47.4584122,8.28536701,positive,AG,BADEN-WEST (AB) - AG1441,positive,A 1
CH:0340.03,,47.4584427,8.28535938,positive,AG,BADEN-WEST (AB) - AG1441,positive,A 1
CH:0573.03,102.599998,47.2965469,8.42879868,positive,ZH,"ISLISBERG, ISLISBERGTUNNEL S (AB) - ZH2103",positive,A 4
CH:0609.02,76.8000031,47.3790932,8.21835804,negative,AG,HENDSCHIKEN,negative,H 25
CH:0609.01,79.0,47.3791122,8.21839237,positive,AG,HENDSCHIKEN,positive,H 25
CH:0307.01,116.099998,47.4163246,9.64714527,negative,SG,OBERFAHR (AB),negative,A 13
CH:0573.02,95.5,47.2966309,8.42858791,negative,ZH,"ISLISBERG, ISLISBERGTUNNEL S (AB) - ZH2103",negative,A 4
CH:0307.02,124.0,47.4163246,9.64720249,negative,SG,OBERFAHR (AB),negative,A 13
CH:0307.03,125.0,47.4162903,9.64732933,positive,SG,OBERFAHR (AB),positive,A 13
CH:0307.04,117.0,47.4163322,9.6473732,positive,SG,OBERFAHR (AB),positive,A 13
CH:0516.03,120.699997,47.5302811,8.77274513,negative,ZH,ANSCHLUSS OBERWINTERTHUR 1 (AB),negative,A 1
CH:0516.02,117.300003,47.5302162,8.77275181,positive,ZH,ANSCHLUSS OBERWINTERTHUR 1 (AB),positive,A 1
CH:0516.01,105.599998,47.5301895,8.77277184,positive,ZH,ANSCHLUSS OBERWINTERTHUR 1 (AB),positive,A 1
CH:0516.06,78.0,47.5301895,8.77196503,,ZH,ANSCHLUSS OBERWINTERTHUR 1 (AB),,A 1
CH:0516.05,54.7999992,47.5307274,8.77410126,,ZH,ANSCHLUSS OBERWINTERTHUR 1 (AB),,A 1
CH:0281.06,,47.5231934,8.715415,negative,ZH,OHRINGEN ANSCHLUSS 1 (AB),negative,A 1
CH:0281.05,,47.523159,8.71540928,negative,ZH,OHRINGEN ANSCHLUSS 1 (AB),negative,A 1
CH:0610.02,124.0,46.8570786,9.50711346,negative,GR,"CHUR, OBERE AU (AB) - GR253",negative,A 13
CH:0610.01,115.799999,46.8570824,9.50706577,negative,GR,"CHUR, OBERE AU (AB) - GR253",negative,A 13
CH:0610.04,112.5,46.8570709,9.50725365,positive,GR,"CHUR, OBERE AU (AB) - GR253",positive,A 13
CH:0610.03,122.049999,46.8570709,9.50721455,positive,GR,"CHUR, OBERE AU (AB) - GR253",positive,A 13
CH:0281.02,110.199997,47.5229225,8.71492577,,ZH,OHRINGEN ANSCHLUSS 1 (AB),,A 1
CH:0281.01,99.3000031,47.5231285,8.71366215,,ZH,OHRINGEN ANSCHLUSS 1 (AB),,A 1
CH:0281.04,55.5,47.5231094,8.71538353,positive,ZH,OHRINGEN ANSCHLUSS 1 (AB),positive,A 1
CH:0281.03,71.1999969,47.5230751,8.71537018,positive,ZH,OHRINGEN ANSCHLUSS 1 (AB),positive,A 1
CH:0049.02,89.0,46.9763336,8.33585072,negative,NW,STANSSTAD S (AB),negative,A 2
CH:0565.03,90.3000031,47.3404617,8.4434433,negative,ZH,AESCHERTUNNEL (AB) - ZH1201,negative,A 3
CH:0049.01,80.8000031,46.9763145,8.33581638,negative,NW,STANSSTAD S (AB),negative,A 2
CH:0565.02,99.1999969,47.3405418,8.44342899,negative,ZH,AESCHERTUNNEL (AB) - ZH1201,negative,A 3
CH:0565.05,89.9000015,47.3402405,8.44348049,positive,ZH,AESCHERTUNNEL (AB) - ZH1201,positive,A 3
CH:0565.04,100.099998,47.3403091,8.44347286,positive,ZH,AESCHERTUNNEL (AB) - ZH1201,positive,A 3
CH:0760.03,64.0999985,47.3458595,8.74358654,negative,ZH,USTER O,negative,A 15
CH:0565.01,105.900002,47.3406143,8.44342995,negative,ZH,AESCHERTUNNEL (AB) - ZH1201,negative,A 3
CH:0049.04,79.9000015,46.9763908,8.33595657,positive,NW,STANSSTAD S (AB),positive,A 2
CH:0049.03,86.6999969,46.976368,8.33591461,positive,NW,STANSSTAD S (AB),positive,A 2
CH:0164.02,75.5,46.2980766,7.85094547,negative,VS,VISP W,negative,H 9
CH:0164.01,76.3000031,46.2980309,7.85094213,positive,VS,VISP W,positive,H 9
CH:0760.01,62.5999985,47.3458557,8.74349403,positive,ZH,USTER O,positive,A 15
CH:0003.01,47.5,46.1050797,8.69817543,negative,TI,BRISSAGO S,negative,H 13
CH:0565.06,77.9000015,47.3401566,8.4434948,positive,ZH,AESCHERTUNNEL (AB) - ZH1201,positive,A 3
CH:0210.01,,47.5284805,7.73766994,,BL,"AUGST S, VERZW. A2/A3 (AB)",,A 2
CH:0210.02,,47.52882,7.73723125,negative,BL,"AUGST S, VERZW. A2/A3 (AB)",negative,A 2
CH:0210.05,,47.5289574,7.73736811,positive,BL,"AUGST S, VERZW. A2/A3 (AB)",positive,A 2
CH:0210.06,,47.5287437,7.73787498,,BL,"AUGST S, VERZW. A2/A3 (AB)",,A 2
CH:0210.03,,47.5288429,7.73725605,negative,BL,"AUGST S, VERZW. A2/A3 (AB)",negative,A 2
CH:0692.02,51.0,47.0075607,9.07840347,negative,GL,"GLARUS S, MITLOEDI",negative,H 17
CH:0611.02,,46.7833862,9.41544628,positive,GR,"ROTHENBRUNNEN, TUNNEL ISLA BELLA (AB) - GR305",positive,A 13
CH:0577.03,93.4000015,47.349968,8.47027016,negative,ZH,UETLIBERGTUNNEL MITTE (AB) - ZH1207,negative,A 3
CH:0577.04,103.599998,47.3497925,8.47028542,positive,ZH,UETLIBERGTUNNEL MITTE (AB) - ZH1207,positive,A 3
CH:0577.05,97.0,47.3497467,8.47028446,positive,ZH,UETLIBERGTUNNEL MITTE (AB) - ZH1207,positive,A 3
CH:0611.01,,46.78339,9.41539478,negative,GR,"ROTHENBRUNNEN, TUNNEL ISLA BELLA (AB) - GR305",negative,A 13
CH:0577.02,96.4000015,47.3500214,8.47027111,negative,ZH,UETLIBERGTUNNEL MITTE (AB) - ZH1207,negative,A 3
CH:0291.03,95.5,46.5462418,6.56887865,positive,VD,RENENS (AR),positive,A 1
CH:0107.01,116.5,46.8758278,7.2757535,positive,FR,WUENNEWIL (AB),positive,A 12
CH:0291.02,87.4000015,46.5462379,6.56892681,positive,VD,RENENS (AR),positive,A 1
CH:0107.04,113.400002,46.8759384,7.27569199,negative,FR,WUENNEWIL (AB),negative,A 12
CH:0291.06,88.8000031,46.5462494,6.56869459,negative,VD,RENENS (AR),negative,A 1
CH:0291.05,93.5,46.5462456,6.56873703,negative,VD,RENENS (AR),negative,A 1
CH:0107.02,120.699997,46.8758545,7.27573681,positive,FR,WUENNEWIL (AB),positive,A 12
CH:0291.04,97.0,46.5462456,6.5687809,negative,VD,RENENS (AR),negative,A 1
CH:0107.03,121.199997,46.8759003,7.2757144,negative,FR,WUENNEWIL (AB),negative,A 12
CH:0209.01,72.9000015,46.0787849,7.05324221,negative,VS,"MARTIGNY, LE BROCARD",negative,H 21
CH:0209.03,70.0,46.0787621,7.05332327,positive,VS,"MARTIGNY, LE BROCARD",positive,H 21
CH:0234.01,104.099998,46.7599792,6.68550444,positive,VD,"YVERDON, TUN. DE POMY (AR)",positive,A 1
CH:0234.02,112.5,46.7599983,6.6854744,positive,VD,"YVERDON, TUN. DE POMY (AR)",positive,A 1
CH:0234.03,113.0,46.7601013,6.68534136,negative,VD,"YVERDON, TUN. DE POMY (AR)",negative,A 1
CH:0234.04,106.0,46.760128,6.68530416,negative,VD,"YVERDON, TUN. DE POMY (AR)",negative,A 1
CH:0850.04,61.0,47.6917839,8.62686825,,ZH,CHOLFIRST NORD,,A 4
CH:0850.03,58.9000015,47.691288,8.62623215,positive,ZH,CHOLFIRST NORD,positive,A 4
CH:0850.02,78.4000015,47.6912766,8.62618637,negative,ZH,CHOLFIRST NORD,negative,A 4
CH:0850.01,74.5999985,47.6912613,8.62614918,negative,ZH,CHOLFIRST NORD,negative,A 4
CH:0508.01,76.4000015,45.8931046,8.97589874,negative,TI,MENDRISIO N (AS),negative,A 2
CH:0139.02,76.3000031,47.2101326,7.59657192,positive,SO,LUTERBACH (AB),positive,A 5
CH:0139.01,82.6999969,47.20998,7.59652567,positive,SO,LUTERBACH (AB),positive,A 5
CH:0508.02,83.0,45.8931084,8.97594738,negative,TI,MENDRISIO N (AS),negative,A 2
CH:0139.04,84.4000015,47.2103004,7.59650707,negative,SO,LUTERBACH (AB),negative,A 5
CH:0139.03,93.5,47.2102242,7.5965085,negative,SO,LUTERBACH (AB),negative,A 5
CH:0508.05,33.0,45.8929939,8.97627163,,TI,MENDRISIO N (AS),,A 2
CH:0395.01,72.0,46.45998,7.28191614,positive,BE,GSTAAD S,positive,H 142
CH:0508.03,48.5,45.8931084,8.97605324,positive,TI,MENDRISIO N (AS),positive,A 2
CH:0395.02,72.0,46.4599876,7.28188372,negative,BE,GSTAAD S,negative,H 142
CH:0541.03,120.0,47.149437,8.42784119,positive,ZG,GISIKON (AB),positive,A 14
CH:0541.01,110.0,47.1495132,8.42770767,negative,ZG,GISIKON (AB),negative,A 14
CH:0849.02,69.0999985,47.6932373,8.62518597,negative,SH,FAESENSTAUB SUED,negative,A 4
CH:0849.01,55.2999992,47.6938057,8.62423706,,SH,FAESENSTAUB SUED,,A 4
CH:0849.04,61.5999985,47.6932373,8.62523651,positive,SH,FAESENSTAUB SUED,positive,A 4
CH:0849.03,48.0,47.693737,8.62427902,,SH,FAESENSTAUB SUED,,A 4
CH:0849.05,37.0999985,47.6932373,8.62528419,,SH,FAESENSTAUB SUED,,A 4
CH:0541.04,109.300003,47.1493912,8.42791939,positive,ZG,GISIKON (AB),positive,A 14
CH:0326.01,112.900002,46.8890991,7.34098482,positive,FR,FLAMATT E (AB),positive,A 12
CH:0326.02,120.5,46.8891258,7.34097195,positive,FR,FLAMATT E (AB),positive,A 12
CH:0326.03,122.0,46.8891792,7.34094954,negative,FR,FLAMATT E (AB),negative,A 12
CH:0326.04,112.599998,46.8892059,7.34093571,negative,FR,FLAMATT E (AB),negative,A 12
CH:0222.04,116.400002,46.8402748,6.92628002,negative,FR,PAYERNE N (AR),negative,A 1
CH:0383.08,73.3000031,47.3493843,8.52370453,,ZH,ZUERICH BRUNAU (AB) 1,,A 3
CH:0383.07,83.5,47.3494034,8.52366638,,ZH,ZUERICH BRUNAU (AB) 1,,A 3
CH:0383.06,82.0,47.3494301,8.52362823,negative,ZH,ZUERICH BRUNAU (AB) 1,negative,A 3
CH:0035.05,88.3000031,47.0386581,9.46302986,positive,SG,TRUEBBACH S (AB),positive,A 13
CH:0383.05,90.4000015,47.349453,8.52359676,negative,ZH,ZUERICH BRUNAU (AB) 1,negative,A 3
CH:0310.04,116.5,47.2611198,9.52779293,positive,SG,SENNWALD (AB),positive,A 13
CH:0383.04,93.5999985,47.3494949,8.52352524,positive,ZH,ZUERICH BRUNAU (AB) 1,positive,A 3
CH:0383.03,84.8000031,47.3495178,8.52349091,positive,ZH,ZUERICH BRUNAU (AB) 1,positive,A 3
CH:0035.03,87.0,47.0388794,9.46276188,negative,SG,TRUEBBACH S (AB),negative,A 13
CH:0310.03,124.199997,47.2611275,9.52774429,positive,SG,SENNWALD (AB),positive,A 13
CH:0035.02,81.4000015,47.0388908,9.46272087,negative,SG,TRUEBBACH S (AB),negative,A 13
CH:0310.02,122.599998,47.2611427,9.52763748,negative,SG,SENNWALD (AB),negative,A 13
CH:0310.01,115.400002,47.2611465,9.52758503,negative,SG,SENNWALD (AB),negative,A 13
CH:0222.01,117.0,46.8401833,6.92643881,positive,FR,PAYERNE N (AR),positive,A 1
CH:0222.03,123.400002,46.8402519,6.92631626,negative,FR,PAYERNE N (AR),negative,A 1
CH:0222.02,,46.8402061,6.92639828,positive,FR,PAYERNE N (AR),positive,A 1
CH:0229.04,112.300003,47.3161469,7.94424963,negative,AG,OFTRINGEN E (AB),negative,A 1
CH:0229.01,105.800003,47.316021,7.94433308,positive,AG,OFTRINGEN E (AB),positive,A 1
CH:0229.02,115.699997,47.3160477,7.94431257,positive,AG,OFTRINGEN E (AB),positive,A 1
CH:0023.01,112.400002,47.0526123,7.53781891,positive,BE,MATTSTETTEN (AB),positive,A 1
CH:0184.03,104.800003,46.9354095,7.3967948,negative,BE,"BERN, BUEMPLIZ (AB)",negative,A 12
CH:0184.04,96.0999985,46.9354248,7.39674664,negative,BE,"BERN, BUEMPLIZ (AB)",negative,A 12
CH:0023.02,119.5,47.052639,7.53777504,positive,BE,MATTSTETTEN (AB),positive,A 1
CH:0184.01,98.8000031,46.9353867,7.39692593,positive,BE,"BERN, BUEMPLIZ (AB)",positive,A 12
CH:0184.02,106.0,46.9354019,7.3968811,positive,BE,"BERN, BUEMPLIZ (AB)",positive,A 12
CH:0115.01,74.9000015,47.0602303,8.28798389,negative,LU,"LUZERN, REUSSPORTTUNNEL (AB)",negative,A 2
CH:0023.03,115.300003,47.052681,7.53770494,negative,BE,MATTSTETTEN (AB),negative,A 1
CH:0115.06,72.3000031,47.0603104,8.28822994,positive,LU,"LUZERN, REUSSPORTTUNNEL (AB)",positive,A 2
CH:0023.04,108.599998,47.0527039,7.53766823,negative,BE,MATTSTETTEN (AB),negative,A 1
CH:0115.05,75.0,47.0603027,8.28820229,positive,LU,"LUZERN, REUSSPORTTUNNEL (AB)",positive,A 2
CH:0115.04,78.5999985,47.0602837,8.28816414,positive,LU,"LUZERN, REUSSPORTTUNNEL (AB)",positive,A 2
CH:0115.03,80.5,47.0602531,8.28805542,negative,LU,"LUZERN, REUSSPORTTUNNEL (AB)",negative,A 2
CH:0647.02,113.5,46.7805443,7.09024715,positive,FR,ANSCHLUSS MATRAN S,positive,A 12
CH:0217.03,123.0,47.4713593,9.00620651,negative,TG,MUENCHWILEN E (AB),negative,A 1
CH:0217.02,122.300003,47.471283,9.00621223,positive,TG,MUENCHWILEN E (AB),positive,A 1
CH:0378.07,47.0,47.6736412,8.62343121,,ZH,UHWIESEN ANSCHLUSS (AB),,A 4
CH:0217.04,113.400002,47.4713898,9.00620461,negative,TG,MUENCHWILEN E (AB),negative,A 1
CH:0378.06,71.6999969,47.6719437,8.62265968,,ZH,UHWIESEN ANSCHLUSS (AB),,A 4
CH:0322.01,78.0999985,46.6532211,9.45159245,negative,GR,ZILLIS (AS),negative,A 13
CH:0322.02,75.0999985,46.6532135,9.45163155,positive,GR,ZILLIS (AS),positive,A 13
CH:0127.02,103.0,46.7430305,6.52358913,negative,VD,ORBE N (AR),negative,A 9
CH:0127.01,83.0999985,46.7429924,6.52360582,positive,VD,ORBE N (AR),positive,A 9
CH:0647.04,75.4000015,46.7803345,7.08991385,,FR,ANSCHLUSS MATRAN S,,A 12
CH:0217.01,114.300003,47.4712486,9.00621414,positive,TG,MUENCHWILEN E (AB),positive,A 1
CH:0647.03,121.900002,46.7805252,7.09019327,positive,FR,ANSCHLUSS MATRAN S,positive,A 12
CH:0521.01,59.0,46.1073837,8.76375389,negative,TI,CAVIANO DOGANA DIRINELLA,negative,H 405
CH:0378.04,62.0,47.672657,8.62260151,,ZH,UHWIESEN ANSCHLUSS (AB),,A 4
CH:0378.03,106.0,47.6732559,8.62300873,negative,ZH,UHWIESEN ANSCHLUSS (AB),negative,A 4
CH:0521.02,59.2999992,46.1073685,8.76378536,positive,TI,CAVIANO DOGANA DIRINELLA,positive,H 405
CH:0378.02,98.0,47.6732674,8.62296104,negative,ZH,UHWIESEN ANSCHLUSS (AB),negative,A 4
CH:0098.02,60.0,46.3334732,9.53079796,positive,GR,CASTASEGNA,positive,H 3
CH:0837.04,94.9000015,47.4086685,8.58646584,positive,ZH,SCHWAMENDINGEN (AB),positive,A 1
CH:0837.05,78.8000031,47.4087906,8.58653164,negative,ZH,SCHWAMENDINGEN (AB),negative,A 1
CH:0837.02,98.5999985,47.4085922,8.58643055,positive,ZH,SCHWAMENDINGEN (AB),positive,A 1
CH:0837.03,101.900002,47.4086304,8.58644485,positive,ZH,SCHWAMENDINGEN (AB),positive,A 1
CH:0837.06,78.5,47.4088211,8.58654785,negative,ZH,SCHWAMENDINGEN (AB),negative,A 1
CH:0837.07,89.1999969,47.4088554,8.58656025,negative,ZH,SCHWAMENDINGEN (AB),negative,A 1
CH:0314.04,114.199997,47.1812935,8.99008465,negative,SG,REICHENBURG (AB),negative,A 3
CH:0801.02,108.800003,47.0134659,7.00916719,negative,NE,MARIN EST (AB),negative,A 5
CH:0172.02,50.0999985,46.3182831,6.97584009,negative,VD,"AIGLE, PONT GRANDE EAU",negative,H 11
CH:0314.01,113.800003,47.1811714,8.98999691,positive,SG,REICHENBURG (AB),positive,A 3
CH:0042.03,,46.9585876,7.47038126,positive,BE,UMF. BERN OST (AB),positive,A 6
CH:0172.01,55.7000008,46.3182564,6.97586966,positive,VD,"AIGLE, PONT GRANDE EAU",positive,H 11
CH:0314.03,124.0,47.1812668,8.99006176,negative,SG,REICHENBURG (AB),negative,A 3
CH:0042.01,,46.9586525,7.47029781,negative,BE,UMF. BERN OST (AB),negative,A 6
CH:0314.02,122.599998,47.1812019,8.99001789,positive,SG,REICHENBURG (AB),positive,A 3
CH:0801.04,83.0,47.0136909,7.00982666,,NE,MARIN EST (AB),,A 5
CH:0801.03,71.9000015,47.0135841,7.00646591,,NE,MARIN EST (AB),,A 5
CH:0590.03,102.599998,47.3472481,8.42823315,negative,ZH,ANSCHLUSS BIRMENSDORF 2 (AB) - ZH1108,negative,A 3
CH:0286.01,54.0,47.4103279,8.61696148,positive,ZH,WALLISELLEN (AB),positive,A 1
CH:0603.04,110.099998,47.1144638,9.33470917,negative,SG,"WALENSTADT, TSCHERLACH (AB)",negative,A 3
CH:0590.01,82.0,47.3472786,8.42831039,negative,ZH,ANSCHLUSS BIRMENSDORF 2 (AB) - ZH1108,negative,A 3
CH:0603.02,122.099998,47.1147003,9.33356476,positive,SG,"WALENSTADT, TSCHERLACH (AB)",positive,A 3
CH:0603.01,113.599998,47.1146736,9.33354473,positive,SG,"WALENSTADT, TSCHERLACH (AB)",positive,A 3
CH:0160.01,97.8000031,47.1875916,7.20984983,negative,BE,LA HEUTTE (AR),negative,A 16
CH:0160.02,104.300003,47.1876221,7.20985365,negative,BE,LA HEUTTE (AR),negative,A 16
CH:0160.03,106.5,47.1876793,7.20986176,positive,BE,LA HEUTTE (AR),positive,A 16
CH:0160.04,97.8000031,47.1877136,7.20986366,positive,BE,LA HEUTTE (AR),positive,A 16
CH:0334.01,75.0,47.5234451,8.71895599,,ZH,OHRINGEN ANSCHLUSS 2 (AB),,A 1
CH:0334.02,54.0,47.5232773,8.71492577,,ZH,OHRINGEN ANSCHLUSS 2 (AB),,A 1
CH:0286.05,85.9000015,47.4104729,8.6168499,negative,ZH,WALLISELLEN (AB),negative,A 1
CH:0286.04,96.5999985,47.4104195,8.61689472,positive,ZH,WALLISELLEN (AB),positive,A 1
CH:0286.03,98.5,47.4103889,8.61691093,positive,ZH,WALLISELLEN (AB),positive,A 1
CH:0286.02,99.1999969,47.4103584,8.61693382,positive,ZH,WALLISELLEN (AB),positive,A 1
CH:0286.08,78.4000015,47.4105606,8.61678696,negative,ZH,WALLISELLEN (AB),negative,A 1
CH:0764.02,47.2999992,47.2163277,8.61103725,positive,ZH,HIRZEL,positive,H 338
CH:0286.07,84.5,47.4105301,8.6168108,negative,ZH,WALLISELLEN (AB),negative,A 1
CH:0286.06,87.5,47.4104996,8.61683178,negative,ZH,WALLISELLEN (AB),negative,A 1
CH:0054.05,35.7000008,47.3198128,8.53456116,,ZH,ADLISWIL (AB),,A 3
CH:0302.03,112.800003,47.484272,9.44199085,positive,SG,"ARBON, A1/ZUBRINGER SG",positive,A 23
CH:0302.01,101.699997,47.4842186,9.44186306,negative,SG,"ARBON, A1/ZUBRINGER SG",negative,A 23
CH:0054.04,100.599998,47.3197899,8.53450966,negative,ZH,ADLISWIL (AB),negative,A 3
CH:0302.02,114.0,47.4842339,9.44190311,negative,SG,"ARBON, A1/ZUBRINGER SG",negative,A 23
CH:0054.02,122.400002,47.3197403,8.53437233,positive,ZH,ADLISWIL (AB),positive,A 3
CH:0721.01,62.5,46.2037086,7.01202011,,VS,CCTL - ST MAURICE WEST,,A 9
CH:0721.02,59.7999992,46.2053566,7.0112524,,VS,CCTL - ST MAURICE WEST,,A 9
CH:0672.02,106.0,46.9119492,6.79872417,positive,NE,GORGIER (AR),positive,A 5
CH:0672.01,99.8000031,46.9119492,6.79874706,positive,NE,GORGIER (AR),positive,A 5
CH:0813.01,45.2999992,47.3998146,8.54857635,,ZH,MILCHBUCK,,A 1L
CH:0813.02,43.0,47.399826,8.54852962,,ZH,MILCHBUCK,,A 1L
CH:0813.03,63.9000015,47.3997765,8.54818821,positive,ZH,MILCHBUCK,positive,A 1L
CH:0708.01,75.0,46.9156113,9.76004219,positive,GR,KUEBLIS,positive,A 28
CH:0708.02,75.5999985,46.9156265,9.76006603,negative,GR,KUEBLIS,negative,A 28
CH:0066.01,62.0,47.4054146,8.45942307,,ZH,SCHLIEREN (AB),,A 1
CH:0298.04,110.199997,47.4026527,8.2071352,negative,AG,OTHMARSINGEN (AB),negative,A 1
CH:0813.04,58.5,47.3998528,8.54810047,,ZH,MILCHBUCK,,A 1L
CH:0813.05,,47.3998871,8.54804134,negative,ZH,MILCHBUCK,negative,A 1L
CH:0066.07,113.0,47.4056396,8.45957851,negative,ZH,SCHLIEREN (AB),negative,A 1
CH:0066.03,112.800003,47.4054985,8.45946407,positive,ZH,SCHLIEREN (AB),positive,A 1
CH:0298.01,107.599998,47.4025116,8.20724678,positive,AG,OTHMARSINGEN (AB),positive,A 1
CH:0066.02,104.199997,47.4054718,8.45944881,positive,ZH,SCHLIEREN (AB),positive,A 1
CH:0298.02,118.5,47.4025307,8.207201,positive,AG,OTHMARSINGEN (AB),positive,A 1
CH:0066.05,128.399994,47.4055786,8.4595232,negative,ZH,SCHLIEREN (AB),negative,A 1
CH:0066.04,124.5,47.4055367,8.45948982,positive,ZH,SCHLIEREN (AB),positive,A 1
CH:0615.01,45.2999992,46.9669456,8.35313797,,NW,ANSCHLUSS STANS NORD RI ALTDORF (AB),,A 2
CH:0615.03,116.0,46.9669991,8.35350227,negative,NW,ANSCHLUSS STANS NORD RI ALTDORF (AB),negative,A 2
CH:0589.02,90.5,47.3484497,8.4264822,positive,ZH,ANSCHLUSS BIRMENSDORF 1 (AB) - ZH1107,positive,A 3
CH:0159.03,118.5,47.0954132,8.2460804,positive,LU,"EMMENBRUECKE, RIFFIG (AB)",positive,A 2
CH:0346.01,,47.5391884,7.75458145,,AG,RHEINFELDEN (AB) - AG1425,,A 3
CH:0589.01,99.0999985,47.3484688,8.42651558,positive,ZH,ANSCHLUSS BIRMENSDORF 1 (AB) - ZH1107,positive,A 3
CH:0346.02,,47.5398712,7.75665522,positive,AG,RHEINFELDEN (AB) - AG1425,positive,A 3
CH:0159.04,107.5,47.095417,8.24613285,positive,LU,"EMMENBRUECKE, RIFFIG (AB)",positive,A 2
CH:0159.01,110.199997,47.0954018,8.24593163,negative,LU,"EMMENBRUECKE, RIFFIG (AB)",negative,A 2
CH:0346.03,,47.5399017,7.75663328,positive,AG,RHEINFELDEN (AB) - AG1425,positive,A 3
CH:0346.05,,47.5400047,7.7566061,negative,AG,RHEINFELDEN (AB) - AG1425,negative,A 3
CH:0346.06,,47.5400352,7.7565856,,AG,RHEINFELDEN (AB) - AG1425,,A 3
CH:0533.01,76.1999969,47.5568123,8.68976212,positive,ZH,HENGGART (AB) - ZH0497,positive,A 4
CH:0533.02,81.8000031,47.5567932,8.68980026,positive,ZH,HENGGART (AB) - ZH0497,positive,A 4
CH:0776.02,59.2999992,47.3614426,9.29439259,negative,AR,WALDSTATT,negative,H 8
CH:0078.03,85.9000015,46.7795105,6.92038774,negative,VD,PAYERNE S,negative,H 1
CH:0834.02,76.8000031,47.1255989,7.26373196,positive,BE,LAENGHOLZTUNNEL,positive,A 5
CH:0834.04,71.3000031,47.125679,7.2634573,negative,BE,LAENGHOLZTUNNEL,negative,A 5
CH:0834.03,69.8000031,47.1256371,7.26356411,negative,BE,LAENGHOLZTUNNEL,negative,A 5
CH:0250.04,114.0,46.3121719,6.94695234,negative,VD,AIGLE E (AR),negative,A 9
CH:0513.03,111.400002,47.2564697,7.68671656,negative,BE,WANGEN A. A. (AB),negative,A 1
CH:0250.01,114.099998,46.3121071,6.94677973,positive,VD,AIGLE E (AR),positive,A 9
CH:0250.02,122.900002,46.3121223,6.94681978,positive,VD,AIGLE E (AR),positive,A 9
CH:0513.04,104.400002,47.2565041,7.68671083,negative,BE,WANGEN A. A. (AB),negative,A 1
CH:0513.01,106.0,47.2563972,7.68702841,positive,BE,WANGEN A. A. (AB),positive,A 1
CH:0513.02,112.699997,47.2564278,7.68702459,positive,BE,WANGEN A. A. (AB),positive,A 1
CH:0078.01,83.5999985,46.7794991,6.92047358,positive,VD,PAYERNE S,positive,H 1
CH:0078.02,96.0,46.7795029,6.9204278,negative,VD,PAYERNE S,negative,H 1
CH:0399.01,51.5,46.7829361,7.06363297,positive,FR,ROSE,positive,H 181
CH:0112.02,,47.0209732,7.03112411,positive,NE,PONT DE THIELLE,positive,H 10
CH:0112.03,66.1999969,47.0210037,7.03112411,negative,NE,PONT DE THIELLE,negative,H 10
CH:0399.02,49.7000008,46.7829628,7.06362867,negative,FR,ROSE,negative,H 181
CH:0112.01,,47.0209465,7.03112411,positive,NE,PONT DE THIELLE,positive,H 10
CH:0262.01,63.0,46.7182312,8.57451153,negative,UR,"SUSTENPASS, MEIEN",negative,H 11
CH:0249.02,109.900002,46.317215,6.145751,positive,VD,COPPET W (AR),positive,A 1
CH:0249.03,95.5999985,46.3172493,6.14564848,negative,VD,COPPET W (AR),negative,A 1
CH:0262.02,68.6999969,46.7182541,8.57452583,positive,UR,"SUSTENPASS, MEIEN",positive,H 11
CH:0249.04,88.5999985,46.3172607,6.14560366,negative,VD,COPPET W (AR),negative,A 1
CH:0582.01,36.5,46.6357307,8.59560966,negative,UR,"ANDERMATT, OBERALPSTRASSE - UR9004",negative,H 19
CH:0582.02,35.2999992,46.635746,8.59565735,positive,UR,"ANDERMATT, OBERALPSTRASSE - UR9004",positive,H 19
CH:0537.02,78.4000015,46.4751205,6.86125851,,VD,VEVEY (AR),,A 9
CH:0331.05,109.0,46.5019684,6.89688873,negative,VD,CHATEL ST. DENIS (AR),negative,A 12
CH:0331.03,124.300003,46.5019188,6.89702368,positive,VD,CHATEL ST. DENIS (AR),positive,A 12
CH:0274.05,111.300003,47.4441681,8.34278202,negative,AG,WUERENLOS (AB) - AG1401,negative,A 1
CH:0537.07,82.3000031,46.4754105,6.86142635,negative,VD,VEVEY (AR),negative,A 9
CH:0274.06,98.4000015,47.4441872,8.34282207,negative,AG,WUERENLOS (AB) - AG1401,negative,A 1
CH:0237.04,,47.1763611,7.42515326,negative,SO,GRENCHEN (AB),negative,A 5
CH:0537.08,75.5,46.4744644,6.86332417,,VD,VEVEY (AR),,A 9
CH:0237.01,,47.1762352,7.42506742,positive,SO,GRENCHEN (AB),positive,A 5
CH:0274.01,98.8000031,47.4440956,8.34255695,positive,AG,WUERENLOS (AB) - AG1401,positive,A 1
CH:0537.03,38.0,46.4752312,6.86124086,positive,VD,VEVEY (AR),positive,A 9
CH:0537.04,54.0,46.4752617,6.86127377,positive,VD,VEVEY (AR),positive,A 9
CH:0274.02,108.099998,47.4441109,8.34260082,positive,AG,WUERENLOS (AB) - AG1401,positive,A 1
CH:0537.05,97.0,46.4753151,6.86133242,negative,VD,VEVEY (AR),negative,A 9
CH:0274.03,118.199997,47.4441223,8.34264469,positive,AG,WUERENLOS (AB) - AG1401,positive,A 1
CH:0237.02,,47.1762657,7.42505884,positive,SO,GRENCHEN (AB),positive,A 5
CH:0537.06,87.5999985,46.4753418,6.86136007,negative,VD,VEVEY (AR),negative,A 9
CH:0274.04,120.699997,47.4441528,8.34273815,negative,AG,WUERENLOS (AB) - AG1401,negative,A 1
CH:0331.01,104.800003,46.5018883,6.89707088,positive,VD,CHATEL ST. DENIS (AR),positive,A 12
CH:0501.02,59.0,46.9688301,7.12306452,positive,FR,"SUGIEZ, LE PEAGE N",positive,H 10
CH:0501.01,61.9000015,46.9688225,7.1230216,negative,FR,"SUGIEZ, LE PEAGE N",negative,H 10
CH:0569.03,42.0,47.3355675,8.46110153,,ZH,DREIECK ZUERICH-WEST 4 (AB) - ZH1205,,A 4
CH:0343.02,79.0,47.4495201,8.34278297,,AG,WETTINGEN OST ANSCHLUSS - AG1562,,A 1
CH:0343.03,78.3000031,47.449543,8.34273148,,AG,WETTINGEN OST ANSCHLUSS - AG1562,,A 1
CH:0343.01,82.0,47.449501,8.34282303,,AG,WETTINGEN OST ANSCHLUSS - AG1562,,A 1
CH:0343.04,75.5,47.4496498,8.34263802,,AG,WETTINGEN OST ANSCHLUSS - AG1562,,A 1
CH:0675.01,86.0999985,46.9834938,6.90996122,positive,NE,NEUCHATEL-OUEST TUNNEL (AR),positive,A 5
CH:0675.02,96.5,46.9835205,6.90990543,positive,NE,NEUCHATEL-OUEST TUNNEL (AR),positive,A 5
CH:0675.03,94.5,46.9835472,6.90982485,negative,NE,NEUCHATEL-OUEST TUNNEL (AR),negative,A 5
CH:0156.01,,46.8893661,8.59783649,negative,UR,SEELISBERGTUNNEL (AB),negative,A 2
CH:0156.02,,46.8893814,8.59786987,negative,UR,SEELISBERGTUNNEL (AB),negative,A 2
CH:0156.03,,46.8894119,8.59791946,positive,UR,SEELISBERGTUNNEL (AB),positive,A 2
CH:0018.01,53.0,46.7156982,8.20807362,negative,BE,"MEIRINGEN E, LAMMI",negative,H 6
CH:0018.02,53.2000008,46.7157288,8.20808792,positive,BE,"MEIRINGEN E, LAMMI",positive,H 6
CH:0100.02,15.0,46.2095261,9.02930164,negative,TI,CIRCONVAL. BELLINZONA (AS),negative,A 2
CH:0100.01,54.0,46.2098274,9.02994061,,TI,CIRCONVAL. BELLINZONA (AS),,A 2
CH:0100.06,87.5999985,46.2093658,9.0293808,positive,TI,CIRCONVAL. BELLINZONA (AS),positive,A 2
CH:0100.05,94.5,46.2093925,9.02936745,positive,TI,CIRCONVAL. BELLINZONA (AS),positive,A 2
CH:0525.01,79.5,46.1782532,8.84350491,negative,TI,TENERO,negative,A 13
CH:0100.04,84.0,46.209465,9.02933025,negative,TI,CIRCONVAL. BELLINZONA (AS),negative,A 2
CH:0100.03,76.6999969,46.2094994,9.02931595,negative,TI,CIRCONVAL. BELLINZONA (AS),negative,A 2
CH:0100.07,,46.2093391,9.02939415,positive,TI,CIRCONVAL. BELLINZONA (AS),positive,A 2
CH:0525.03,83.0999985,46.178215,8.84347343,positive,TI,TENERO,positive,A 13
CH:0156.04,,46.8894348,8.59795666,positive,UR,SEELISBERGTUNNEL (AB),positive,A 2
CH:0525.02,62.7999992,46.1782722,8.8437748,,TI,TENERO,,A 13
CH:0525.04,79.5999985,46.1781158,8.84345055,,TI,TENERO,,A 13
CH:0570.01,76.1999969,47.3933525,8.41646767,positive,ZH,URDORF N (AB) - ZH1302,positive,A 3
CH:0570.02,87.5,47.3933296,8.41651249,positive,ZH,URDORF N (AB) - ZH1302,positive,A 3
CH:0570.05,83.0,47.394207,8.41760826,negative,ZH,URDORF N (AB) - ZH1302,negative,A 3
CH:0570.04,83.8000031,47.3942299,8.41757393,negative,ZH,URDORF N (AB) - ZH1302,negative,A 3
CH:0570.06,80.3000031,47.3941879,8.41765404,negative,ZH,URDORF N (AB) - ZH1302,negative,A 3
CH:0205.03,97.6999969,47.0748062,8.29391861,negative,LU,"EMMENBRUECKE, GRUEBLISCH. (AB)",negative,A 2
CH:0205.04,99.5,47.0748177,8.29398441,positive,LU,"EMMENBRUECKE, GRUEBLISCH. (AB)",positive,A 2
CH:0205.01,86.5,47.0747833,8.29381752,negative,LU,"EMMENBRUECKE, GRUEBLISCH. (AB)",negative,A 2
CH:0205.02,89.8000031,47.074791,8.29387283,negative,LU,"EMMENBRUECKE, GRUEBLISCH. (AB)",negative,A 2
CH:0618.04,109.300003,47.2012482,8.46230793,positive,ZG,BLEGI N (AB),positive,A 4
CH:0618.03,115.5,47.2012939,8.46224499,negative,ZG,BLEGI N (AB),negative,A 4
CH:0618.06,77.5,47.201046,8.46253586,,ZG,BLEGI N (AB),,A 4
CH:0618.05,100.900002,47.2012253,8.46234894,positive,ZG,BLEGI N (AB),positive,A 4
CH:0618.02,106.900002,47.2013283,8.46221066,negative,ZG,BLEGI N (AB),negative,A 4
CH:0338.05,100.300003,47.450695,8.25932789,negative,AG,BADEN-WEST (AB) - AG1442,negative,A 1
CH:0282.06,72.6999969,47.4208641,9.33610725,negative,SG,"ST. JOSEFEN, SITTERVIADUKT (AB)",negative,A 1
CH:0338.04,107.800003,47.4506645,8.25934601,negative,AG,BADEN-WEST (AB) - AG1442,negative,A 1
CH:0338.03,95.0,47.4505997,8.25938416,positive,AG,BADEN-WEST (AB) - AG1442,positive,A 1
CH:0338.02,100.0,47.4505692,8.25940037,positive,AG,BADEN-WEST (AB) - AG1442,positive,A 1
CH:0196.01,55.2999992,46.6423035,8.59194183,negative,UR,"ANDERMATT, SCHOELLENEN",negative,A 2
CH:0196.02,54.0,46.6423073,8.59199333,positive,UR,"ANDERMATT, SCHOELLENEN",positive,A 2
CH:0282.03,,47.4207458,9.33618927,positive,SG,"ST. JOSEFEN, SITTERVIADUKT (AB)",positive,A 1
CH:0282.02,74.1999969,47.4207153,9.33620358,positive,SG,"ST. JOSEFEN, SITTERVIADUKT (AB)",positive,A 1
CH:0282.04,68.0999985,47.4207993,9.33613873,negative,SG,"ST. JOSEFEN, SITTERVIADUKT (AB)",negative,A 1
CH:0132.01,79.0,46.9727058,9.60482693,positive,GR,"PARDISLA, CHLUSTUNNEL",positive,A 28
CH:0562.01,88.0,47.3551903,8.42203045,negative,ZH,"BIRMENSDORF, HAFNERBERGTUNNEL (AB) - ZH1104",negative,A 4
CH:0562.02,96.0,47.3551903,8.42198753,negative,ZH,"BIRMENSDORF, HAFNERBERGTUNNEL (AB) - ZH1104",negative,A 4
CH:0006.01,68.8000031,47.5379257,7.62413597,negative,BL,"MUTTENZ, A2/ZUBR. SCHAENZLI",negative,H 18
CH:0006.03,72.0999985,47.5379066,7.62449598,positive,BL,"MUTTENZ, A2/ZUBR. SCHAENZLI",positive,H 18
CH:0006.02,77.3000031,47.5379257,7.62419224,negative,BL,"MUTTENZ, A2/ZUBR. SCHAENZLI",negative,H 18
CH:0006.04,69.8000031,47.537899,7.62455034,positive,BL,"MUTTENZ, A2/ZUBR. SCHAENZLI",positive,H 18
CH:0562.05,91.8000031,47.355175,8.4215889,positive,ZH,"BIRMENSDORF, HAFNERBERGTUNNEL (AB) - ZH1104",positive,A 4
CH:0132.02,80.9000015,46.9727364,9.60481453,negative,GR,"PARDISLA, CHLUSTUNNEL",negative,A 28
CH:0562.06,68.0,47.355175,8.42153168,positive,ZH,"BIRMENSDORF, HAFNERBERGTUNNEL (AB) - ZH1104",positive,A 4
CH:0294.01,64.5,47.4242172,8.05474377,negative,AG,KUETTIGEN N,negative,H 24
CH:0294.02,61.2999992,47.4242249,8.0548048,positive,AG,KUETTIGEN N,positive,H 24
CH:0201.01,118.900002,46.2404747,7.39398193,positive,VS,SION E  (AR),positive,A 9
CH:0687.02,42.0,46.875927,8.64935398,positive,UR,"ALTDORF, GOTTHARDSTRASSE - UR6014",positive,H 2
CH:0574.03,71.0,47.2698898,8.43921185,,ZH,ANSCHLUSS AFFOLTERN A.A 2 (AB) - ZH2104,,A 4
CH:0574.02,112.0,47.2725945,8.43775463,positive,ZH,ANSCHLUSS AFFOLTERN A.A 2 (AB) - ZH2104,positive,A 4
CH:0574.01,121.5,47.2726097,8.43779373,positive,ZH,ANSCHLUSS AFFOLTERN A.A 2 (AB) - ZH2104,positive,A 4
CH:0201.03,126.0,46.2405548,7.39393187,negative,VS,SION E  (AR),negative,A 9
CH:0201.04,116.900002,46.2405853,7.39391422,negative,VS,SION E  (AR),negative,A 9
CH:0631.01,45.2999992,46.8249626,9.54013824,negative,GR,MALIX N  - GR213,negative,H 3A
CH:0225.07,82.6999969,47.3161011,7.80630732,positive,SO,"EGERKINGEN, VERZWEIGUNG A2 (AB)",positive,A 2
CH:0257.01,54.2999992,47.5769157,7.59880686,,BS,"BASEL, ANSCHLUSS WIESE, KLEINHAENINGEN (AB)",,A 2
CH:0517.01,111.900002,47.4150162,9.27768326,positive,SG,"GOSSAU, OBERBERG (AB)",positive,A 1
CH:0257.03,,47.579216,7.59952497,negative,BS,"BASEL, ANSCHLUSS WIESE, KLEINHAENINGEN (AB)",negative,A 2
CH:0517.03,120.800003,47.4150848,9.27780247,negative,SG,"GOSSAU, OBERBERG (AB)",negative,A 1
CH:0257.05,73.3000031,47.5764771,7.59918356,positive,BS,"BASEL, ANSCHLUSS WIESE, KLEINHAENINGEN (AB)",positive,A 2
CH:0257.04,65.8000031,47.5764732,7.59913635,positive,BS,"BASEL, ANSCHLUSS WIESE, KLEINHAENINGEN (AB)",positive,A 2
CH:0257.07,,47.5791473,7.59969234,,BS,"BASEL, ANSCHLUSS WIESE, KLEINHAENINGEN (AB)",,A 2
CH:0257.06,76.8000031,47.5764923,7.59926987,,BS,"BASEL, ANSCHLUSS WIESE, KLEINHAENINGEN (AB)",,A 2
CH:0083.01,104.599998,46.3831139,6.92471933,positive,VD,VILLENEUVE (AR),positive,A 9
CH:0829.01,114.199997,47.1485672,9.03923607,positive,GL,BILTEN (AB),positive,A 3
CH:0829.03,123.5,47.1486206,9.0393486,negative,GL,BILTEN (AB),negative,A 3
CH:0083.04,103.099998,46.3830719,6.92491293,negative,VD,VILLENEUVE (AR),negative,A 9
CH:0225.05,95.5999985,47.3160782,7.8061657,positive,SO,"EGERKINGEN, VERZWEIGUNG A2 (AB)",positive,A 2
CH:0225.06,86.0,47.316082,7.8062191,positive,SO,"EGERKINGEN, VERZWEIGUNG A2 (AB)",positive,A 2
CH:0225.03,92.3000031,47.3157387,7.80596495,negative,SO,"EGERKINGEN, VERZWEIGUNG A2 (AB)",negative,A 2
CH:0225.04,97.5,47.3157387,7.8060174,negative,SO,"EGERKINGEN, VERZWEIGUNG A2 (AB)",negative,A 2
CH:0119.02,54.7000008,46.6612091,7.55763435,positive,BE,ERLENBACH I.S.,positive,H 11
CH:0119.01,51.5,46.6612396,7.55763912,negative,BE,ERLENBACH I.S.,negative,H 11
CH:0830.03,122.0,47.1287003,9.08473015,negative,GL,NIEDERURNEN (AB),negative,A 3
CH:0830.02,123.199997,47.1286316,9.08473206,positive,GL,NIEDERURNEN (AB),positive,A 3
CH:0830.01,114.0,47.1285934,9.08475304,positive,GL,NIEDERURNEN (AB),positive,A 3
CH:0549.01,93.0,47.793293,8.60273075,negative,SH,"BARGEN N, ZOLL (AB)",negative,A 4
CH:0188.01,31.2999992,46.4645729,6.07308006,negative,VD,LA CURE,negative,H 123
CH:0550.03,117.199997,47.4908791,7.77218103,negative,#N/A,#N/A,negative,#N/A
CH:0550.02,107.900002,47.4908638,7.77214098,negative,#N/A,#N/A,negative,#N/A
CH:0120.02,52.0,46.945179,8.62076473,positive,UR,SISIKON S,positive,A 4
CH:0120.01,59.0,46.9451828,8.62071514,negative,UR,SISIKON S,negative,A 4
CH:0550.01,97.5,47.4908485,7.77210045,negative,#N/A,#N/A,negative,#N/A
CH:0038.01,46.0999985,47.3523102,7.92339611,positive,SO,STARRKIRCH,positive,H 5
CH:0038.02,45.7999992,47.3517838,7.92216635,negative,SO,STARRKIRCH,negative,H 5
CH:0269.01,99.0,46.2808266,7.51766157,positive,VS,SIERRE W (AB),positive,A 9
CH:0269.02,106.300003,46.2808495,7.51764202,positive,VS,SIERRE W (AB),positive,A 9
CH:0269.03,106.0,46.28088,7.51751423,negative,VS,SIERRE W (AB),negative,A 9
CH:0269.04,98.0,46.2809029,7.51749802,negative,VS,SIERRE W (AB),negative,A 9
CH:0270.05,,47.4120216,8.57288742,,ZH,ZUERICH - OERLIKON (AB) ZH 1301,,A 1L
CH:0270.03,,47.4116516,8.5732317,negative,ZH,ZUERICH - OERLIKON (AB) ZH 1301,negative,A 1L
CH:0363.01,57.7000008,47.2471008,7.7576685,negative,BE,"AARWANGEN, SCHUERHOF",negative,H 244
CH:0270.04,,47.4116821,8.57322788,negative,ZH,ZUERICH - OERLIKON (AB) ZH 1301,negative,A 1L
CH:0270.01,,47.4115105,8.57367325,positive,ZH,ZUERICH - OERLIKON (AB) ZH 1301,positive,A 1L
CH:0318.02,124.400002,47.0472679,9.43161488,positive,SG,MELS N (AB),positive,A 3
CH:0748.01,54.5,46.6034775,7.37407827,negative,BE,WEISSENBACH,negative,H 11
CH:0318.03,121.300003,47.0473022,9.43170834,negative,SG,MELS N (AB),negative,A 3
CH:0748.02,60.0,46.6034775,7.37413931,positive,BE,WEISSENBACH,positive,H 11
CH:0505.03,121.900002,46.4141388,6.23366928,negative,VD,"GLAND, DUILLIER (AR)",negative,A 1
CH:0505.02,117.400002,46.4140701,6.23372269,positive,VD,"GLAND, DUILLIER (AR)",positive,A 1
CH:0026.02,90.5999985,46.9988785,8.31123352,negative,LU,ENNETHORW (AB),negative,A 2
CH:0542.06,99.5999985,47.4356041,8.35306454,negative,AG,SPREITENBACH W (AB) - AG1446,negative,A 1
CH:0301.05,103.199997,47.3656082,8.42435551,negative,ZH,BIRMENSDORF N (AB) - ZH1103,negative,A 4
CH:0026.05,89.3000031,46.9989243,8.3114233,positive,LU,ENNETHORW (AB),positive,A 2
CH:0026.04,99.0,46.9989243,8.31138039,positive,LU,ENNETHORW (AB),positive,A 2
CH:0301.04,98.9000015,47.3646889,8.42419243,positive,ZH,BIRMENSDORF N (AB) - ZH1103,positive,A 4
CH:0026.01,65.0,46.9988632,8.31111336,,LU,ENNETHORW (AB),,A 2
CH:0141.02,61.5,47.5457878,9.18854618,positive,TG,SULGEN E,positive,H 14
CH:0301.07,82.0,47.3656197,8.42444611,negative,ZH,BIRMENSDORF N (AB) - ZH1103,negative,A 4
CH:0301.06,96.0999985,47.3656158,8.42440128,negative,ZH,BIRMENSDORF N (AB) - ZH1103,negative,A 4
CH:0542.02,112.400002,47.4354706,8.35293293,positive,AG,SPREITENBACH W (AB) - AG1446,positive,A 1
CH:0026.06,59.9000015,46.9988518,8.31150723,,LU,ENNETHORW (AB),,A 2
CH:0542.03,101.0,47.4354973,8.35296917,positive,AG,SPREITENBACH W (AB) - AG1446,positive,A 1
CH:0542.04,121.300003,47.4355545,8.35300636,negative,AG,SPREITENBACH W (AB) - AG1446,negative,A 1
CH:0301.08,71.0,47.3630791,8.42530632,,ZH,BIRMENSDORF N (AB) - ZH1103,,A 4
CH:0828.04,115.699997,47.0808449,9.50111485,positive,SG,TRUEBBACH N (AB),positive,A 13
CH:0828.01,114.0,47.0809441,9.50096798,negative,SG,TRUEBBACH N (AB),negative,A 13
CH:0828.02,122.800003,47.0809212,9.50100517,negative,SG,TRUEBBACH N (AB),negative,A 13
CH:0280.05,,47.3910027,8.14183521,,AG,SCHAFISHEIM (AB) -  AG1410,,A 1
CH:0529.05,87.8000031,46.68993,8.59514046,positive,UR,WASSEN (AB),positive,A 2
CH:0529.04,99.3000031,46.6899338,8.59509659,positive,UR,WASSEN (AB),positive,A 2
CH:0529.03,73.0,46.6899376,8.59502411,negative,UR,WASSEN (AB),negative,A 2
CH:0529.02,73.5999985,46.6899414,8.59498787,negative,UR,WASSEN (AB),negative,A 2
CH:0279.02,75.5,46.5806541,7.0905838,positive,FR,"ENNEY N, SAUSSIVUE",positive,H 190
CH:0279.01,78.3000031,46.5806732,7.09053516,negative,FR,"ENNEY N, SAUSSIVUE",negative,H 190
CH:0554.01,,47.4849243,7.77732944,negative,#N/A,#N/A,negative,#N/A
CH:0529.01,68.5,46.6899452,8.59494591,,UR,WASSEN (AB),,A 2
CH:0370.02,110.400002,46.4751015,6.81361294,positive,VD,CHEXBRES E (AR),positive,A 9
CH:0280.01,,47.3908424,8.14154625,positive,AG,SCHAFISHEIM (AB) -  AG1410,positive,A 1
CH:0280.03,,47.3909264,8.14182949,negative,AG,SCHAFISHEIM (AB) -  AG1410,negative,A 1
CH:0280.02,,47.3908806,8.14155006,positive,AG,SCHAFISHEIM (AB) -  AG1410,positive,A 1
CH:0325.03,123.300003,46.8493614,7.17649031,negative,FR,DUEDINGEN S (AB),negative,A 12
CH:0600.02,113.800003,47.4353142,9.64218616,negative,SG,"AU, LEHNENVIADUKT (AB)",negative,A 13
CH:0600.01,96.5999985,47.4353065,9.64214993,negative,SG,"AU, LEHNENVIADUKT (AB)",negative,A 13
CH:0325.01,116.0,46.8492851,7.17656088,positive,FR,DUEDINGEN S (AB),positive,A 12
CH:0243.03,103.099998,47.4463196,9.41953945,negative,SG,"ST. GALLEN E, BERGBACHVIADUKT (AB)",negative,A 1
CH:0243.04,96.3000031,47.4463348,9.41948414,negative,SG,"ST. GALLEN E, BERGBACHVIADUKT (AB)",negative,A 1
CH:0600.05,108.0,47.4352951,9.6423769,positive,SG,"AU, LEHNENVIADUKT (AB)",positive,A 13
CH:0014.01,58.2999992,46.4647026,9.79491425,negative,GR,"JULIER, LA VEDUTA",negative,H 3
CH:0014.02,56.0,46.4646988,9.79495239,positive,GR,"JULIER, LA VEDUTA",positive,H 3
CH:0656.01,59.0,46.8772392,8.70808601,positive,UR,SPIRINGEN - UR6301,positive,H 17
CH:0243.02,122.099998,47.4463692,9.41968155,positive,SG,"ST. GALLEN E, BERGBACHVIADUKT (AB)",positive,A 1
CH:0211.02,76.9000015,46.6520004,7.77469158,negative,BE,LEISSIGEN (TUNNEL) (AS),negative,A 8
CH:0598.07,78.0,47.4713364,9.44326878,,SG,"MEGGENHUS, VERZWEIGUNG (AB)",,A 23
CH:0598.06,76.5999985,47.4712982,9.4431963,positive,SG,"MEGGENHUS, VERZWEIGUNG (AB)",positive,A 23
CH:0211.01,77.0,46.6518517,7.77477741,positive,BE,LEISSIGEN (TUNNEL) (AS),positive,A 8
CH:0598.01,93.0,47.4708557,9.44267654,negative,SG,"MEGGENHUS, VERZWEIGUNG (AB)",negative,A 23
CH:0598.03,75.0999985,47.47089,9.44279003,negative,SG,"MEGGENHUS, VERZWEIGUNG (AB)",negative,A 23
CH:0598.02,99.5,47.4708519,9.44273186,negative,SG,"MEGGENHUS, VERZWEIGUNG (AB)",negative,A 23
CH:0598.05,89.0,47.4712753,9.44316101,positive,SG,"MEGGENHUS, VERZWEIGUNG (AB)",positive,A 23
CH:0116.01,84.0,46.5017548,6.71498966,positive,VD,GRANDVAUX N (AR),positive,A 9
CH:0116.03,104.300003,46.5018997,6.71516895,negative,VD,GRANDVAUX N (AR),negative,A 9
CH:0002.02,76.6999969,46.5751495,6.7246213,negative,VD,CHALET-A-GOBET,negative,H 1
CH:0002.01,74.9000015,46.5750885,6.72462416,positive,VD,CHALET-A-GOBET,positive,H 1
CH:0337.04,106.099998,47.4267464,8.23496914,negative,AG,BIRRHARD (AB) - AG1406,negative,A 1
CH:0337.02,117.900002,47.4266968,8.23507977,positive,AG,BIRRHARD (AB) - AG1406,positive,A 1
CH:0349.03,107.5,47.5462914,7.82531929,negative,AG,RHEINFELDEN (AB) - AG1420,negative,A 3
CH:0349.02,105.300003,47.5462227,7.82533741,positive,AG,RHEINFELDEN (AB) - AG1420,positive,A 3
CH:0349.04,100.300003,47.5463295,7.82530785,negative,AG,RHEINFELDEN (AB) - AG1420,negative,A 3
CH:0586.03,56.2000008,47.3937645,8.41720486,,ZH,URDORF N 2 (AB) - ZH1303,,A 3
CH:0586.04,,47.3950958,8.41862869,,ZH,URDORF N 2 (AB) - ZH1303,,A 3
CH:0586.01,62.7000008,47.3934135,8.41641235,,ZH,URDORF N 2 (AB) - ZH1303,,A 3
CH:0586.02,63.0,47.3934822,8.4164629,,ZH,URDORF N 2 (AB) - ZH1303,,A 3
CH:0530.01,74.0,46.894062,8.62063599,negative,UR,VERZWEIGUNG ALTDORF (AB),negative,A 4
CH:0530.02,71.0999985,46.8940392,8.62065601,negative,UR,VERZWEIGUNG ALTDORF (AB),negative,A 4
CH:0190.01,,46.9585457,6.7260251,positive,NE,"NOIRAIGUE, CLUSETTE",positive,H 10
CH:0190.02,,46.9585724,6.72601986,positive,NE,"NOIRAIGUE, CLUSETTE",positive,H 10
CH:0190.03,,46.9586029,6.72601414,negative,NE,"NOIRAIGUE, CLUSETTE",negative,H 10
CH:0394.01,46.5,47.048172,9.06083107,positive,GL,GLARUS N,positive,H 17
CH:0206.04,112.300003,46.7494545,6.61030579,negative,VD,"YVERDON, EPENDES (AR)",negative,A 1
CH:0206.03,120.699997,46.749424,6.61032391,negative,VD,"YVERDON, EPENDES (AR)",negative,A 1
CH:0087.02,50.7000008,47.6018639,9.29337502,positive,TG,GUETTINGEN,positive,H 13
CH:0206.02,120.199997,46.7493515,6.61035919,positive,VD,"YVERDON, EPENDES (AR)",positive,A 1
CH:0722.02,69.3000031,46.2035675,7.01384211,,VS,CCTL ST MAURICE OST,,A 9
CH:0173.02,58.0,46.9024696,6.46478558,positive,NE,LES VERRIERES,positive,H 10
CH:0173.01,61.0,46.9024391,6.46480846,negative,NE,LES VERRIERES,negative,H 10
CH:0206.01,112.0,46.749321,6.61037588,positive,VD,"YVERDON, EPENDES (AR)",positive,A 1
CH:0636.01,93.0,46.7112427,10.0853071,positive,GR,"ZERNEZ N, PRASCHITSCH - GR336",positive,H 27
CH:0648.03,113.599998,46.7836266,7.09024382,negative,FR,ANSCHLUSS MATRAN N,negative,A 12
CH:0075.02,77.5,46.9042397,7.70723486,negative,BE,"BOWIL, BORI",negative,H 10
CH:0648.02,121.199997,46.7836113,7.0902729,negative,FR,ANSCHLUSS MATRAN N,negative,A 12
CH:0075.01,77.0,46.904213,7.70726013,positive,BE,"BOWIL, BORI",positive,H 10
CH:0648.01,75.1999969,46.7840042,7.09072304,,FR,ANSCHLUSS MATRAN N,,A 12
CH:0218.03,111.5,47.0413208,7.03047514,negative,NE,CRESSIER (AR),negative,A 5
CH:0287.01,,47.4242859,8.48394871,positive,ZH,"WEININGEN, GUBRIST (AB)",positive,A 1C
CH:0218.04,102.0,47.0413399,7.03043795,negative,NE,CRESSIER (AR),negative,A 5
CH:0218.01,101.0,47.0412788,7.03057528,positive,NE,CRESSIER (AR),positive,A 5
CH:0648.04,82.1999969,46.7842941,7.09042263,,FR,ANSCHLUSS MATRAN N,,A 12
CH:0333.01,111.900002,46.6649323,6.57141018,positive,VD,BAVOIS (AR),positive,A 1
CH:0333.03,119.400002,46.6648979,6.5712738,negative,VD,BAVOIS (AR),negative,A 1
CH:0763.04,92.5,47.2813034,8.82399368,positive,ZH,HINWIL S,positive,A 15
CH:0763.02,124.0,47.2812424,8.82386589,negative,ZH,HINWIL S,negative,A 15
CH:0763.03,102.5,47.2812805,8.82395744,positive,ZH,HINWIL S,positive,A 15
CH:0287.04,,47.4244537,8.4839077,negative,ZH,"WEININGEN, GUBRIST (AB)",negative,A 1C
CH:0775.04,80.0,47.4745483,7.7590313,negative,BL,LAUSEN,negative,A 22
CH:0534.02,111.599998,46.5629654,6.577528,positive,VD,LAUSANNE BLECHERETTE (AR),positive,A 9
CH:0775.03,87.5,47.4745216,7.75900364,negative,BL,LAUSEN,negative,A 22
CH:0345.04,78.1999969,47.5344238,7.74143267,positive,AG,RHEINFELDEN (AB) - AG1424,positive,A 3
CH:0534.03,119.800003,46.5629959,6.57754183,positive,VD,LAUSANNE BLECHERETTE (AR),positive,A 9
CH:0104.03,86.4000015,46.9208908,7.50712729,positive,BE,MURI BE S (AB),positive,A 6
CH:0534.01,99.8000031,46.5629425,6.57751226,positive,VD,LAUSANNE BLECHERETTE (AR),positive,A 9
CH:0345.02,77.6999969,47.5345306,7.74139071,negative,AG,RHEINFELDEN (AB) - AG1424,negative,A 3
CH:0534.06,82.5999985,46.5631599,6.57734823,negative,VD,LAUSANNE BLECHERETTE (AR),negative,A 9
CH:0345.01,79.3000031,47.5345573,7.74136591,negative,AG,RHEINFELDEN (AB) - AG1424,negative,A 3
CH:0104.02,107.300003,46.9208527,7.50703859,negative,BE,MURI BE S (AB),negative,A 6
CH:0775.01,81.0,47.4744606,7.75894499,positive,BL,LAUSEN,positive,A 22
CH:0104.01,,46.9208374,7.50699949,negative,BE,MURI BE S (AB),negative,A 6
CH:0534.05,89.5,46.5631332,6.5773344,negative,VD,LAUSANNE BLECHERETTE (AR),negative,A 9
CH:0591.01,30.1000004,46.8808594,8.64363289,negative,UR,"ALTDORF, SCHMIEDGASSE - UR6018",negative,H 2
CH:0591.02,30.7999992,46.8808556,8.64368248,positive,UR,"ALTDORF, SCHMIEDGASSE - UR6018",positive,H 2
CH:0299.04,94.3000031,47.1969681,8.70278645,negative,SZ,"WOLLERAU, BLATTTUNNEL (AB)",negative,A 3
CH:0299.02,87.5,47.1968689,8.70273685,positive,SZ,"WOLLERAU, BLATTTUNNEL (AB)",positive,A 3
CH:0299.01,81.4000015,47.1968269,8.70271206,positive,SZ,"WOLLERAU, BLATTTUNNEL (AB)",positive,A 3
CH:0509.02,112.900002,46.4682579,6.34412432,positive,VD,ROLLE N (AR),positive,A 1
CH:0509.03,113.5,46.4683304,6.34408712,negative,VD,ROLLE N (AR),negative,A 1
CH:0509.04,105.900002,46.4683609,6.344069,negative,VD,ROLLE N (AR),negative,A 1
CH:0022.01,115.099998,47.367485,9.62198257,negative,SG,KRIESSERN (AB),negative,A 13
CH:0022.03,125.300003,47.3674164,9.62208176,positive,SG,KRIESSERN (AB),positive,A 13
CH:0693.02,48.5999985,47.1074562,9.06400871,negative,GL,NAEFELS N,negative,H 17
CH:0357.02,48.2999992,46.8197899,7.36532497,negative,BE,SCHWARZENBURG E,negative,H 183
CH:0263.01,39.7000008,46.478157,8.38672447,positive,VS,NUFENENPASS,positive,H 413
CH:0566.06,90.4000015,47.3420601,8.45755482,positive,ZH,DREIECK ZUERICH-WEST 1 (AB) - ZH1202,positive,A 4
CH:0566.04,76.0,47.3427429,8.45868397,negative,ZH,DREIECK ZUERICH-WEST 1 (AB) - ZH1202,negative,A 4
CH:0566.01,81.0999985,47.3426781,8.45784092,negative,ZH,DREIECK ZUERICH-WEST 1 (AB) - ZH1202,negative,A 4
CH:0566.02,79.0,47.3427086,8.45782185,negative,ZH,DREIECK ZUERICH-WEST 1 (AB) - ZH1202,negative,A 4
CH:0799.04,97.9000015,46.9788399,6.89054728,negative,NE,"SERRIERES, TUNNEL (AR)",negative,A 5
CH:0799.03,105.699997,46.9788132,6.8905592,negative,NE,"SERRIERES, TUNNEL (AR)",negative,A 5
CH:0799.02,107.300003,46.9787369,6.89059782,positive,NE,"SERRIERES, TUNNEL (AR)",positive,A 5
CH:0799.01,99.0,46.9787064,6.89061356,positive,NE,"SERRIERES, TUNNEL (AR)",positive,A 5
CH:0566.08,88.3000031,47.3411331,8.45746517,negative,ZH,DREIECK ZUERICH-WEST 1 (AB) - ZH1202,negative,A 4
CH:0099.02,79.0,46.6145172,9.99196053,negative,GR,UMF. S-CHANF,negative,H 27
CH:0275.03,125.0,47.5809174,8.92752838,negative,TG,FRAUENFELD OST  (AB),negative,A 7
CH:0275.02,125.0,47.5808258,8.92754745,positive,TG,FRAUENFELD OST  (AB),positive,A 7
CH:0275.04,117.5,47.5809441,8.92749119,negative,TG,FRAUENFELD OST  (AB),negative,A 7
CH:0313.03,122.800003,46.2077446,7.27196455,negative,VS,ARDON (AR),negative,A 9
CH:0313.04,115.5,46.2077713,7.27194023,negative,VS,ARDON (AR),negative,A 9
CH:0275.01,117.400002,47.5808029,8.9275856,positive,TG,FRAUENFELD OST  (AB),positive,A 7
CH:0009.01,50.0,46.770153,8.14407444,negative,OW,"BRUENIG, LETZI",negative,A 8
CH:0009.02,50.0,46.770153,8.14411545,positive,OW,"BRUENIG, LETZI",positive,A 8
CH:0043.01,94.5,46.5295982,6.5413146,positive,VD,PREVERENGES (AR),positive,A 1
CH:0043.03,107.900002,46.5296478,6.54127455,positive,VD,PREVERENGES (AR),positive,A 1
CH:0043.04,113.0,46.5297241,6.5412612,negative,VD,PREVERENGES (AR),negative,A 1
CH:0043.05,102.599998,46.5297508,6.54123783,negative,VD,PREVERENGES (AR),negative,A 1
CH:0043.06,93.0,46.5297775,6.5412178,negative,VD,PREVERENGES (AR),negative,A 1
CH:0099.01,80.8000031,46.6145096,9.99200916,positive,GR,UMF. S-CHANF,positive,H 27
CH:0604.04,112.199997,47.1491661,9.4985342,positive,SG,"SEVELEN, RASTPLATZ  (AB)",positive,A 13
CH:0604.01,111.900002,47.1491318,9.49832058,negative,SG,"SEVELEN, RASTPLATZ  (AB)",negative,A 13
CH:0604.03,121.800003,47.1491623,9.49848938,positive,SG,"SEVELEN, RASTPLATZ  (AB)",positive,A 13
CH:0604.02,121.800003,47.1491432,9.49837017,negative,SG,"SEVELEN, RASTPLATZ  (AB)",negative,A 13
CH:0010.01,44.5,46.6169052,8.56317139,negative,UR,"HOSPENTAL S, ST. GOTTHARD",negative,H 2
CH:0010.02,46.0,46.6168976,8.56322289,positive,UR,"HOSPENTAL S, ST. GOTTHARD",positive,H 2
CH:0578.05,97.5999985,47.3439941,8.514081,positive,ZH,UETLIBERGTUNNEL E (AB) - ZH1208,positive,A 3
CH:0578.04,100.0,47.3440361,8.51407337,positive,ZH,UETLIBERGTUNNEL E (AB) - ZH1208,positive,A 3
CH:0578.06,95.0,47.3439674,8.51409531,positive,ZH,UETLIBERGTUNNEL E (AB) - ZH1208,positive,A 3
CH:0578.03,85.5,47.3442993,8.51403809,negative,ZH,UETLIBERGTUNNEL E (AB) - ZH1208,negative,A 3
CH:0578.02,91.4000015,47.3443336,8.51403522,negative,ZH,UETLIBERGTUNNEL E (AB) - ZH1208,negative,A 3
CH:0522.02,103.900002,47.3409081,7.83342934,negative,SO,BELCHEN S (AB),negative,A 2
CH:0522.05,87.6999969,47.3409004,7.83362675,positive,SO,BELCHEN S (AB),positive,A 2
CH:0522.04,95.3000031,47.3409119,7.83357763,positive,SO,BELCHEN S (AB),positive,A 2
CH:0522.03,102.900002,47.3409271,7.8335309,positive,SO,BELCHEN S (AB),positive,A 2
CH:0055.05,115.300003,47.2119865,8.67240238,negative,ZH,RICHTERSWIL (AB),negative,A 3
CH:0055.04,124.800003,47.2119713,8.67235661,negative,ZH,RICHTERSWIL (AB),negative,A 3
CH:0055.03,122.599998,47.2119446,8.67225552,positive,ZH,RICHTERSWIL (AB),positive,A 3
CH:0330.03,49.2999992,47.1927528,8.72262859,,SZ,WOLLERAU ANSCHLUSS (AB),,A 3
CH:0330.02,53.2999992,47.1923599,8.72179031,,SZ,WOLLERAU ANSCHLUSS (AB),,A 3
CH:0571.02,94.0,47.3340607,8.45898628,negative,ZH,"ISLISBERG, ISLISBERGTUNNEL N (AB) - ZH2101",negative,A 4
CH:0571.01,101.0,47.3340721,8.45892811,negative,ZH,"ISLISBERG, ISLISBERGTUNNEL N (AB) - ZH2101",negative,A 4
CH:0571.04,92.6999969,47.3339958,8.45918655,positive,ZH,"ISLISBERG, ISLISBERGTUNNEL N (AB) - ZH2101",positive,A 4
CH:0571.03,96.0,47.3340149,8.45912838,positive,ZH,"ISLISBERG, ISLISBERGTUNNEL N (AB) - ZH2101",positive,A 4
CH:0238.03,105.699997,46.7590675,9.42455101,positive,GR,ROTHENBRUNNEN S (AB),positive,A 13
CH:0238.02,106.599998,46.7590561,9.42450809,negative,GR,ROTHENBRUNNEN S (AB),negative,A 13
CH:0055.01,53.0,47.2122803,8.67181015,,ZH,RICHTERSWIL (AB),,A 3
CH:0330.01,51.0,47.1928711,8.72137928,,SZ,WOLLERAU ANSCHLUSS (AB),,A 3
CH:0640.03,122.0,47.530468,8.8142767,positive,ZH,ANSCHLUSS ATTIKON (AB)),positive,A 1
CH:0627.02,46.0,46.5185661,8.5612278,negative,TI,"FONTANA, VALLE BEDRETTO - TI0917",negative,H 413
CH:0627.01,48.0,46.518528,8.5612545,positive,TI,"FONTANA, VALLE BEDRETTO - TI0917",positive,H 413
CH:0170.02,,46.7254333,7.99856997,negative,BE,GIESSBACHTUNNEL (AB),negative,A 8
CH:0170.01,,46.7253723,7.99854517,positive,BE,GIESSBACHTUNNEL (AB),positive,A 8
CH:0317.07,75.0,47.6458855,8.65113068,,ZH,BENKEN ANSCHLUSS (AB),,A 4
CH:0317.05,108.5,47.6460724,8.6505785,positive,ZH,BENKEN ANSCHLUSS (AB),positive,A 4
CH:0317.06,101.0,47.6460915,8.65061665,positive,ZH,BENKEN ANSCHLUSS (AB),positive,A 4
CH:0317.03,107.5,47.6460114,8.65053177,negative,ZH,BENKEN ANSCHLUSS (AB),negative,A 4
CH:0317.04,68.0,47.6446991,8.65095901,,ZH,BENKEN ANSCHLUSS (AB),,A 4
CH:0317.01,75.0,47.6458931,8.6502409,,ZH,BENKEN ANSCHLUSS (AB),,A 4
CH:0317.02,100.0,47.6460037,8.65049458,negative,ZH,BENKEN ANSCHLUSS (AB),negative,A 4
CH:0398.02,60.5,46.4866676,7.20253801,positive,VD,ROUGEMONT W,positive,H 11
CH:0067.01,51.2999992,46.3392487,8.02162743,positive,VS,"NATERS, BITSCH",positive,H 19
CH:0342.02,107.0,47.4226646,8.38874149,positive,AG,DIETIKON (AB) - AG1400,positive,A 1
CH:0067.02,49.0,46.3392677,8.02156162,negative,VS,"NATERS, BITSCH",negative,H 19
CH:0169.02,61.0,46.8001251,9.9004097,negative,GR,"FLUELA, TSCHUGGEN",negative,H 28
CH:0342.07,57.0,47.4226532,8.39096737,,AG,DIETIKON (AB) - AG1400,,A 1
CH:0342.08,45.2999992,47.4229126,8.38880539,,AG,DIETIKON (AB) - AG1400,,A 1
CH:0342.05,112.099998,47.4227943,8.38878345,negative,AG,DIETIKON (AB) - AG1400,negative,A 1
CH:0342.06,99.9000015,47.4228249,8.38879204,negative,AG,DIETIKON (AB) - AG1400,negative,A 1
CH:0342.03,97.0999985,47.4226303,8.38873196,positive,AG,DIETIKON (AB) - AG1400,positive,A 1
CH:0342.04,121.300003,47.4227638,8.38877296,negative,AG,DIETIKON (AB) - AG1400,negative,A 1
CH:0169.01,65.0,46.800106,9.90037727,positive,GR,"FLUELA, TSCHUGGEN",positive,H 28
CH:0857.01,104.199997,46.7486763,7.60226011,negative,BE,"THUN, ALLMENDTUNNEL S (AB)",negative,A 6
CH:0639.02,96.0,47.4979057,8.69400692,positive,ZH,WINTERTHUR TOESS (AB) - ZH105,positive,A 1
CH:0639.03,104.5,47.4978752,8.69390392,negative,ZH,WINTERTHUR TOESS (AB) - ZH105,negative,A 1
CH:0729.01,65.3000031,46.0278511,8.92664623,negative,TI,GALLERIA VEDEGGIO-CASSARATE,negative,H 399
CH:0729.02,65.3000031,46.0278778,8.92665863,positive,TI,GALLERIA VEDEGGIO-CASSARATE,positive,H 399
CH:0305.02,74.0,47.1203461,7.27693939,positive,BE,BRUEGG,positive,A 6
CH:0366.01,,47.4528122,8.31499767,,AG,NEUENHOF ANSCHLUSS - AG1571,,A 1
CH:0305.01,77.4000015,47.120327,7.27691364,negative,BE,BRUEGG,negative,A 6
CH:0366.03,,47.4530602,8.31507492,,AG,NEUENHOF ANSCHLUSS - AG1571,,A 1
CH:0366.04,,47.454071,8.31667423,,AG,NEUENHOF ANSCHLUSS - AG1571,,A 1
CH:0145.02,56.4000015,47.3394661,7.90893269,positive,AG,AARBURG N,positive,H 2
CH:0145.01,54.7999992,47.3394661,7.9088912,negative,AG,AARBURG N,negative,H 2
CH:0366.05,,47.4537849,8.31626129,,AG,NEUENHOF ANSCHLUSS - AG1571,,A 1
CH:0546.02,97.9000015,47.4250488,8.3790884,positive,AG,SPREITENBACH O (AB),positive,A 1
CH:0546.01,91.6999969,47.4250107,8.37906933,positive,AG,SPREITENBACH O (AB),positive,A 1
CH:0546.04,106.400002,47.4251442,8.37913609,negative,AG,SPREITENBACH O (AB),negative,A 1
CH:0546.03,105.900002,47.4250679,8.37909985,positive,AG,SPREITENBACH O (AB),positive,A 1
CH:0546.06,88.9000015,47.4252014,8.37917042,negative,AG,SPREITENBACH O (AB),negative,A 1
CH:0546.05,97.5999985,47.4251709,8.37914848,negative,AG,SPREITENBACH O (AB),negative,A 1
CH:0157.01,41.2999992,46.6812553,9.52541828,positive,GR,"ALVASCHEIN, SOLISTUNNEL",positive,H 417
CH:0696.01,,47.2102165,7.73711157,positive,BE,BUETZBERG,positive,H 1
CH:0283.01,69.6999969,47.5706253,7.58274269,,BS,"BASEL - ST. JOHANN, TUNNEL E (AB)",,A 3
CH:0079.01,81.0,47.1616669,7.66607189,positive,BE,SEEBERG N,positive,H 1
CH:0283.02,78.6999969,47.5706825,7.58273745,positive,BS,"BASEL - ST. JOHANN, TUNNEL E (AB)",positive,A 3
CH:0079.02,78.0,47.1616783,7.66601801,negative,BE,SEEBERG N,negative,H 1
CH:0283.05,77.4000015,47.5708008,7.58273363,negative,BS,"BASEL - ST. JOHANN, TUNNEL E (AB)",negative,A 3
CH:0283.06,70.6999969,47.5708733,7.58273554,,BS,"BASEL - ST. JOHANN, TUNNEL E (AB)",,A 3
CH:0283.03,85.8000031,47.5707245,7.58273745,positive,BS,"BASEL - ST. JOHANN, TUNNEL E (AB)",positive,A 3
CH:0283.04,83.5,47.5707626,7.58273649,negative,BS,"BASEL - ST. JOHANN, TUNNEL E (AB)",negative,A 3
CH:0030.01,64.0,47.3893509,7.37092876,negative,JU,SOYHIERES,negative,H 18
CH:0030.02,70.6999969,47.3893204,7.37092924,positive,JU,SOYHIERES,positive,H 18
CH:0502.04,78.6999969,47.1273308,9.06907654,negative,GL,"OBERURNEN, ZUBRINGER GLARNERLAND (AB)",negative,A 17
CH:0502.03,79.0,47.1273499,9.06914997,negative,GL,"OBERURNEN, ZUBRINGER GLARNERLAND (AB)",negative,A 17
CH:0502.02,78.3000031,47.1273651,9.06921577,positive,GL,"OBERURNEN, ZUBRINGER GLARNERLAND (AB)",positive,A 17
CH:0833.01,92.0,47.1495285,7.28867388,positive,BE,BUETTENBERGTUNNEL,positive,A 5
CH:0558.01,96.0,47.4750862,7.78141737,negative,#N/A,#N/A,negative,#N/A
CH:0558.02,102.800003,47.4751091,7.78145742,negative,#N/A,#N/A,negative,#N/A
CH:0295.01,,47.5185242,8.01322079,positive,AG,OESCHGEN (AB),positive,A 3
CH:0833.03,81.0,47.1495247,7.28852129,negative,BE,BUETTENBERGTUNNEL,negative,A 5
CH:0833.02,88.8000031,47.1495285,7.28862715,positive,BE,BUETTENBERGTUNNEL,positive,A 5
CH:0295.03,,47.5186005,8.01332283,negative,AG,OESCHGEN (AB),negative,A 3
CH:0833.04,81.0,47.1495209,7.2884469,negative,BE,BUETTENBERGTUNNEL,negative,A 5
CH:0295.02,,47.5185471,8.01325512,positive,AG,OESCHGEN (AB),positive,A 3
CH:0295.04,,47.5186234,8.01336098,negative,AG,OESCHGEN (AB),negative,A 3
CH:0607.03,112.599998,47.2851601,8.55674458,negative,ZH,THALWIL ( AB) - ZH104,negative,A 3
CH:0607.01,107.5,47.285099,8.55661392,positive,ZH,THALWIL ( AB) - ZH104,positive,A 3
CH:0607.02,103.199997,47.2851143,8.55665398,positive,ZH,THALWIL ( AB) - ZH104,positive,A 3
CH:0121.01,106.699997,46.9631577,6.86745024,positive,NE,"COLOMBIER, AREUSE (AR)",positive,A 5
CH:0121.03,118.0,46.9632301,6.86738586,negative,NE,"COLOMBIER, AREUSE (AR)",negative,A 5
CH:0309.01,100.099998,46.6897202,7.65987539,positive,BE,SPIEZ (AB),positive,A 6
CH:0017.04,97.0,47.3879013,8.10109329,negative,AG,BUCHS AG (AB),negative,A 1R
CH:0309.03,115.5,46.6898193,7.6599555,negative,BE,SPIEZ (AB),negative,A 6
CH:0017.02,105.0,47.3878136,8.10109901,positive,AG,BUCHS AG (AB),positive,A 1R
CH:0309.02,103.0,46.6897469,7.65990067,positive,BE,SPIEZ (AB),positive,A 6
CH:0017.01,97.4000015,47.3877869,8.10109997,positive,AG,BUCHS AG (AB),positive,A 1R
CH:0309.04,107.099998,46.689846,7.65997982,negative,BE,SPIEZ (AB),negative,A 6
CH:0551.02,,47.4897232,7.77321196,negative,#N/A,#N/A,negative,#N/A
CH:0551.01,,47.4897079,7.77317429,negative,#N/A,#N/A,negative,#N/A
CH:0133.02,66.0,46.7885818,10.2703562,negative,GR,SCHULS W,negative,H 27
CH:0133.01,68.0,46.788559,10.2703848,positive,GR,SCHULS W,positive,H 27
CH:0563.01,42.7999992,47.3478317,8.42538357,,ZH,ANSCHLUSS BIRMENSDORF 1 EIN-AUSFAHRT (AB) -ZH1105,,A 4
CH:0271.04,,46.9365654,7.49132204,positive,BE,MURI BE N (AB),positive,A 6
CH:0271.02,,46.9364853,7.49126005,negative,BE,MURI BE N (AB),negative,A 6
CH:0189.01,61.7999992,47.0679474,6.76749563,negative,NE,LE LOCLE E,negative,H 20
CH:0189.03,,47.0680046,6.7674098,positive,NE,LE LOCLE E,positive,H 20
CH:0246.01,83.4000015,47.6509171,9.15401936,positive,TG,"KREUZLINGEN, GIRSBAERGTUNNEL N (AB)",positive,A 7
CH:0005.01,60.0,47.0001717,9.07611847,positive,GL,SCHWANDEN N,positive,H 17
CH:0676.02,106.5,47.0044861,6.96373463,positive,NE,HAUTERIVE (AR),positive,A 5
CH:0005.02,61.0,47.0001945,9.07607269,negative,GL,SCHWANDEN N,negative,H 17
CH:0676.01,96.0,47.0044327,6.96377087,positive,NE,HAUTERIVE (AR),positive,A 5
CH:0619.01,78.8000031,47.1987953,8.45815659,negative,ZG,BLEGI S (AB),negative,A 4
CH:0246.02,85.0,47.6509323,9.1539793,positive,TG,"KREUZLINGEN, GIRSBAERGTUNNEL N (AB)",positive,A 7
CH:0619.02,84.8000031,47.1987762,8.45821381,negative,ZG,BLEGI S (AB),negative,A 4
CH:0526.02,34.0,46.1772385,8.70099926,negative,TI,INTRAGNA-CENTOVALLI,negative,H 560
CH:0526.01,33.2999992,46.1772423,8.70101738,positive,TI,INTRAGNA-CENTOVALLI,positive,H 560
CH:0197.02,40.0999985,46.9321785,8.39255524,positive,NW,DALLENWIL,positive,H 374
CH:0197.01,43.0,46.9321785,8.39249706,negative,NW,DALLENWIL,negative,H 374
CH:0060.03,109.5,47.3117371,7.81936598,positive,SO,GUNZGEN (AB),positive,A 1
CH:0059.03,116.099998,46.9975243,6.95203161,negative,NE,TRAV. DE NEUCHATEL E (AR),negative,A 5
CH:0060.01,97.8000031,47.3116798,7.81934834,positive,SO,GUNZGEN (AB),positive,A 1
CH:0059.04,104.699997,46.9975586,6.95204258,negative,NE,TRAV. DE NEUCHATEL E (AR),negative,A 5
CH:0060.06,96.3000031,47.3116646,7.82073593,negative,SO,GUNZGEN (AB),negative,A 1
CH:0060.05,102.5,47.3116417,7.82073593,negative,SO,GUNZGEN (AB),negative,A 1
CH:0060.04,109.0,47.3116188,7.82072592,negative,SO,GUNZGEN (AB),negative,A 1
CH:0632.01,62.7000008,46.840435,9.86384869,positive,GR,"DAVOS N, LARET - GR0237",positive,H 28
CH:0632.02,69.5,46.8404083,9.86387062,negative,GR,"DAVOS N, LARET - GR0237",negative,H 28
CH:0214.01,96.3000031,46.9513626,7.38445044,positive,BE,"BERN, BRUENNENTUNNEL (AB)",positive,A 1
CH:0214.03,103.300003,46.9514008,7.38430834,negative,BE,"BERN, BRUENNENTUNNEL (AB)",negative,A 1
CH:0538.01,95.4000015,46.4575233,6.88343573,positive,VD,MONTREUX (AR),positive,A 9
CH:0374.02,102.300003,47.3299561,8.52897263,positive,ZH,WOLLISHOFEN (AB) RI SARGANS - ZH1215,positive,A 3
CH:0538.02,105.300003,46.4575539,6.88345242,positive,VD,MONTREUX (AR),positive,A 9
CH:0374.04,49.0,47.3286476,8.5283308,,ZH,WOLLISHOFEN (AB) RI SARGANS - ZH1215,,A 3
CH:0538.03,119.0,46.4574051,6.88471556,negative,VD,MONTREUX (AR),negative,A 9
CH:0072.04,,47.3822136,8.11100578,negative,AG,HUNZENSCHWIL (AB),negative,A 1
CH:0538.04,107.400002,46.4574394,6.88472128,negative,VD,MONTREUX (AR),negative,A 9
CH:0374.01,53.4000015,47.3286629,8.5282402,,ZH,WOLLISHOFEN (AB) RI SARGANS - ZH1215,,A 3
CH:0329.04,110.5,46.942585,7.15328026,negative,FR,"MURTEN, LOEWENBERG (AB)",negative,A 1
CH:0329.01,114.199997,46.9425468,7.15356207,positive,FR,"MURTEN, LOEWENBERG (AB)",positive,A 1
CH:0258.01,39.5,46.4699211,9.71702957,negative,GR,"JULIER, LA VEDUTA",negative,H 3
CH:0258.02,46.0,46.4699326,9.71708584,positive,GR,"JULIER, LA VEDUTA",positive,H 3
CH:0165.02,124.599998,46.1188583,7.06942511,positive,VS,MARTIGNY N (AR),positive,A 9
CH:0165.03,123.199997,46.1189003,7.06951141,negative,VS,MARTIGNY N (AR),negative,A 9
CH:0759.03,123.0,47.37397,8.69842052,negative,ZH,NAENIKON,negative,A 15
CH:0759.02,123.0,47.3739166,8.69839096,positive,ZH,NAENIKON,positive,A 15
CH:0759.01,109.900002,47.3738899,8.69837284,positive,ZH,NAENIKON,positive,A 15
CH:0853.04,79.5,47.1577911,7.27066898,positive,BE,BIENNE NORD (AB),positive,A 16
CH:0853.01,83.6999969,47.1575661,7.27069616,negative,BE,BIENNE NORD (AB),negative,A 16
CH:0165.01,114.0,46.1188354,7.06939268,positive,VS,MARTIGNY N (AR),positive,A 9
CH:0853.03,90.0,47.157753,7.27067518,positive,BE,BIENNE NORD (AB),positive,A 16
CH:0324.02,126.400002,46.5485382,6.91519976,positive,FR,CHATEL-ST-DENIS N (AR),positive,A 12
CH:0324.01,119.099998,46.5485382,6.91524935,positive,FR,CHATEL-ST-DENIS N (AR),positive,A 12
CH:0244.04,85.0,47.4981003,7.60279083,positive,BL,REINACH BL (AB),positive,A 18
CH:0324.04,117.099998,46.5485382,6.91507149,negative,FR,CHATEL-ST-DENIS N (AR),negative,A 12
CH:0324.03,124.199997,46.5485382,6.91512203,negative,FR,CHATEL-ST-DENIS N (AR),negative,A 12
CH:0244.02,94.0,47.4982262,7.60272312,negative,BL,REINACH BL (AB),negative,A 18
CH:0244.03,93.8000031,47.4981117,7.60274601,positive,BL,REINACH BL (AB),positive,A 18
CH:0244.01,85.5999985,47.4982338,7.60268688,negative,BL,REINACH BL (AB),negative,A 18
CH:0096.01,114.599998,46.8375549,9.45603275,negative,GR,DOMAT/EMS (AB),negative,A 13
CH:0096.02,123.599998,46.8375168,9.45602131,negative,GR,DOMAT/EMS (AB),negative,A 13
CH:0096.03,121.900002,46.8374443,9.45605183,positive,GR,DOMAT/EMS (AB),positive,A 13
CH:0096.04,112.0,46.8374062,9.45606327,positive,GR,DOMAT/EMS (AB),positive,A 13
CH:0518.01,50.0,47.3933449,8.49398518,,ZH,ZUERICH HARDTURM (AB),,A 1H
CH:0518.02,63.5999985,47.3933868,8.49397659,positive,ZH,ZUERICH HARDTURM (AB),positive,A 1H
CH:0518.05,62.5,47.3936844,8.49397182,negative,ZH,ZUERICH HARDTURM (AB),negative,A 1H
CH:0312.02,,47.4489746,8.23756599,positive,AG,MUELLIGEN OST (AB) - AG1422,positive,A 3
CH:0312.04,,47.4490738,8.23762131,negative,AG,MUELLIGEN OST (AB) - AG1422,negative,A 3
CH:0312.01,,47.4489441,8.23754787,positive,AG,MUELLIGEN OST (AB) - AG1422,positive,A 3
CH:0633.01,70.0,46.7018738,9.72562218,positive,GR,WIESEN E - GR0239,positive,H 417
CH:0232.02,127.0,46.1483078,7.15339613,positive,VS,SAXON W (AR),positive,A 9
CH:0232.01,118.300003,46.1482811,7.15343475,positive,VS,SAXON W (AR),positive,A 9
CH:0336.02,,47.3215561,7.9656868,positive,AG,WALTERSWIL (AB) - AG1413,positive,A 1
CH:0852.03,126.699997,46.1152306,7.09860849,positive,VS,ECHANGEUR GD.ST.BERNARD EST (AR),positive,A 9
CH:0852.04,123.699997,46.1152916,7.09855127,negative,VS,ECHANGEUR GD.ST.BERNARD EST (AR),negative,A 9
CH:0852.05,114.900002,46.1153183,7.09853125,negative,VS,ECHANGEUR GD.ST.BERNARD EST (AR),negative,A 9
CH:0232.04,117.5,46.1483841,7.15328741,negative,VS,SAXON W (AR),negative,A 9
CH:0852.06,92.1999969,46.1153603,7.09849644,negative,VS,ECHANGEUR GD.ST.BERNARD EST (AR),negative,A 9
CH:0852.01,90.1999969,46.1151695,7.09865665,positive,VS,ECHANGEUR GD.ST.BERNARD EST (AR),positive,A 9
CH:0393.03,55.5,46.843853,8.2007618,,OW,"SACHSELN, ZOLLHAUS",,A 8
CH:0393.06,51.0,46.8433418,8.2001009,,OW,"SACHSELN, ZOLLHAUS",,A 8
CH:0393.05,78.8000031,46.8433647,8.20007515,positive,OW,"SACHSELN, ZOLLHAUS",positive,A 8
CH:0506.02,52.0,46.1714745,8.77140617,negative,TI,SOLDUNO N,negative,H 407
CH:0506.01,49.7000008,46.1714516,8.77139473,positive,TI,SOLDUNO N,positive,H 407
CH:0393.01,57.0,46.843544,8.20008469,negative,OW,"SACHSELN, ZOLLHAUS",negative,A 8
CH:0300.02,115.199997,46.477169,6.41126871,positive,VD,ETOY (AR),positive,A 1
CH:0025.02,120.5,47.0144577,9.50470352,negative,SG,BAD RAGAZ (AB),negative,A 13
CH:0025.01,110.900002,47.0144196,9.50469589,negative,SG,BAD RAGAZ (AB),negative,A 13
CH:0300.01,108.300003,46.4771347,6.4112587,positive,VD,ETOY (AR),positive,A 1
CH:0300.04,107.099998,46.4772758,6.411304,negative,VD,ETOY (AR),negative,A 1
CH:0025.03,122.5,47.0145302,9.50471783,positive,SG,BAD RAGAZ (AB),positive,A 13
CH:0186.01,53.7000008,46.3895645,6.81614208,negative,VS,ST-GINGOLPH E,negative,H 21
CH:0186.02,52.7999992,46.3895836,6.81619549,positive,VS,ST-GINGOLPH E,positive,H 21
CH:0084.01,66.0999985,47.4311333,9.37897015,positive,SG,"ST. GALLEN, ROSENB'TUNNEL (AB)",positive,A 1
CH:0599.01,114.300003,47.4731522,9.58756065,positive,SG,"BURIET, RUDERBACH (AB)",positive,A1
CH:0599.04,115.099998,47.473259,9.58767796,negative,SG,"BURIET, RUDERBACH (AB)",negative,A1
CH:0084.03,68.4000015,47.4314003,9.37884235,negative,SG,"ST. GALLEN, ROSENB'TUNNEL (AB)",negative,A 1
CH:0599.03,123.199997,47.4732513,9.58764362,negative,SG,"BURIET, RUDERBACH (AB)",negative,A1
CH:0084.02,74.4000015,47.4311676,9.37895203,positive,SG,"ST. GALLEN, ROSENB'TUNNEL (AB)",positive,A 1
CH:0084.04,65.6999969,47.4314346,9.37882137,negative,SG,"ST. GALLEN, ROSENB'TUNNEL (AB)",negative,A 1
CH:0268.01,98.1999969,46.2201004,7.00703096,positive,VS,ST. MAURICE (AR),positive,A 9
CH:0543.02,112.199997,47.4301186,8.36465073,positive,AG,SPREITENBACH AUSFAHRT (AB) - AG1445,positive,A 1
CH:0268.02,104.699997,46.220108,7.00706291,positive,VS,ST. MAURICE (AR),positive,A 9
CH:0268.04,97.0999985,46.2195053,7.00756168,negative,VS,ST. MAURICE (AR),negative,A 9
CH:0543.04,83.4000015,47.4300041,8.36458874,,AG,SPREITENBACH AUSFAHRT (AB) - AG1445,,A 1
CH:0575.04,66.0,47.2704506,8.43822289,,ZH,ANSCHLUSS AFFOLTERN  A.A1(AB) - ZH2105,,A 4
CH:0575.03,63.2999992,47.2724228,8.43729305,,ZH,ANSCHLUSS AFFOLTERN  A.A1(AB) - ZH2105,,A 4
CH:0575.02,110.900002,47.272541,8.43767452,negative,ZH,ANSCHLUSS AFFOLTERN  A.A1(AB) - ZH2105,negative,A 4
CH:0587.01,55.0,47.6557617,9.15958977,,TG,"KREUZLINGEN, HAUPTZOLLAMT",,A 7
CH:0348.04,,47.5451889,7.80114317,positive,AG,RHEINFELDEN (AB) - AG1427,positive,A 3
CH:0348.03,,47.5451584,7.80114937,positive,AG,RHEINFELDEN (AB) - AG1427,positive,A 3
CH:0587.04,35.0,47.6559639,9.1594305,negative,TG,"KREUZLINGEN, HAUPTZOLLAMT",negative,A 7
CH:0348.05,,47.5452576,7.80112123,negative,AG,RHEINFELDEN (AB) - AG1427,negative,A 3
CH:0587.02,35.2000008,47.6557961,9.15947533,positive,TG,"KREUZLINGEN, HAUPTZOLLAMT",positive,A 7
CH:0348.08,,47.5452309,7.80021238,,AG,RHEINFELDEN (AB) - AG1427,,A 3
CH:0587.03,33.2999992,47.6558037,9.15943432,positive,TG,"KREUZLINGEN, HAUPTZOLLAMT",positive,A 7
CH:0105.03,41.0,47.2109261,8.54366684,positive,ZG,BAAR N (AB),positive,A 14
CH:0105.02,110.0,47.2109718,8.54367638,negative,ZG,BAAR N (AB),negative,A 14
CH:0361.02,57.7999992,47.0750465,7.58648014,positive,BE,KIRCHBERG S,positive,H 23
CH:0361.01,58.5,47.0750732,7.58650017,negative,BE,KIRCHBERG S,negative,H 23
CH:0040.01,89.0,46.9527664,8.27782345,negative,OW,ALPNACHSTAD (AB),negative,A 8
CH:0174.02,41.5,47.0512161,6.71954155,positive,NE,COL DES ROCHES,positive,H 20
CH:0587.06,28.0,47.6565666,9.15966511,,TG,"KREUZLINGEN, HAUPTZOLLAMT",,A 7
CH:0601.01,55.0999985,47.4275017,9.36142254,positive,SG,"ST. GALLEN, SCHORENTUNNEL (AB)",positive,A 1
CH:0601.02,61.0999985,47.4275131,9.36149502,positive,SG,"ST. GALLEN, SCHORENTUNNEL (AB)",positive,A 1
CH:0601.03,62.0,47.4275932,9.36221409,negative,SG,"ST. GALLEN, SCHORENTUNNEL (AB)",negative,A 1
CH:0601.04,64.3000031,47.4276085,9.36228561,negative,SG,"ST. GALLEN, SCHORENTUNNEL (AB)",negative,A 1
CH:0200.04,54.9000015,46.1514206,6.09665489,negative,GE,"GENEVE, BARDONNEX (AR)",negative,A 1A
CH:0200.05,51.2999992,46.151432,6.09661865,negative,GE,"GENEVE, BARDONNEX (AR)",negative,A 1A
CH:0162.01,114.800003,46.9612427,7.25292158,positive,BE,"MUEHLEBERG, SAANEVIAD. (AB)",positive,A 1
CH:0200.06,51.0,46.1514435,6.09657764,negative,GE,"GENEVE, BARDONNEX (AR)",negative,A 1A
CH:0162.02,121.300003,46.9612694,7.25293493,positive,BE,"MUEHLEBERG, SAANEVIAD. (AB)",positive,A 1
CH:0162.03,122.099998,46.9613037,7.25312328,negative,BE,"MUEHLEBERG, SAANEVIAD. (AB)",negative,A 1
CH:0162.04,114.800003,46.9613342,7.25313759,negative,BE,"MUEHLEBERG, SAANEVIAD. (AB)",negative,A 1
CH:0827.03,123.900002,47.1903839,9.4853363,positive,SG,BUCHS (AB),positive,A 13
CH:0200.01,71.5,46.151371,6.09684467,positive,GE,"GENEVE, BARDONNEX (AR)",positive,A 1A
CH:0827.02,122.599998,47.1903992,9.48523808,negative,SG,BUCHS (AB),negative,A 13
CH:0117.06,109.400002,47.1735077,8.43221283,positive,ZG,HUENENBERG S (AB),positive,A 4
CH:0117.01,107.300003,47.1735229,8.43195343,negative,ZG,HUENENBERG S (AB),negative,A 4
CH:0064.05,115.400002,46.5458183,6.63150501,negative,VD,CONT. DE LAUSANNE (AR),negative,A 9
CH:0149.06,90.6999969,46.5704918,6.55722952,negative,VD,MEX (AR),negative,A 1
CH:0580.05,79.5,47.3468895,8.52007008,negative,ZH,DREIECK ZUERICH-SUED N (AB) - ZH1210,negative,A 3
CH:0064.04,123.400002,46.5458031,6.63147402,negative,VD,CONT. DE LAUSANNE (AR),negative,A 9
CH:0613.04,45.5,46.9725075,8.4400692,,NW,ANSCHLUSS BUOCHS RI LUZERN (AB),,A 2
CH:0613.03,83.3000031,46.972187,8.44114304,positive,NW,ANSCHLUSS BUOCHS RI LUZERN (AB),positive,A 2
CH:0149.05,102.699997,46.5704918,6.557271,negative,VD,MEX (AR),negative,A 1
CH:0580.04,81.5,47.3469315,8.51997471,positive,ZH,DREIECK ZUERICH-SUED N (AB) - ZH1210,positive,A 3
CH:0613.02,81.9000015,46.9722252,8.44118786,positive,NW,ANSCHLUSS BUOCHS RI LUZERN (AB),positive,A 2
CH:0580.02,83.8000031,47.3469963,8.51984882,positive,ZH,DREIECK ZUERICH-SUED N (AB) - ZH1210,positive,A 3
CH:0579.01,97.0,47.3410263,8.52185059,positive,ZH,DREIECK ZUERICH-SUED S (AB) - ZH1209,positive,A 3
CH:0579.04,91.0,47.3410645,8.52214336,negative,ZH,DREIECK ZUERICH-SUED S (AB) - ZH1209,negative,A 3
CH:0149.01,94.5,46.5705109,6.5575099,positive,VD,MEX (AR),positive,A 1
CH:0064.03,121.0,46.5456352,6.63155174,positive,VD,CONT. DE LAUSANNE (AR),positive,A 9
CH:0064.02,112.400002,46.54562,6.63151979,positive,VD,CONT. DE LAUSANNE (AR),positive,A 9
CH:0579.03,96.5999985,47.341053,8.52209282,negative,ZH,DREIECK ZUERICH-SUED S (AB) - ZH1209,negative,A 3
CH:0150.01,70.0999985,46.6675606,8.59175396,negative,UR,GOTTHARDTUNNEL (AB),negative,A 2
CH:0613.01,43.0,46.9723969,8.44115734,,NW,ANSCHLUSS BUOCHS RI LUZERN (AB),,A 2
CH:0150.02,70.5,46.667572,8.59187412,positive,UR,GOTTHARDTUNNEL (AB),positive,A 2
CH:0580.08,80.5,47.3467979,8.52025032,negative,ZH,DREIECK ZUERICH-SUED N (AB) - ZH1210,negative,A 3
CH:0580.07,82.8000031,47.346817,8.52021027,negative,ZH,DREIECK ZUERICH-SUED N (AB) - ZH1210,negative,A 3
CH:0344.04,,47.5324669,7.73584414,negative,AG,RHEINFELDEN (AB) - AG1423,negative,A 3
CH:0344.03,,47.5323448,7.73581696,positive,AG,RHEINFELDEN (AB) - AG1423,positive,A 3
CH:0344.01,,47.5325012,7.73656273,,AG,RHEINFELDEN (AB) - AG1423,,A 3
CH:0191.02,123.0,47.0453682,8.55925465,negative,SZ,GOLDAU S (AB),negative,A 4
CH:0344.06,,47.532753,7.7363205,,AG,RHEINFELDEN (AB) - AG1423,,A 3
CH:0344.05,,47.5324936,7.7358222,negative,AG,RHEINFELDEN (AB) - AG1423,negative,A 3
CH:0191.04,108.800003,47.045433,8.55916309,positive,SZ,GOLDAU S (AB),positive,A 4
CH:0288.01,,47.2717819,7.71597958,positive,BE,NIEDERBIPP (AB),positive,A 1
CH:0288.03,,47.2718086,7.71584129,negative,BE,NIEDERBIPP (AB),negative,A 1
CH:0076.01,86.9000015,45.9648781,8.92612457,negative,TI,GRANCIA (AS),negative,A 2
CH:0076.02,95.3000031,45.9648972,8.92616653,negative,TI,GRANCIA (AS),negative,A 2
CH:0076.03,95.5999985,45.9649773,8.9263258,positive,TI,GRANCIA (AS),positive,A 2
CH:0076.04,83.5999985,45.9649887,8.92637253,positive,TI,GRANCIA (AS),positive,A 2
CH:0252.07,82.0,46.8896217,8.61937141,,UR,VERZWEIGUNG ALTDORFA2/A4 (AB),,A 2
CH:0252.06,88.0,46.8896027,8.6193161,,UR,VERZWEIGUNG ALTDORFA2/A4 (AB),,A 2
CH:0252.05,95.0999985,46.889782,8.61880398,positive,UR,VERZWEIGUNG ALTDORFA2/A4 (AB),positive,A 2
CH:0252.04,100.699997,46.8897591,8.61877155,positive,UR,VERZWEIGUNG ALTDORFA2/A4 (AB),positive,A 2
CH:0252.03,90.3000031,46.8896828,8.6187849,negative,UR,VERZWEIGUNG ALTDORFA2/A4 (AB),negative,A 2
CH:0252.01,69.0,46.8895264,8.61860752,,UR,VERZWEIGUNG ALTDORFA2/A4 (AB),,A 2
CH:0288.04,,47.2718201,7.71579266,negative,BE,NIEDERBIPP (AB),negative,A 1
CH:0625.03,120.800003,47.1895676,8.49857044,positive,ZG,STEINHAUSEN E (AB),positive,A 14
CH:0625.04,107.5,47.1895409,8.49860287,positive,ZG,STEINHAUSEN E (AB),positive,A 14
CH:0625.01,112.0,47.1896591,8.49851513,negative,ZG,STEINHAUSEN E (AB),negative,A 14
CH:0219.04,,47.456089,8.14368057,negative,AG,SCHINZNACH DORF (AB),negative,A 3
CH:0125.01,,47.5368767,8.24529552,negative,AG,WUERENLINGEN,negative,H 5
CH:0219.02,,47.4559898,8.14368248,positive,AG,SCHINZNACH DORF (AB),positive,A 3
CH:0125.02,,47.5368652,8.2453413,positive,AG,WUERENLINGEN,positive,H 5
CH:0649.02,107.699997,46.6697159,7.07521105,positive,FR,SORENS (AR),positive,A 12
CH:0649.03,118.599998,46.6697273,7.07512856,negative,FR,SORENS (AR),negative,A 12
CH:0219.01,,47.4559479,8.14368248,positive,AG,SCHINZNACH DORF (AB),positive,A 3
CH:0649.04,108.099998,46.6697273,7.07508135,negative,FR,SORENS (AR),negative,A 12
CH:0523.04,113.0,46.8701515,7.54670382,positive,BE,MUENSINGEN (AB),positive,A 6
CH:0523.01,113.300003,46.8701019,7.54653311,negative,BE,MUENSINGEN (AB),negative,A 6
CH:0523.02,120.800003,46.8701172,7.54657698,negative,BE,MUENSINGEN (AB),negative,A 6
CH:0523.03,121.699997,46.8701363,7.54665709,positive,BE,MUENSINGEN (AB),positive,A 6
CH:0220.02,,47.4465218,8.24532223,positive,AG,"MUELLIGEN, VERZW. A3/A1 (AB)",positive,A 3
CH:0220.03,,47.4465523,8.24533749,positive,AG,"MUELLIGEN, VERZW. A3/A1 (AB)",positive,A 3
CH:0033.05,,47.3965569,7.8138876,positive,BL,EPTINGEN N (AB),positive,A 2
CH:0555.01,95.0999985,47.4835739,7.77760124,negative,#N/A,#N/A,negative,#N/A
CH:0220.01,,47.4464188,8.24502659,positive,AG,"MUELLIGEN, VERZW. A3/A1 (AB)",positive,A 3
CH:0207.02,120.0,46.7876587,7.59928894,negative,BE,HEIMBERG (AB),negative,A 6
CH:0207.01,115.699997,46.7876511,7.59924221,negative,BE,HEIMBERG (AB),negative,A 6
CH:0567.06,78.3000031,47.3427925,8.45760918,,ZH,DREIECK ZUERICH-WEST 2 (AB) - ZH1203,,A 4
CH:0567.04,83.9000015,47.3407249,8.4585104,positive,ZH,DREIECK ZUERICH-WEST 2 (AB) - ZH1203,positive,A 4
CH:0567.05,77.5,47.340744,8.45855713,,ZH,DREIECK ZUERICH-WEST 2 (AB) - ZH1203,,A 4
CH:0567.02,81.5,47.3417397,8.45885944,positive,ZH,DREIECK ZUERICH-WEST 2 (AB) - ZH1203,positive,A 4
CH:0567.03,89.0,47.3407059,8.45846558,positive,ZH,DREIECK ZUERICH-WEST 2 (AB) - ZH1203,positive,A 4
CH:0567.01,79.0,47.3417435,8.45880699,positive,ZH,DREIECK ZUERICH-WEST 2 (AB) - ZH1203,positive,A 4
CH:0511.03,113.0,46.5158424,6.50201178,negative,VD,MORGES CENTRE (AR),negative,A 1
CH:0798.02,,47.4661217,7.00240278,positive,JU,"NEU-BOIS, TUNNEL S (AR)",positive,A 16
CH:0798.01,,47.4661331,7.00248051,positive,JU,"NEU-BOIS, TUNNEL S (AR)",positive,A 16
CH:0511.02,107.099998,46.51577,6.50204992,positive,VD,MORGES CENTRE (AR),positive,A 1
CH:0368.02,59.2000008,46.9628906,7.4369936,negative,BE,"BERN, ZUBRINGER NEUFELD (TUNNEL)",negative,A 1
CH:0511.01,99.0,46.5157394,6.50207043,positive,VD,MORGES CENTRE (AR),positive,A 1
CH:0368.01,65.1999969,46.9628067,7.43695593,positive,BE,"BERN, ZUBRINGER NEUFELD (TUNNEL)",positive,A 1
CH:0743.01,78.6999969,46.5610657,6.56108999,,VD,CRISSIER (AR) RI NORD,,A 1
CH:0743.04,93.0999985,46.5611229,6.56058788,positive,VD,CRISSIER (AR) RI NORD,positive,A 1
CH:0743.05,,46.5611115,6.56054783,positive,VD,CRISSIER (AR) RI NORD,positive,A 1
CH:0137.02,110.300003,46.1445885,8.94664955,negative,TI,MONTE CENERI (AS),negative,A 2
CH:0137.03,119.400002,46.1445541,8.94664669,negative,TI,MONTE CENERI (AS),negative,A 2
CH:0137.04,,46.1445084,8.94662666,positive,TI,MONTE CENERI (AS),positive,A 2
CH:0137.05,107.800003,46.144474,8.94662189,positive,TI,MONTE CENERI (AS),positive,A 2
CH:0137.06,6.0,46.1443939,8.94676018,,TI,MONTE CENERI (AS),,A 2
CH:0182.01,,47.0935745,7.5733757,positive,BE,KIRCHBERG N (AB),positive,A 1
CH:0694.01,110.0,47.1190987,8.3746233,negative,LU,ROOT (AB),negative,A 14
CH:0182.03,,47.093586,7.5732255,negative,BE,KIRCHBERG N (AB),negative,A 1
CH:0694.02,118.699997,47.1190681,8.3746233,negative,LU,ROOT (AB),negative,A 14
CH:0847.01,42.5,47.6913223,8.60866356,negative,SH,ENGI GALGENBUCKTUNNEL,negative,H 13
CH:0847.02,43.7999992,47.691349,8.60871887,positive,SH,ENGI GALGENBUCKTUNNEL,positive,H 13
CH:0264.02,52.0,46.8711205,8.78112793,negative,UR,KLAUSENPASS W,negative,H 17
CH:0215.01,117.400002,47.5944366,9.0068264,positive,TG,MUELLHEIM (AB),positive,A 7
CH:0215.03,124.5,47.5944977,9.00673962,negative,TG,MUELLHEIM (AB),negative,A 7
CH:0215.04,116.099998,47.5945206,9.00670433,negative,TG,MUELLHEIM (AB),negative,A 7
CH:0559.02,,47.4744415,7.78268576,negative,#N/A,#N/A,negative,#N/A
CH:0559.01,,47.474411,7.78265572,negative,#N/A,#N/A,negative,#N/A
CH:0296.01,69.1999969,47.0187111,8.2962532,,LU,"HORW, SCHLUNDTUNNEL (AB)",,A 2
CH:0296.04,99.3000031,47.0186234,8.29667759,positive,LU,"HORW, SCHLUNDTUNNEL (AB)",positive,A 2
CH:0296.03,98.6999969,47.0194283,8.29596424,negative,LU,"HORW, SCHLUNDTUNNEL (AB)",negative,A 2
CH:0296.05,90.9000015,47.0186348,8.29671764,positive,LU,"HORW, SCHLUNDTUNNEL (AB)",positive,A 2
CH:0353.02,56.9000015,46.9264526,7.54854822,negative,BE,WORB W,negative,H 10
CH:0353.01,59.7999992,46.9264336,7.54858017,positive,BE,WORB W,positive,H 10
CH:0044.01,74.6999969,46.4645653,9.18580532,negative,GR,SAN BERNARDINO (TUNNEL),negative,A 13
CH:0365.01,,47.1919136,7.13133955,negative,BE,CORGEMONT W,negative,H 30
CH:0365.02,,47.1918678,7.13134956,positive,BE,CORGEMONT W,positive,H 30
CH:0685.01,48.0,46.8747787,8.65287018,positive,UR,"ALTDORF, KLAUSENSTRASSE - UR6017",positive,H 17
CH:0203.02,77.0,46.2303619,9.11446953,positive,GR,ROVEREDO (AS),positive,A 13
CH:0616.01,60.7999992,46.9667549,8.3574543,,NW,ANSCHLUSS STANS NORD RI LUZERN (AB),,A 2
CH:0616.02,106.300003,46.9666977,8.35662842,positive,NW,ANSCHLUSS STANS NORD RI LUZERN (AB),positive,A 2
CH:0616.03,117.599998,46.9666672,8.35663223,positive,NW,ANSCHLUSS STANS NORD RI LUZERN (AB),positive,A 2
CH:0616.04,40.9000015,46.9668541,8.35636234,,NW,ANSCHLUSS STANS NORD RI LUZERN (AB),,A 2
CH:0628.01,64.0,46.0913773,7.05486298,positive,VS,"MARTIGNY-CROIX W, FORCLAZ - VS00134021",positive,H 203
CH:0194.02,88.3000031,47.3889618,8.41394138,positive,ZH,URDORF (AB),positive,A 3
CH:0194.04,99.4000015,47.3889542,8.41407299,negative,ZH,URDORF (AB),negative,A 3
CH:0194.05,92.5,47.3889503,8.41412544,negative,ZH,URDORF (AB),negative,A 3
CH:0194.06,77.0,47.3889503,8.41416645,negative,ZH,URDORF (AB),negative,A 3
CH:0673.03,123.0,46.9287758,6.81970024,negative,NE,BEVAIX (AR),negative,A 5
CH:0673.02,120.0,46.9287376,6.81976891,positive,NE,BEVAIX (AR),positive,A 5
CH:0056.05,98.0,47.0048256,7.49362183,negative,BE,"SCHOENBUEHL, GRAUHOLZ (AB)",negative,A 1
CH:0056.04,103.599998,47.0048065,7.49365807,negative,BE,"SCHOENBUEHL, GRAUHOLZ (AB)",negative,A 1
CH:0056.02,98.4000015,47.0047531,7.49378109,positive,BE,"SCHOENBUEHL, GRAUHOLZ (AB)",positive,A 1
CH:0056.01,95.4000015,47.0047302,7.49382353,positive,BE,"SCHOENBUEHL, GRAUHOLZ (AB)",positive,A 1
CH:0560.02,,47.3733177,8.42096233,,ZH,ANSCHLUSS URDORF S 2 - ZH1101,,A 4
CH:0560.01,57.0,47.3733559,8.42062092,,ZH,ANSCHLUSS URDORF S 2 - ZH1101,,A 4
CH:0844.08,51.0,47.6910133,8.62184238,negative,SH,BAHNTAL GALGENBUCKTUNNEL,negative,A 4
CH:0240.01,72.3000031,47.4241486,8.56929398,,ZH,"UMF. ZUERICH N, SEEBACH (AB)",,A 1C
CH:0844.07,50.7999992,47.6923943,8.62183285,negative,SH,BAHNTAL GALGENBUCKTUNNEL,negative,A 4
CH:0240.02,80.0,47.4239693,8.57156849,positive,ZH,"UMF. ZUERICH N, SEEBACH (AB)",positive,A 1C
CH:0240.04,98.1999969,47.4240723,8.57156086,positive,ZH,"UMF. ZUERICH N, SEEBACH (AB)",positive,A 1C
CH:0844.05,57.0,47.6912422,8.62165165,positive,SH,BAHNTAL GALGENBUCKTUNNEL,positive,A 4
CH:0844.04,65.0,47.6912308,8.6217041,positive,SH,BAHNTAL GALGENBUCKTUNNEL,positive,A 4
CH:0240.06,82.6999969,47.4244728,8.56948471,negative,ZH,"UMF. ZUERICH N, SEEBACH (AB)",negative,A 1C
CH:0844.03,48.5,47.6910286,8.62188244,positive,SH,BAHNTAL GALGENBUCKTUNNEL,positive,A 4
CH:0240.07,78.6999969,47.4245567,8.56949902,,ZH,"UMF. ZUERICH N, SEEBACH (AB)",,A 1C
CH:0240.08,61.0,47.4245949,8.56949043,negative,ZH,"UMF. ZUERICH N, SEEBACH (AB)",negative,A 1C
CH:0068.02,87.6999969,46.2538719,6.13961315,positive,GE,COLOVREX-LAC (AR),positive,A 1
CH:0068.03,84.8000031,46.2537117,6.13915873,positive,GE,COLOVREX-LAC (AR),positive,A 1
CH:0068.01,77.4000015,46.2538948,6.13966513,positive,GE,COLOVREX-LAC (AR),positive,A 1
CH:0068.08,73.6999969,46.2538071,6.13884163,negative,GE,COLOVREX-LAC (AR),negative,A 1
CH:0068.06,21.0,46.2536545,6.13869715,negative,GE,COLOVREX-LAC (AR),negative,A 1
CH:0068.07,79.0,46.253788,6.13879681,negative,GE,COLOVREX-LAC (AR),negative,A 1
CH:0068.05,67.4000015,46.2536125,6.13867188,negative,GE,COLOVREX-LAC (AR),negative,A 1
CH:0239.01,111.199997,47.2385635,7.96073437,negative,LU,REIDEN S (AB),negative,A 2
CH:0535.04,104.699997,46.5351067,6.67251825,negative,VD,LAUSANNE BELMONT (AR),negative,A 9
CH:0272.01,92.0999985,46.1945877,6.07830477,positive,GE,"GENEVE, PONT DU RHONE (AR)",positive,A 1
CH:0535.03,116.099998,46.53508,6.67250013,negative,VD,LAUSANNE BELMONT (AR),negative,A 9
CH:0535.02,116.599998,46.5350189,6.67243671,positive,VD,LAUSANNE BELMONT (AR),positive,A 9
CH:0239.02,120.400002,47.2385826,7.96077299,negative,LU,REIDEN S (AB),negative,A 2
CH:0122.01,117.300003,47.5541039,8.83946323,positive,TG,"FRAUENFELD W, KEFIKON (AB)",positive,A 7
CH:0272.04,89.1999969,46.1946259,6.07810354,negative,GE,"GENEVE, PONT DU RHONE (AR)",negative,A 1
CH:0272.03,95.6999969,46.1946259,6.07815313,negative,GE,"GENEVE, PONT DU RHONE (AR)",negative,A 1
CH:0122.02,125.300003,47.5541344,8.83945942,positive,TG,"FRAUENFELD W, KEFIKON (AB)",positive,A 7
CH:0239.03,122.300003,47.2386284,7.96084929,positive,LU,REIDEN S (AB),positive,A 2
CH:0122.03,123.0,47.5542107,8.83944035,negative,TG,"FRAUENFELD W, KEFIKON (AB)",negative,A 7
CH:0122.04,114.599998,47.5542412,8.8394289,negative,TG,"FRAUENFELD W, KEFIKON (AB)",negative,A 7
CH:0503.01,,46.1495781,8.87488365,negative,TI,MAGADINO,negative,H 405
CH:0284.02,116.400002,47.4618721,8.70907497,positive,ZH,"WINTERTHUR, KEMPTTHAL (AB)",positive,A 1
CH:0284.03,125.199997,47.4618683,8.7090292,positive,ZH,"WINTERTHUR, KEMPTTHAL (AB)",positive,A 1
CH:0284.01,107.0,47.4618797,8.70912075,positive,ZH,"WINTERTHUR, KEMPTTHAL (AB)",positive,A 1
CH:0284.06,102.300003,47.4618225,8.70883656,negative,ZH,"WINTERTHUR, KEMPTTHAL (AB)",negative,A 1
CH:0227.02,67.0,46.6484146,10.2661953,negative,GR,"OFENPASS, BUFFALORA",negative,H 28
CH:0227.01,68.6999969,46.6483917,10.2661772,positive,GR,"OFENPASS, BUFFALORA",positive,H 28
CH:0304.04,97.9000015,47.1482162,8.17451,positive,LU,EICH (AB),positive,A 2
CH:0304.03,104.699997,47.1481895,8.17448044,positive,LU,EICH (AB),positive,A 2
CH:0304.01,95.5,47.1481094,8.17440319,negative,LU,EICH (AB),negative,A 2
CH:0547.01,53.0,46.1620941,8.77353668,,TI,ASCONA GALLERIA,,A 13
CH:0547.04,62.2999992,46.1618767,8.77343178,,TI,ASCONA GALLERIA,,A 13
CH:0321.05,66.4000015,47.5715561,7.59835577,negative,BS,"BASEL, ANSCHLUSS WIESE, A3 (AB)",negative,A 3
CH:0321.04,74.0,47.5715446,7.59839869,negative,BS,"BASEL, ANSCHLUSS WIESE, A3 (AB)",negative,A 3
CH:0547.03,73.6999969,46.1619568,8.77346992,positive,TI,ASCONA GALLERIA,positive,A 13
CH:0377.04,53.7000008,47.6190796,8.68341923,,ZH,TRUELLIKON ANSCHLUSS N (AB),,A 4
CH:0377.03,108.0,47.6193504,8.68338871,negative,ZH,TRUELLIKON ANSCHLUSS N (AB),negative,A 4
CH:0377.02,99.4000015,47.619339,8.68333817,negative,ZH,TRUELLIKON ANSCHLUSS N (AB),negative,A 4
CH:0377.01,56.0,47.6199265,8.68297291,,ZH,TRUELLIKON ANSCHLUSS N (AB),,A 4
CH:0527.01,51.7999992,46.1962242,8.14206982,negative,VS,GONDO - VS40001,negative,A 9
CH:0093.06,99.5,47.5178413,8.69487572,,ZH,UMF. WINTERTHUR (AB),,A 1
CH:0093.04,105.800003,47.517807,8.69496632,negative,ZH,UMF. WINTERTHUR (AB),negative,A 1
CH:0093.02,95.8000031,47.5177536,8.69508362,positive,ZH,UMF. WINTERTHUR (AB),positive,A 1
CH:0093.01,93.3000031,47.5177383,8.69512463,positive,ZH,UMF. WINTERTHUR (AB),positive,A 1
CH:0539.02,76.0,46.5383987,9.23320198,positive,GR,HINTERRHEIN (AB) TUNNEL CASSANAWALD,positive,A 13
CH:0539.01,79.5,46.5384293,9.23321438,negative,GR,HINTERRHEIN (AB) TUNNEL CASSANAWALD,negative,A 13
CH:0081.07,94.6999969,47.5389366,7.64492559,positive,BL,"MUTTENZ, HARD (AB)",positive,A 2
CH:0081.06,99.3000031,47.5388985,7.64491034,positive,BL,"MUTTENZ, HARD (AB)",positive,A 2
CH:0081.05,108.199997,47.538868,7.64490128,positive,BL,"MUTTENZ, HARD (AB)",positive,A 2
CH:0081.04,108.300003,47.5388184,7.64486027,negative,BL,"MUTTENZ, HARD (AB)",negative,A 2
CH:0235.02,119.0,47.1615181,7.29624462,positive,BE,PIETERLEN W (AB),positive,A 5
CH:0081.01,80.0,47.5387268,7.64480352,negative,BL,"MUTTENZ, HARD (AB)",negative,A 2
CH:0235.03,100.0,47.1615753,7.29621983,negative,BE,PIETERLEN W (AB),negative,A 5
CH:0235.04,96.9000015,47.1616058,7.29620266,negative,BE,PIETERLEN W (AB),negative,A 5
CH:0235.01,109.199997,47.1614876,7.29626036,positive,BE,PIETERLEN W (AB),positive,A 5
CH:0515.02,73.0,47.5309715,8.77733803,,ZH,ANSCHLUSS OBERWINTERTHUR 2 (AB),,A 1
CH:0540.02,69.8000031,47.2758598,7.51817131,negative,SO,WELSCHENROHR W,negative,H 30
CH:0110.02,61.5,46.2515259,8.03923702,negative,VS,"SIMPLON, JOSEFGALERIE S",negative,A 9
CH:0166.03,121.0,46.3511276,8.96181393,positive,TI,BIASCA S (AS),positive,A 2
CH:0166.04,110.0,46.3511429,8.96186447,positive,TI,BIASCA S (AS),positive,A 2
CH:0166.02,120.0,46.3510933,8.9617281,negative,TI,BIASCA S (AS),negative,A 2
CH:0110.01,60.0,46.2515602,8.03921223,positive,VS,"SIMPLON, JOSEFGALERIE S",positive,A 9
CH:0373.02,58.9000015,46.8934364,9.84456158,negative,GR,"KLOSTERS, MEZZASELVA - GR241",negative,A 28
CH:0373.01,57.5,46.8934174,9.84452629,positive,GR,"KLOSTERS, MEZZASELVA - GR241",positive,A 28
CH:0608.02,57.7999992,46.3768501,7.08000755,negative,VD,COL DES MOSSES,negative,H 11
CH:0308.02,106.5,47.1903954,8.83080101,positive,SZ,LACHEN (AB),positive,A 3
CH:0260.02,49.0,46.5931969,8.46074677,negative,UR,"FURKAPASS, TIEFENBACH",negative,H 19
CH:0328.04,99.3000031,46.8323708,6.86818743,negative,FR,ESTAVAYER-LE-LAC E (AR),negative,A 1
CH:0328.03,105.699997,46.8323364,6.86817598,negative,FR,ESTAVAYER-LE-LAC E (AR),negative,A 1
CH:0328.02,105.099998,46.8322067,6.86845207,positive,FR,ESTAVAYER-LE-LAC E (AR),positive,A 1
CH:0328.01,99.0999985,46.8321724,6.86844206,positive,FR,ESTAVAYER-LE-LAC E (AR),positive,A 1
CH:0292.01,,47.1687012,7.7959094,positive,BE,MADISWIL N,positive,H 244
CH:0292.02,,47.168705,7.79594803,negative,BE,MADISWIL N,negative,H 244
CH:0142.05,96.1999969,47.302578,7.92134094,positive,AG,ZOFINGEN (AB),positive,A 2
CH:0572.02,96.0,47.3192863,8.44557953,negative,ZH,ISLISBERGTUNNEL MITTE (AB) - ZH2102,negative,A 4
CH:0572.03,99.5,47.3192368,8.4457798,positive,ZH,ISLISBERGTUNNEL MITTE (AB) - ZH2102,positive,A 4
CH:0142.01,87.0,47.3039055,7.91860723,,AG,ZOFINGEN (AB),,A 2
CH:0142.02,95.0,47.3039589,7.91863489,negative,AG,ZOFINGEN (AB),negative,A 2
CH:0142.04,103.0,47.3025589,7.92130136,positive,AG,ZOFINGEN (AB),positive,A 2
CH:0572.01,101.800003,47.3193512,8.44543743,negative,ZH,ISLISBERGTUNNEL MITTE (AB) - ZH2102,negative,A 4
CH:0397.01,55.0,46.6173973,7.13849306,positive,FR,CHARMEY,positive,H 189
CH:0341.01,81.6999969,47.4545708,8.32588673,positive,AG,NEUENHOF (AB) - AG1402,positive,A 1
CH:0198.01,112.0,47.4660378,9.48044109,positive,SG,GOLDACH S (AB),positive,A 1
CH:0771.02,86.5,47.4513512,7.59661961,positive,BL,TUNNEL EGGFLUE,positive,A 18
CH:0341.06,,47.454689,8.32581711,negative,AG,NEUENHOF (AB) - AG1402,negative,A 1
CH:0198.03,122.699997,47.4661369,9.48050117,negative,SG,GOLDACH S (AB),negative,A 1
CH:0341.04,93.0,47.454628,8.32582569,negative,AG,NEUENHOF (AB) - AG1402,negative,A 1
CH:0198.02,122.699997,47.4660721,9.4804678,positive,SG,GOLDACH S (AB),positive,A 1
CH:0341.05,,47.4546585,8.32582092,negative,AG,NEUENHOF (AB) - AG1402,negative,A 1
CH:0341.02,,47.4545364,8.32589054,positive,AG,NEUENHOF (AB) - AG1402,positive,A 1
CH:0247.02,114.699997,46.8446198,6.68674755,positive,VD,ONNENS VD (AR),positive,A 5
CH:0677.01,78.8000031,47.0082283,6.90151787,negative,NE,VALANGIN,negative,A 20
CH:0677.03,71.3000031,47.0081673,6.90166855,positive,NE,VALANGIN,positive,A 20
CH:0677.02,85.5,47.0082169,6.90154314,negative,NE,VALANGIN,negative,A 20
CH:0677.04,77.0999985,47.0081596,6.90171814,positive,NE,VALANGIN,positive,A 20
CH:0247.04,109.0,46.8446846,6.68665504,negative,VD,ONNENS VD (AR),negative,A 5
CH:0247.03,116.0,46.8446617,6.68669415,negative,VD,ONNENS VD (AR),negative,A 5
CH:0588.02,105.699997,47.2185059,8.96234417,negative,SG,SCHMERIKON (AB),negative,A 15
CH:0588.01,99.1999969,47.2185059,8.962286,negative,SG,SCHMERIKON (AB),negative,A 15
CH:0347.03,,47.5413818,7.7630434,positive,AG,RHEINFELDEN (AB) - AG1426,positive,A 3
CH:0347.05,,47.5417213,7.7641592,negative,AG,RHEINFELDEN (AB) - AG1426,negative,A 3
CH:0588.04,99.1999969,47.2184906,8.96252441,positive,SG,SCHMERIKON (AB),positive,A 15
CH:0588.03,106.0,47.2184906,8.96246529,positive,SG,SCHMERIKON (AB),positive,A 15
CH:0199.02,105.599998,45.8644714,8.97051239,negative,TI,MENDRISIO S (AS),negative,A 2
CH:0576.06,96.3000031,47.3468246,8.46308517,positive,ZH,"UETLIBERG, UETLIBERGTUNNEL W (AB) - ZH1206",positive,A 3
CH:0851.07,75.0,46.1139374,7.09016895,negative,VS,ECHANGEUR GD.ST.BERNARD OUEST (AR),negative,A 9
CH:0576.03,92.5,47.3469048,8.46256161,negative,ZH,"UETLIBERG, UETLIBERGTUNNEL W (AB) - ZH1206",negative,A 3
CH:0576.05,100.0,47.3468437,8.46300888,positive,ZH,"UETLIBERG, UETLIBERGTUNNEL W (AB) - ZH1206",positive,A 3
CH:0851.05,117.300003,46.1137733,7.09021521,negative,VS,ECHANGEUR GD.ST.BERNARD OUEST (AR),negative,A 9
CH:0199.03,106.300003,45.8644676,8.97063255,positive,TI,MENDRISIO S (AS),positive,A 2
CH:0576.01,101.800003,47.346962,8.46244621,negative,ZH,"UETLIBERG, UETLIBERGTUNNEL W (AB) - ZH1206",negative,A 3
CH:0851.01,105.0,46.1135979,7.0902462,positive,VS,ECHANGEUR GD.ST.BERNARD OUEST (AR),positive,A 9
CH:0507.04,93.4000015,45.987175,8.93205452,positive,TI,CIRCONVALLAZIONE DI LUGANO (AB),positive,A 2
CH:0507.02,88.9000015,45.9881516,8.93079281,negative,TI,CIRCONVALLAZIONE DI LUGANO (AB),negative,A 2
CH:0507.03,96.5999985,45.9881706,8.93083286,negative,TI,CIRCONVALLAZIONE DI LUGANO (AB),negative,A 2
CH:0118.07,83.5999985,46.969101,7.46037102,negative,BE,"BERN, FELSENAUVIADUKT (AB)",negative,A 1
CH:0175.01,110.300003,46.8207397,7.13889837,positive,FR,CONT. DE FRIBOURG (AR),positive,A 12
CH:0175.02,120.0,46.8207588,7.13885498,positive,FR,CONT. DE FRIBOURG (AR),positive,A 12
CH:0175.03,118.199997,46.8207893,7.13878155,negative,FR,CONT. DE FRIBOURG (AR),negative,A 12
CH:0175.04,108.300003,46.8208084,7.13874435,negative,FR,CONT. DE FRIBOURG (AR),negative,A 12
CH:0118.08,82.0,46.9691277,7.46036434,negative,BE,"BERN, FELSENAUVIADUKT (AB)",negative,A 1
CH:0118.03,81.0999985,46.9689522,7.46040487,positive,BE,"BERN, FELSENAUVIADUKT (AB)",positive,A 1
CH:0118.02,81.5,46.9689217,7.46041107,positive,BE,"BERN, FELSENAUVIADUKT (AB)",positive,A 1
CH:0359.02,,47.1235237,6.88633108,positive,BE,LA CIBOURG,positive,H 18
CH:0118.05,94.0,46.9690361,7.46038628,negative,BE,"BERN, FELSENAUVIADUKT (AB)",negative,A 1
CH:0634.02,59.0,46.4143333,10.0373211,positive,GR,"BERNINA, BARACON - GR0248",positive,H 29
CH:0118.04,88.5999985,46.9689827,7.4603982,positive,BE,"BERN, FELSENAUVIADUKT (AB)",positive,A 1
CH:0359.01,,47.1235313,6.88628292,negative,BE,LA CIBOURG,negative,H 18
CH:0073.01,99.1999969,47.3120308,7.80759573,positive,SO,HAERKINGEN (AB),positive,A 1
CH:0073.04,97.5,47.3121681,7.80757904,negative,SO,HAERKINGEN (AB),negative,A 1
CH:0073.03,103.0,47.31213,7.80757189,negative,SO,HAERKINGEN (AB),negative,A 1
CH:0761.02,67.3000031,47.3101807,8.81030655,negative,ZH,HINWIL N,negative,H 340
CH:0097.01,81.8000031,47.4566727,8.30726719,,AG,"BADEN, BAREGGTUNNEL (AB)",,A 1
CH:0773.02,77.8000031,47.5128136,7.72267151,negative,BL,FUELLINSDORF,negative,A 22
CH:0552.02,95.6999969,47.4887199,7.77443695,negative,#N/A,#N/A,negative,#N/A
CH:0552.01,90.0999985,47.4887009,7.77439451,negative,#N/A,#N/A,negative,#N/A
CH:0163.01,116.400002,47.0282974,7.46901894,negative,BE,MUENCHENBUCHSEE N (AB),negative,A 6
CH:0163.03,123.800003,47.028389,7.46908903,positive,BE,MUENCHENBUCHSEE N (AB),positive,A 6
CH:0163.02,123.800003,47.0283279,7.46904087,negative,BE,MUENCHENBUCHSEE N (AB),negative,A 6
CH:0163.04,115.800003,47.0284195,7.4691124,positive,BE,MUENCHENBUCHSEE N (AB),positive,A 6
CH:0658.02,125.199997,46.2189636,7.33913708,positive,VS,CONTHEY (AR),positive,A 9
CH:0658.01,115.400002,46.2189407,7.33913565,positive,VS,CONTHEY (AR),positive,A 9
CH:0245.03,124.0,47.0404778,9.43997288,negative,SG,SARGANS A3 (AB),negative,A 3
CH:0658.04,114.5,46.2190475,7.33904123,negative,VS,CONTHEY (AR),negative,A 9
CH:0245.04,114.300003,47.0405083,9.4400053,negative,SG,SARGANS A3 (AB),negative,A 3
CH:0658.03,123.400002,46.2190247,7.33906555,negative,VS,CONTHEY (AR),negative,A 9
CH:0245.01,108.800003,47.0403786,9.43988991,positive,SG,SARGANS A3 (AB),positive,A 3
CH:0245.02,121.400002,47.0404053,9.43991661,positive,SG,SARGANS A3 (AB),positive,A 3
CH:0290.02,95.6999969,47.3106194,7.9006958,positive,AG,OFTRINGEN / ROTHRIST (AB) - AG1412,positive,A 1
CH:0024.01,105.900002,46.4439201,6.29307604,positive,VD,ROLLE (AR),positive,A 1
CH:0024.02,113.099998,46.4439507,6.29305458,positive,VD,ROLLE (AR),positive,A 1
CH:0024.03,113.599998,46.4440231,6.29301405,negative,VD,ROLLE (AR),negative,A 1
CH:0290.07,96.0,47.3107414,7.90095472,negative,AG,OFTRINGEN / ROTHRIST (AB) - AG1412,negative,A 1
CH:0290.06,102.900002,47.3107147,7.90093565,negative,AG,OFTRINGEN / ROTHRIST (AB) - AG1412,negative,A 1
CH:0290.04,110.0,47.3106728,7.90074921,positive,AG,OFTRINGEN / ROTHRIST (AB) - AG1412,positive,A 1
CH:0290.03,103.0,47.3106537,7.90072346,positive,AG,OFTRINGEN / ROTHRIST (AB) - AG1412,positive,A 1
CH:0691.03,118.400002,47.0704079,7.2868185,positive,BE,LYSS,positive,A 6
CH:0785.01,102.199997,47.5822716,9.01875782,positive,TG,ESCHIKOFEN,positive,A 23
CH:0691.02,,47.0704269,7.28670216,negative,BE,LYSS,negative,A 6
CH:0691.01,113.5,47.0704346,7.28665829,negative,BE,LYSS,negative,A 6
CH:0024.04,105.699997,46.4440536,6.29299116,negative,VD,ROLLE (AR),negative,A 1
CH:0785.04,109.300003,47.5823631,9.0188427,negative,TG,ESCHIKOFEN,negative,A 23
CH:0691.04,110.0,47.0704041,7.28686571,positive,BE,LYSS,positive,A 6
CH:0785.02,116.0,47.5822983,9.01878262,positive,TG,ESCHIKOFEN,positive,A 23
CH:0289.02,118.099998,46.0971298,8.92823982,negative,TI,CAMIGNOLO (AS),negative,A 2
CH:0564.01,45.7000008,47.3477287,8.42822075,,ZH,ANSCHLUSS BIRMENSDORF 2 EIN-AUSFAHRT (AB) - ZH1106,,A 4
CH:0289.04,106.0,46.0970917,8.92837524,positive,TI,CAMIGNOLO (AS),positive,A 2
CH:0564.03,54.0999985,47.3474159,8.42935467,,ZH,ANSCHLUSS BIRMENSDORF 2 EIN-AUSFAHRT (AB) - ZH1106,,A 4
CH:0233.02,77.4000015,47.3780632,7.16735315,negative,JU,"ST-URSANNE, TUN. TERRI (AR)",negative,A 16
CH:0253.01,92.0,46.3029709,7.95802593,positive,VS,GAMSEN (TUNNEL) (AB),positive,A 9
CH:0253.02,92.0,46.3030014,7.95801115,positive,VS,GAMSEN (TUNNEL) (AB),positive,A 9
CH:0253.03,102.0,46.3031731,7.95821667,negative,VS,GAMSEN (TUNNEL) (AB),negative,A 9
CH:0802.01,120.5,47.0133553,7.0083847,positive,NE,MARIN OUEST (AB),positive,A 5
CH:0041.02,54.0,45.8981476,7.19434738,positive,VS,GRAND-ST-BERNARD (TUNNEL),positive,H 21
CH:0315.02,102.199997,47.1998978,7.56463528,positive,SO,ZUCHWIL (AB),positive,A 5
CH:0041.01,41.0,45.8981743,7.1943326,negative,VS,GRAND-ST-BERNARD (TUNNEL),negative,H 21
CH:0315.01,95.5,47.1998749,7.56466579,positive,SO,ZUCHWIL (AB),positive,A 5
CH:0315.03,,47.2010422,7.56639242,negative,SO,ZUCHWIL (AB),negative,A 5
CH:0802.04,56.0,47.0132675,7.00431967,,NE,MARIN OUEST (AB),,A 5
CH:0671.01,99.0999985,46.8792343,6.75988245,positive,NE,VAUMARCUS (AR),positive,A 5
CH:0241.04,100.0,47.4297562,8.57196522,positive,ZH,OPFIKON (AB),positive,A 11
CH:0241.06,78.0,47.4298706,8.5721035,,ZH,OPFIKON (AB),,A 11
CH:0602.02,56.2000008,47.435276,9.39610004,positive,SG,"ST. GALLEN, HARZBUECHEL (AB)",positive,A 1
CH:0241.05,89.5,47.42976,8.57201385,positive,ZH,OPFIKON (AB),positive,A 11
CH:0602.04,15.0,47.4353333,9.39605331,negative,SG,"ST. GALLEN, HARZBUECHEL (AB)",negative,A 1
CH:0126.01,73.6999969,47.0397263,8.29346657,negative,LU,"LUZERN, SONNENBERGTUNNEL (AB)",negative,A 2
CH:0126.03,82.5,47.0397491,8.29356194,positive,LU,"LUZERN, SONNENBERGTUNNEL (AB)",positive,A 2
CH:0671.04,101.300003,46.8792343,6.75975084,negative,NE,VAUMARCUS (AR),negative,A 5
CH:0671.02,106.0,46.8792343,6.75984383,positive,NE,VAUMARCUS (AR),positive,A 5
CH:0671.03,107.5,46.8792305,6.75979805,negative,NE,VAUMARCUS (AR),negative,A 5
CH:0379.03,107.599998,47.6009178,8.69159794,positive,ZH,KLEINANDELFINGEN ANSCHLUSS 1 (AB),positive,A 4
CH:0695.01,40.0,47.0898399,8.25034332,,LU,ANSCHL. ROTHENBURG,,A 2
CH:0265.01,112.699997,46.2841415,8.99295139,negative,TI,MOLENO N (AS),negative,A 2
CH:0053.04,88.0,47.1270599,9.10202408,negative,GL,"WEESEN, KERENZERBERG (AB)",negative,A 3
CH:0695.03,116.400002,47.0898972,8.25042629,negative,LU,ANSCHL. ROTHENBURG,negative,A 2
CH:0053.02,105.0,47.1269188,9.10201454,positive,GL,"WEESEN, KERENZERBERG (AB)",positive,A 3
CH:0053.03,100.0,47.1270294,9.10202217,negative,GL,"WEESEN, KERENZERBERG (AB)",negative,A 3
CH:0695.05,110.300003,47.0898209,8.25064754,positive,LU,ANSCHL. ROTHENBURG,positive,A 2
CH:0695.06,100.0,47.0898399,8.25069141,positive,LU,ANSCHL. ROTHENBURG,positive,A 2
CH:0265.04,112.900002,46.2841721,8.99314499,positive,TI,MOLENO N (AS),positive,A 2
CH:0265.03,121.300003,46.2841682,8.99310017,positive,TI,MOLENO N (AS),positive,A 2
CH:0568.02,50.0,47.3379593,8.4586525,,ZH,DREIECK ZUERICH WEST 3 (AB) - ZH1204,,A 4
CH:0568.01,65.0,47.3390999,8.45884418,,ZH,DREIECK ZUERICH WEST 3 (AB) - ZH1204,,A 4
CH:0367.02,,47.4579048,8.28282261,,AG,BADEN WEST ANSCHL. - AG1572,,A 1
CH:0797.02,106.300003,47.4739418,7.00112772,negative,JU,"NEU-BOIS, TUNNEL N (AR)",negative,A 16
CH:0744.03,91.0999985,46.5612717,6.5603056,negative,VD,CRISSIER (AR) RI SUED,negative,A 1
CH:0744.04,98.5,46.5612755,6.56034946,negative,VD,CRISSIER (AR) RI SUED,negative,A 1
CH:0614.04,44.0,46.9718666,8.44089794,,NW,ANSCHLUSS BUOCHS RI ALTDORF (AB),,A 2
CH:0744.01,87.4000015,46.5612488,6.56021357,,VD,CRISSIER (AR) RI SUED,,A 1
CH:0614.03,84.0,46.972168,8.4405756,negative,NW,ANSCHLUSS BUOCHS RI ALTDORF (AB),negative,A 2
CH:0138.02,57.0,46.2632256,10.1177244,positive,GR,BRUSIO N,positive,H 29
CH:0614.01,46.7000008,46.9719582,8.44011688,,NW,ANSCHLUSS BUOCHS RI ALTDORF (AB),,A 2
CH:0102.03,103.400002,47.5447083,7.78231287,negative,AG,RHEINFELDEN (AB),negative,A 3
CH:0102.04,94.5999985,47.5447388,7.78230381,negative,AG,RHEINFELDEN (AB),negative,A 3
CH:0858.02,119.5,46.7631798,7.59386301,positive,BE,"THUN, ALLMENDTUNNEL N (AB)",positive,A 6
CH:0323.04,112.800003,46.9035759,7.08943319,negative,FR,MURTEN (AB),negative,A 1
CH:0323.02,,46.9034462,7.08941936,positive,FR,MURTEN (AB),positive,A 1
CH:0323.03,119.950001,46.9035263,7.08940029,negative,FR,MURTEN (AB),negative,A 1
CH:0297.04,71.3000031,47.5432014,7.63150787,positive,BL,BIRSFELDEN ZUBRINGER A2 - BL1101,positive,A 2
CH:0297.02,70.8000031,47.5432205,7.63139439,negative,BL,BIRSFELDEN ZUBRINGER A2 - BL1101,negative,A 2
CH:0297.03,71.3000031,47.5432091,7.63146114,positive,BL,BIRSFELDEN ZUBRINGER A2 - BL1101,positive,A 2
CH:0297.01,63.2999992,47.5432281,7.6313529,negative,BL,BIRSFELDEN ZUBRINGER A2 - BL1101,negative,A 2
CH:0392.02,67.8000031,46.4181671,9.72607708,positive,GR,PLAUN DA  LEJ,positive,H 3B
CH:0114.08,2.0,47.4234924,8.64302444,negative,ZH,BRUETTISELLEN N (AB),negative,A 1
CH:0114.06,106.800003,47.4234314,8.64304352,negative,ZH,BRUETTISELLEN N (AB),negative,A 1
CH:0380.05,78.0,47.6044807,8.6892252,,ZH,KLEINANDELFINGEN ANSCHLUSS 2 (AB),,A 4
CH:0380.02,100.0,47.6040154,8.68930054,negative,ZH,KLEINANDELFINGEN ANSCHLUSS 2 (AB),negative,A 4
CH:0380.01,78.0,47.6045837,8.68873215,,ZH,KLEINANDELFINGEN ANSCHLUSS 2 (AB),,A 4
CH:0380.04,60.0,47.6028252,8.69031525,,ZH,KLEINANDELFINGEN ANSCHLUSS 2 (AB),,A 4
CH:0380.03,109.400002,47.6040306,8.6893425,negative,ZH,KLEINANDELFINGEN ANSCHLUSS 2 (AB),negative,A 4
CH:0720.03,117.0,47.0130615,8.62541771,positive,SZ,SCHWYZ (AB),positive,A 4
CH:0720.04,104.900002,47.0130577,8.62546635,positive,SZ,SCHWYZ (AB),positive,A 4
CH:0208.04,,47.4472237,8.24872875,negative,AG,"BIRRHARD, VERZW. A1  (AB)",negative,A 1
CH:0171.02,,47.0832558,8.63850212,positive,SZ,SATTEL N,positive,H 8
CH:0720.01,108.699997,47.0130806,8.62529564,negative,SZ,SCHWYZ (AB),negative,A 4
CH:0544.01,120.099998,47.4269638,8.37393093,negative,AG,SPREITENBACH EINFAHRT (AB) - AG1444,negative,A 1
CH:0544.04,45.0,47.4270782,8.37399292,,AG,SPREITENBACH EINFAHRT (AB) - AG1444,,A 1
CH:0114.05,103.300003,47.4234047,8.64305305,negative,ZH,BRUETTISELLEN N (AB),negative,A 1
CH:0114.04,102.800003,47.4234047,8.64352798,positive,ZH,BRUETTISELLEN N (AB),positive,A 1
CH:0544.03,98.5999985,47.4270172,8.37396526,negative,AG,SPREITENBACH EINFAHRT (AB) - AG1444,negative,A 1
CH:0208.01,,47.4471245,8.24886227,positive,AG,"BIRRHARD, VERZW. A1  (AB)",positive,A 1
CH:0114.03,103.199997,47.423378,8.64354038,positive,ZH,BRUETTISELLEN N (AB),positive,A 1
CH:0335.02,95.6999969,47.3049812,7.92485666,positive,AG,WIGGERTAL (AB) - AG1411,positive,A 1
CH:0335.03,102.599998,47.3050117,7.92483521,positive,AG,WIGGERTAL (AB) - AG1411,positive,A 1
CH:0335.06,87.8000031,47.3051414,7.92476082,,AG,WIGGERTAL (AB) - AG1411,,A 1
CH:0765.02,59.2999992,47.3979912,9.29666805,negative,SG,"ST.GALLEN, WINKELN ALTER ZOLL - SG51",negative,H 8
CH:0376.04,82.0,47.6171417,8.68480968,,ZH,TRUELLIKON ANSCHLUSS S (AB),,A 4
CH:0536.01,111.599998,46.5150642,6.69843864,positive,VD,LAUSANNE LA CROIX (AR),positive,A 9
CH:0032.02,113.199997,47.2244759,7.61192751,positive,SO,DEITINGEN (AB),positive,A 1
CH:0273.04,,47.5725861,7.60256672,positive,BS,"BASEL, ANSCHLUSS WIESE, A2 (AB)",positive,A 2
CH:0536.04,108.0,46.5151787,6.69855022,negative,VD,LAUSANNE LA CROIX (AR),negative,A 9
CH:0032.01,103.699997,47.2244492,7.61196613,positive,SO,DEITINGEN (AB),positive,A 1
CH:0536.03,119.099998,46.515152,6.69851685,negative,VD,LAUSANNE LA CROIX (AR),negative,A 9
CH:0273.06,54.2999992,47.5727158,7.60275078,,BS,"BASEL, ANSCHLUSS WIESE, A2 (AB)",,A 2
CH:0032.04,104.0,47.2245598,7.61184072,negative,SO,DEITINGEN (AB),negative,A 1
CH:0536.02,122.0,46.5150909,6.6984601,positive,VD,LAUSANNE LA CROIX (AR),positive,A 9
CH:0273.07,52.0,47.5727234,7.60278893,,BS,"BASEL, ANSCHLUSS WIESE, A2 (AB)",,A 2
CH:0273.01,58.7999992,47.5725327,7.60233402,,BS,"BASEL, ANSCHLUSS WIESE, A2 (AB)",,A 2
CH:0273.02,69.0,47.5742798,7.60065413,negative,BS,"BASEL, ANSCHLUSS WIESE, A2 (AB)",negative,A 2
CH:0674.01,112.199997,46.9466057,6.83700943,positive,NE,BOUDRY (AR),positive,A 5
CH:0376.02,100.400002,47.6169167,8.68463898,positive,ZH,TRUELLIKON ANSCHLUSS S (AB),positive,A 4
CH:0135.01,91.3000031,47.5081329,9.40539265,negative,TG,"ARBON, A1/ZUBRINGER TG",negative,A 23
CH:0376.03,108.699997,47.6169014,8.68459129,positive,ZH,TRUELLIKON ANSCHLUSS S (AB),positive,A 4
CH:0524.01,47.2999992,46.5271873,8.92372704,negative,TI,OLIVONE - LUCOMAGNO,negative,H 416
CH:0605.05,58.0,47.4092445,9.30901337,negative,SG,"ST.GALLEN, ANSCHL. BREITFELD",negative,A1
CH:0605.01,36.0,47.4084778,9.30775166,,SG,"ST.GALLEN, ANSCHL. BREITFELD",,A1
CH:0605.02,53.2999992,47.4084473,9.307827,,SG,"ST.GALLEN, ANSCHL. BREITFELD",,A1
CH:0364.01,74.5,47.0379486,7.73884487,positive,BE,"SUMISWALD, GAMMENTHAL",positive,H 23
CH:0204.03,,46.427887,8.85449028,positive,TI,LAVORGO S (AS),positive,A 2
CH:0147.04,111.900002,46.6276474,7.03908873,negative,FR,CONT. DE BULLE (AR),negative,A 12
CH:0020.08,60.0,47.429882,8.51074982,negative,ZH,"UMF. ZUERICH N, AFFOLTERN (AB)",negative,A 1C
CH:0147.03,120.300003,46.6276245,7.0391221,negative,FR,CONT. DE BULLE (AR),negative,A 12
CH:0204.01,,46.4275932,8.85454273,negative,TI,LAVORGO S (AS),negative,A 2
CH:0147.02,125.800003,46.6275902,7.03916645,positive,FR,CONT. DE BULLE (AR),positive,A 12
CH:0548.01,116.599998,47.3462219,7.28327799,negative,JU,DEVELIER (AR),negative,A 16
CH:0147.01,117.0,46.6275635,7.03920031,positive,FR,CONT. DE BULLE (AR),positive,A 12
CH:0548.02,124.300003,47.3462486,7.28324604,negative,JU,DEVELIER (AR),negative,A 16
CH:0204.04,,46.427887,8.85454845,positive,TI,LAVORGO S (AS),positive,A 2
CH:0204.05,,46.4279175,8.85456181,positive,TI,LAVORGO S (AS),positive,A 2
CH:0020.02,95.0999985,47.4296761,8.51092434,positive,ZH,"UMF. ZUERICH N, AFFOLTERN (AB)",positive,A 1C
CH:0548.03,124.300003,47.3462982,7.28319502,positive,JU,DEVELIER (AR),positive,A 16
CH:0020.01,48.0,47.4296455,8.51094341,positive,ZH,"UMF. ZUERICH N, AFFOLTERN (AB)",positive,A 1C
CH:0020.07,80.5999985,47.4298515,8.51077175,negative,ZH,"UMF. ZUERICH N, AFFOLTERN (AB)",negative,A 1C
CH:0789.02,47.2999992,47.5621223,9.12673855,negative,TG,WEINFELDEN,negative,H 14
CH:0020.04,,47.4297295,8.51087666,positive,ZH,"UMF. ZUERICH N, AFFOLTERN (AB)",positive,A 1C
CH:0020.05,98.8000031,47.4297981,8.51082897,negative,ZH,"UMF. ZUERICH N, AFFOLTERN (AB)",negative,A 1C
CH:0285.03,87.5,46.9559669,7.41805124,positive,BE,"BERN, FORSTHAUS (AB)",positive,A 1
CH:0285.02,82.8000031,46.9559479,7.41808462,positive,BE,"BERN, FORSTHAUS (AB)",positive,A 1
CH:0285.07,85.6999969,46.9557495,7.41744947,negative,BE,"BERN, FORSTHAUS (AB)",negative,A 1
CH:0285.05,92.5,46.9557037,7.41752529,negative,BE,"BERN, FORSTHAUS (AB)",negative,A 1
CH:0320.02,123.0,46.8844185,9.53639317,negative,GR,CHUR NORD (AB),negative,A 13
CH:0617.02,76.8000031,46.6295357,7.04504108,positive,FR,CONT.BULLE,positive,H 189
CH:0617.01,74.5999985,46.6295509,7.04499578,negative,FR,CONT.BULLE,negative,H 189
CH:0180.02,49.0,47.7408752,8.71370602,positive,SH,THAYNGEN,positive,H 15
CH:0593.04,115.400002,47.2083893,8.01471519,positive,LU,UFFIKON (AB),positive,A 2
CH:0593.02,122.5,47.2082825,8.01473045,negative,LU,UFFIKON (AB),negative,A 2
CH:0593.01,114.0,47.208252,8.01473045,negative,LU,UFFIKON (AB),negative,A 2
CH:0195.03,115.0,46.7934952,8.66521263,positive,UR,ERSTFELD S (AB),positive,A 2
CH:0228.02,121.0,46.9269829,9.56194878,negative,GR,ZIZERS (AB),negative,A 13
CH:0228.03,119.699997,46.9269905,9.56203651,positive,GR,ZIZERS (AB),positive,A 13
CH:0228.04,109.0,46.9269943,9.5620985,positive,GR,ZIZERS (AB),positive,A 13
CH:0195.01,104.0,46.7934952,8.66508389,negative,UR,ERSTFELD S (AB),negative,A 2
CH:0195.02,113.0,46.793499,8.66514587,negative,UR,ERSTFELD S (AB),negative,A 2
CH:0111.02,56.0,46.5427284,7.66632748,positive,BE,"FRUTIGEN S, KANDERGRUND",positive,H 223
CH:0179.01,,47.2529526,6.98863554,positive,JU,SAIGNELEGIER W,positive,H 18
CH:0179.02,,47.2529831,6.98860264,negative,JU,SAIGNELEGIER W,negative,H 18
CH:0332.04,44.0,47.3291512,8.53142071,,ZH,WOLLISHOFEN (AB) RI ZUERICH - ZH1214,,A 3
CH:0123.02,77.0999985,47.713726,8.64976501,,SH,SCHAFFHAUSEN N (AB),,A 4
CH:0123.04,78.0,47.7138634,8.65017319,,SH,SCHAFFHAUSEN N (AB),,A 4
CH:0686.01,79.1999969,47.5788116,8.68294525,positive,ZH,ADLIKON (AB) - ZH4889,positive,A 4
CH:0332.02,105.800003,47.327877,8.53050327,negative,ZH,WOLLISHOFEN (AB) RI ZUERICH - ZH1214,negative,A 3
CH:0630.02,58.0,46.8397369,9.58749485,negative,GR,CALFREISEN - GR211,negative,H 566
CH:0581.03,98.1999969,47.3349304,8.52419186,positive,ZH,"WOLLISHOFEN, ENTLISBERG (AB ) - ZH1213",positive,A 3
CH:0581.04,108.900002,47.3349533,8.52428246,negative,ZH,"WOLLISHOFEN, ENTLISBERG (AB ) - ZH1213",negative,A 3
CH:0581.05,101.800003,47.3349648,8.52433491,negative,ZH,"WOLLISHOFEN, ENTLISBERG (AB ) - ZH1213",negative,A 3
CH:0581.06,95.8000031,47.3349762,8.5243988,negative,ZH,"WOLLISHOFEN, ENTLISBERG (AB ) - ZH1213",negative,A 3
CH:0070.02,74.1999969,47.5569649,7.61459017,negative,BS,"BASEL, SCHWARZWALDBR. (AB)",negative,A 2
CH:0070.01,67.5,47.5569496,7.61455154,negative,BS,"BASEL, SCHWARZWALDBR. (AB)",negative,A 2
CH:0070.04,,47.5569878,7.61470366,positive,BS,"BASEL, SCHWARZWALDBR. (AB)",positive,A 2
CH:0504.03,80.4000015,46.3865433,6.20414209,negative,VD,"NYON, CRASSIER (AR)",negative,A 1
CH:0504.04,78.1999969,46.3865509,6.20409536,negative,VD,"NYON, CRASSIER (AR)",negative,A 1
CH:0504.02,121.300003,46.3865242,6.20425034,positive,VD,"NYON, CRASSIER (AR)",positive,A 1
CH:0396.01,56.4000015,46.6195374,7.68498898,negative,BE,REICHENBACH S,negative,H 223
CH:0757.01,79.3000031,46.3310661,7.75693083,negative,VS,MITTALTUNNEL,negative,H 509
CH:0293.02,,46.5112915,8.70474529,negative,TI,QUINTO (AS),negative,A 2
CH:0293.03,,46.5113564,8.70478916,positive,TI,QUINTO (AS),positive,A 2
CH:0757.02,78.6999969,46.3310661,7.75699615,positive,VS,MITTALTUNNEL,positive,H 509
CH:0293.04,,46.5113869,8.7048111,positive,TI,QUINTO (AS),positive,A 2
CH:0167.03,99.8000031,47.0767021,8.30864716,positive,LU,"EBIKON, RATHAUSEN (AB)",positive,A 14
CH:0167.02,90.6999969,47.0767479,8.30860806,negative,LU,"EBIKON, RATHAUSEN (AB)",negative,A 14
CH:0082.01,115.199997,47.4270401,9.21689701,positive,SG,GOSSAU (AB),positive,A 1
CH:0082.02,123.300003,47.4270706,9.21692944,positive,SG,GOSSAU (AB),positive,A 1
CH:0082.03,122.199997,47.4270439,9.2171402,negative,SG,GOSSAU (AB),negative,A 1
CH:0224.04,77.0,46.161232,6.11504221,positive,GE,"GENEVE, PLAN-LES-OUAT. (AR)",positive,A 1A
CH:0082.04,114.5,47.4270782,9.21714973,negative,SG,GOSSAU (AB),negative,A 1
CH:0224.02,82.5999985,46.1613235,6.11502934,negative,GE,"GENEVE, PLAN-LES-OUAT. (AR)",negative,A 1A
CH:0224.03,84.0,46.1612625,6.11503792,positive,GE,"GENEVE, PLAN-LES-OUAT. (AR)",positive,A 1A
CH:0224.01,79.0,46.1613503,6.11502457,negative,GE,"GENEVE, PLAN-LES-OUAT. (AR)",negative,A 1A
CH:0384.01,72.0,47.3540955,8.52461052,,ZH,ZUERICH BRUNAU (AB) 2,,A 3
CH:0155.01,60.5,46.5621185,8.36059284,negative,VS,"GLETSCH N, GRIMSEL",negative,H 6
CH:0212.02,78.3000031,47.0637627,6.88605118,positive,NE,VUE-DES-ALPES (TUNNEL),positive,H 20
CH:0339.05,,47.4572296,8.27606773,negative,AG,BADEN-WEST (AB) - AG1573,negative,A 1
CH:0339.04,,47.4571991,8.27608776,negative,AG,BADEN-WEST (AB) - AG1573,negative,A 1
CH:0339.03,,47.4571342,8.27612495,positive,AG,BADEN-WEST (AB) - AG1573,positive,A 1
CH:0727.06,84.1999969,47.1540756,8.43414116,,ZG,VERZW. RUETIHOF (AB),,A 4
CH:0339.07,,47.4567032,8.27403831,,AG,BADEN-WEST (AB) - AG1573,,A 1
CH:0727.02,87.4000015,47.1539307,8.43396187,negative,ZG,VERZW. RUETIHOF (AB),negative,A 4
CH:0769.01,,47.7224503,8.66835976,negative,SH,HERBLINGEN,negative,A 4
CH:0727.01,64.0999985,47.1538887,8.4338131,,ZG,VERZW. RUETIHOF (AB),,A 4
CH:0302.04,101.400002,47.4842873,9.44203472,positive,SG,"ARBON, A1/ZUBRINGER SG",positive,A 23
CH:0570.07,61.5999985,47.3937645,8.41720581,,ZH,URDORF N (AB) - ZH1302,,A 3
CH:0205.06,90.0,47.0748444,8.29409122,positive,LU,"EMMENBRUECKE, GRUEBLISCH. (AB)",positive,A 2
CH:0829.02,123.199997,47.1485825,9.03926754,positive,GL,BILTEN (AB),positive,A 3
CH:0225.01,90.0999985,47.3153648,7.80585003,negative,SO,"EGERKINGEN, VERZWEIGUNG A2 (AB)",negative,A 2
CH:0188.02,29.0,46.4645844,6.07313251,positive,VD,LA CURE,positive,H 123
CH:0026.03,99.4000015,46.9988747,8.31128216,negative,LU,ENNETHORW (AB),negative,A 2
CH:0542.01,121.5,47.4354401,8.35290051,positive,AG,SPREITENBACH W (AB) - AG1446,positive,A 1
CH:0600.03,123.0,47.4353027,9.6422472,negative,SG,"AU, LEHNENVIADUKT (AB)",negative,A 13
CH:0243.01,116.099998,47.4463577,9.41972733,positive,SG,"ST. GALLEN E, BERGBACHVIADUKT (AB)",positive,A 1
CH:0116.04,95.5999985,46.5019226,6.71519852,negative,VD,GRANDVAUX N (AR),negative,A 9
CH:0116.02,93.0999985,46.5017776,6.7150197,positive,VD,GRANDVAUX N (AR),positive,A 9
CH:0349.01,97.1999969,47.5461922,7.82534313,positive,AG,RHEINFELDEN (AB) - AG1420,positive,A 3
CH:0087.01,55.0,47.6018295,9.29336357,negative,TG,GUETTINGEN,negative,H 13
CH:0636.02,88.0,46.711235,10.0852623,negative,GR,"ZERNEZ N, PRASCHITSCH - GR336",negative,H 27
CH:0775.02,88.3000031,47.4744835,7.75896883,positive,BL,LAUSEN,positive,A 22
CH:0693.01,53.0,47.1074867,9.06410789,positive,GL,NAEFELS N,positive,H 17
CH:0357.01,49.0,46.8197823,7.3652873,positive,BE,SCHWARZENBURG E,positive,H 183
CH:0263.02,39.2999992,46.478157,8.38676071,negative,VS,NUFENENPASS,negative,H 413
CH:0566.05,95.5,47.3421021,8.4575386,positive,ZH,DREIECK ZUERICH-WEST 1 (AB) - ZH1202,positive,A 4
CH:0366.02,,47.4528389,8.31497574,,AG,NEUENHOF ANSCHLUSS - AG1571,,A 1
CH:0271.03,,46.9365311,7.4913125,positive,BE,MURI BE N (AB),positive,A 6
CH:0072.02,,47.382164,8.11114407,positive,AG,HUNZENSCHWIL (AB),positive,A 1
CH:0759.04,110.300003,47.3739967,8.69844246,negative,ZH,NAENIKON,negative,A 15
CH:0518.04,66.0,47.3936157,8.49396038,negative,ZH,ZUERICH HARDTURM (AB),negative,A 1H
CH:0633.02,72.0,46.7019081,9.72563553,negative,GR,WIESEN E - GR0239,negative,H 417
CH:0025.04,113.0,47.0145607,9.5047226,positive,SG,BAD RAGAZ (AB),positive,A 13
CH:0300.03,115.5,46.4772415,6.41129398,negative,VD,ETOY (AR),negative,A 1
CH:0268.03,103.800003,46.2194977,7.00752831,negative,VS,ST. MAURICE (AR),negative,A 9
CH:0348.07,,47.5454712,7.80121374,,AG,RHEINFELDEN (AB) - AG1427,,A 3
CH:0105.01,100.400002,47.2110023,8.5436821,negative,ZG,BAAR N (AB),negative,A 14
CH:0117.03,123.300003,47.1735077,8.43204308,negative,ZG,HUENENBERG S (AB),negative,A 4
CH:0064.06,105.0,46.5458374,6.63154554,negative,VD,CONT. DE LAUSANNE (AR),negative,A 9
CH:0580.01,91.1999969,47.346981,8.51988602,positive,ZH,DREIECK ZUERICH-SUED N (AB) - ZH1210,positive,A 3
CH:0649.01,99.9000015,46.6697121,7.0752511,positive,FR,SORENS (AR),positive,A 12
CH:0219.03,,47.4560547,8.14367962,negative,AG,SCHINZNACH DORF (AB),negative,A 3
CH:0220.05,,47.4470291,8.24522781,negative,AG,"MUELLIGEN, VERZW. A3/A1 (AB)",negative,A 3
CH:0044.02,72.8000031,46.4645805,9.18584728,positive,GR,SAN BERNARDINO (TUNNEL),positive,A 13
CH:0844.06,44.0,47.6923866,8.62188339,negative,SH,BAHNTAL GALGENBUCKTUNNEL,negative,A 4
CH:0240.03,90.8000031,47.4240379,8.57154465,positive,ZH,"UMF. ZUERICH N, SEEBACH (AB)",positive,A 1C
CH:0844.01,53.0,47.6910324,8.62208366,positive,SH,BAHNTAL GALGENBUCKTUNNEL,positive,A 4
CH:0068.04,93.0,46.253685,6.13912153,positive,GE,COLOVREX-LAC (AR),positive,A 1
CH:0321.01,53.7999992,47.5721931,7.59889078,,BS,"BASEL, ANSCHLUSS WIESE, A3 (AB)",,A 3
CH:0547.02,71.9000015,46.1620064,8.77349186,negative,TI,ASCONA GALLERIA,negative,A 13
CH:0321.06,57.7999992,47.5714684,7.59812546,,BS,"BASEL, ANSCHLUSS WIESE, A3 (AB)",,A 3
CH:0093.03,99.0999985,47.5177689,8.69505119,positive,ZH,UMF. WINTERTHUR (AB),positive,A 1
CH:0166.01,110.0,46.351078,8.96168327,negative,TI,BIASCA S (AS),negative,A 2
CH:0608.01,56.0,46.3768272,7.08004856,positive,VD,COL DES MOSSES,positive,H 11
CH:0308.03,105.0,47.1904373,8.83082867,negative,SZ,LACHEN (AB),negative,A 3
CH:0572.04,93.9000015,47.3191872,8.44591808,positive,ZH,ISLISBERGTUNNEL MITTE (AB) - ZH2102,positive,A 4
CH:0142.06,75.6999969,47.3025475,7.92157173,positive,AG,ZOFINGEN (AB),positive,A 2
CH:0016.01,,47.1020088,7.1760478,positive,BE,"TWANN, WINGREIS (AR)",positive,A 5
CH:0771.01,89.1999969,47.4513588,7.59656906,negative,BL,TUNNEL EGGFLUE,negative,A 18
CH:0347.02,,47.5413513,7.76305485,positive,AG,RHEINFELDEN (AB) - AG1426,positive,A 3
CH:0347.06,,47.5417557,7.76413965,,AG,RHEINFELDEN (AB) - AG1426,,A 3
CH:0851.06,85.6999969,46.1138611,7.09019899,negative,VS,ECHANGEUR GD.ST.BERNARD OUEST (AR),negative,A 9
CH:0851.03,127.0,46.1136742,7.09024286,positive,VS,ECHANGEUR GD.ST.BERNARD OUEST (AR),positive,A 9
CH:0507.06,53.2999992,45.9872093,8.93214321,,TI,CIRCONVALLAZIONE DI LUGANO (AB),,A 2
CH:0118.06,85.3000031,46.9690628,7.4603796,negative,BE,"BERN, FELSENAUVIADUKT (AB)",negative,A 1
CH:0073.02,104.300003,47.3120613,7.80758905,positive,SO,HAERKINGEN (AB),positive,A 1
CH:0290.01,86.5999985,47.310585,7.90067577,,AG,OFTRINGEN / ROTHRIST (AB) - AG1412,,A 1
CH:0290.05,109.699997,47.310688,7.90090847,negative,AG,OFTRINGEN / ROTHRIST (AB) - AG1412,negative,A 1
CH:0241.02,89.6999969,47.4287796,8.57203484,negative,ZH,OPFIKON (AB),negative,A 11
CH:0241.03,97.9000015,47.4287834,8.57207966,negative,ZH,OPFIKON (AB),negative,A 11
CH:0556.02,99.5,47.4819832,7.77775669,negative,#N/A,#N/A,negative,#N/A
CH:0602.01,61.4000015,47.435257,9.3961134,positive,SG,"ST. GALLEN, HARZBUECHEL (AB)",positive,A 1
CH:0126.04,77.0,47.0397568,8.29359436,positive,LU,"LUZERN, SONNENBERGTUNNEL (AB)",positive,A 2
CH:0053.01,97.9000015,47.1268883,9.10201359,positive,GL,"WEESEN, KERENZERBERG (AB)",positive,A 3
CH:0695.04,61.9000015,47.0904121,8.2492609,,LU,ANSCHL. ROTHENBURG,,A 2
CH:0138.01,59.0,46.2632141,10.1176901,negative,GR,BRUSIO N,negative,H 29
CH:0544.02,111.300003,47.4269943,8.37395,negative,AG,SPREITENBACH EINFAHRT (AB) - AG1444,negative,A 1
CH:0674.04,109.5,46.9467125,6.83689976,negative,NE,BOUDRY (AR),negative,A 5
CH:0524.02,50.0,46.5272026,8.9237051,positive,TI,OLIVONE - LUCOMAGNO,positive,H 416
CH:0605.08,60.0,47.4082146,9.30810928,,SG,"ST.GALLEN, ANSCHL. BREITFELD",,A1
CH:0789.01,49.2999992,47.5620995,9.12668991,positive,TG,WEINFELDEN,positive,H 14
CH:0020.06,90.8000031,47.4298248,8.51080036,negative,ZH,"UMF. ZUERICH N, AFFOLTERN (AB)",negative,A 1C
CH:0320.01,113.400002,46.8844337,9.5363493,negative,GR,CHUR NORD (AB),negative,A 13
CH:0195.04,104.300003,46.793499,8.66526985,positive,UR,ERSTFELD S (AB),positive,A 2
CH:0686.02,77.1999969,47.5789566,8.68300438,positive,ZH,ADLIKON (AB) - ZH4889,positive,A 4
CH:0261.02,66.0,46.641922,8.61381245,positive,UR,OBERALPPASS W,positive,H 19
CH:0293.01,,46.511261,8.70472145,negative,TI,QUINTO (AS),negative,A 2
CH:0384.06,81.0,47.3540993,8.52466202,positive,ZH,ZUERICH BRUNAU (AB) 2,positive,A 3
CH:0384.05,89.3000031,47.3540993,8.52471828,positive,ZH,ZUERICH BRUNAU (AB) 2,positive,A 3
CH:0339.08,,47.4560204,8.27211666,,AG,BADEN-WEST (AB) - AG1573,,A 1
CH:0727.03,100.699997,47.1539421,8.43400478,negative,ZG,VERZW. RUETIHOF (AB),negative,A 4
CH:0339.01,,47.4570732,8.27615929,positive,AG,BADEN-WEST (AB) - AG1573,positive,A 1
CH:0112.04,63.7000008,47.0210342,7.03112411,negative,NE,PONT DE THIELLE,negative,H 10
CH:0574.04,76.5,47.2726746,8.43796539,,ZH,ANSCHLUSS AFFOLTERN A.A 2 (AB) - ZH2104,,A 4
CH:0318.01,115.800003,47.0472565,9.43157101,positive,SG,MELS N (AB),positive,A 3
CH:0301.01,71.0,47.3634987,8.42322636,,ZH,BIRMENSDORF N (AB) - ZH1103,,A 4
CH:0370.03,114.099998,46.4752083,6.81361437,negative,VD,CHEXBRES E (AR),negative,A 9
CH:0566.07,96.3000031,47.341156,8.45750427,negative,ZH,DREIECK ZUERICH-WEST 1 (AB) - ZH1202,negative,A 4
CH:0313.02,125.0,46.2076912,7.2720046,positive,VS,ARDON (AR),positive,A 9
CH:0157.02,40.0,46.6812897,9.5254221,negative,GR,"ALVASCHEIN, SOLISTUNNEL",negative,H 417
CH:0246.04,86.1999969,47.6509819,9.15385151,negative,TG,"KREUZLINGEN, GIRSBAERGTUNNEL N (AB)",negative,A 7
CH:0165.04,113.599998,46.1189232,7.06954575,negative,VS,MARTIGNY N (AR),negative,A 9
CH:0117.04,126.800003,47.1735115,8.43213081,positive,ZG,HUENENBERG S (AB),positive,A 4
CH:0033.04,,47.3965454,7.81383181,positive,BL,EPTINGEN N (AB),positive,A 2
CH:0033.01,71.3000031,47.3965607,7.81335735,negative,BL,EPTINGEN N (AB),negative,A 2
CH:0766.01,76.5999985,47.2396011,8.86434269,negative,SG,JONA,negative,A 15
CH:0844.02,50.0,47.69104,8.62192631,positive,SH,BAHNTAL GALGENBUCKTUNNEL,positive,A 4
CH:0321.03,63.5,47.5722122,7.59870434,positive,BS,"BASEL, ANSCHLUSS WIESE, A3 (AB)",positive,A 3
CH:0081.02,91.3000031,47.5387535,7.6448245,negative,BL,"MUTTENZ, HARD (AB)",negative,A 2
CH:0199.04,95.5,45.8644676,8.97068596,positive,TI,MENDRISIO S (AS),positive,A 2
CH:0602.03,60.0999985,47.4353142,9.39606667,negative,SG,"ST. GALLEN, HARZBUECHEL (AB)",negative,A 1
CH:0797.01,98.5999985,47.4739418,7.0010767,negative,JU,"NEU-BOIS, TUNNEL N (AR)",negative,A 16
CH:0614.02,83.3000031,46.9721336,8.44056416,negative,NW,ANSCHLUSS BUOCHS RI ALTDORF (AB),negative,A 2
CH:0765.01,60.2999992,47.3979836,9.29671478,positive,SG,"ST.GALLEN, WINKELN ALTER ZOLL - SG51",positive,H 8
CH:0364.02,75.0,47.0379486,7.73880672,negative,BE,"SUMISWALD, GAMMENTHAL",negative,H 23
CH:0216.03,128.100006,47.1936111,8.89496136,negative,SZ,WANGEN SZ (AB),negative,A 3
CH:0581.01,106.5,47.3349152,8.52409649,positive,ZH,"WOLLISHOFEN, ENTLISBERG (AB ) - ZH1213",positive,A 3
CH:0396.02,54.2999992,46.6195145,7.68501997,positive,BE,REICHENBACH S,positive,H 223
CH:0339.06,,47.4572639,8.27604675,negative,AG,BADEN-WEST (AB) - AG1573,negative,A 1
CH:0285.04,93.4000015,46.9559898,7.41801786,positive,BE,"BERN, FORSTHAUS (AB)",positive,A 1
CH:0354.02,,46.5188446,7.31046629,positive,BE,SAANENMOESER,positive,H 11
CH:0563.03,53.0,47.3481598,8.42521954,,ZH,ANSCHLUSS BIRMENSDORF 1 EIN-AUSFAHRT (AB) -ZH1105,,A 4
CH:0246.03,97.3000031,47.6509666,9.15389442,negative,TG,"KREUZLINGEN, GIRSBAERGTUNNEL N (AB)",negative,A 7
CH:0214.04,96.8000031,46.9514122,7.38426447,negative,BE,"BERN, BRUENNENTUNNEL (AB)",negative,A 1
CH:0580.06,78.3000031,47.3468666,8.52011585,negative,ZH,DREIECK ZUERICH-SUED N (AB) - ZH1210,negative,A 3
CH:0579.02,88.5,47.3410301,8.52190208,positive,ZH,DREIECK ZUERICH-SUED S (AB) - ZH1209,positive,A 3
CH:0743.02,84.4000015,46.5610619,6.56104469,,VD,CRISSIER (AR) RI NORD,,A 1
CH:0215.02,125.0,47.5944595,9.00679207,positive,TG,MUELLHEIM (AB),positive,A 7
CH:0673.04,114.800003,46.9288025,6.81963158,negative,NE,BEVAIX (AR),negative,A 5
CH:0851.04,125.0,46.1137428,7.09022427,negative,VS,ECHANGEUR GD.ST.BERNARD OUEST (AR),negative,A 9
CH:0303.04,,47.4570465,9.07379246,negative,SG,THURAU (AB),negative,A 1
CH:0695.07,61.0,47.0890656,8.25213623,,LU,ANSCHL. ROTHENBURG,,A 2
CH:0102.02,103.900002,47.5446396,7.78233099,positive,AG,RHEINFELDEN (AB),positive,A 3
CH:0335.01,84.6999969,47.3049507,7.92487717,,AG,WIGGERTAL (AB) - AG1411,,A 1
CH:0320.03,122.5,46.8843765,9.53649235,positive,GR,CHUR NORD (AB),positive,A 13
CH:0180.03,46.5,47.7408409,8.71369839,positive,SH,THAYNGEN,positive,H 15
CH:0123.01,70.5999985,47.7138481,8.64948368,negative,SH,SCHAFFHAUSEN N (AB),negative,A 4
CH:0261.01,73.0,46.6419487,8.61380577,negative,UR,OBERALPPASS W,negative,H 19
CH:0676.04,99.4000015,47.0046158,6.96367025,negative,NE,HAUTERIVE (AR),negative,A 5
CH:0329.02,121.800003,46.9425697,7.15352964,positive,FR,"MURTEN, LOEWENBERG (AB)",positive,A 1
CH:0033.03,69.5,47.3966026,7.81345606,negative,BL,EPTINGEN N (AB),negative,A 2
CH:0081.08,93.5999985,47.5389557,7.64495897,positive,BL,"MUTTENZ, HARD (AB)",positive,A 2
CH:0540.01,67.6999969,47.2758331,7.51819706,positive,SO,WELSCHENROHR W,positive,H 30
CH:0247.01,105.0,46.8446007,6.68677855,positive,VD,ONNENS VD (AR),positive,A 5
CH:0347.04,,47.5416908,7.7641716,negative,AG,RHEINFELDEN (AB) - AG1426,negative,A 3
CH:0851.02,119.300003,46.1136398,7.09023952,positive,VS,ECHANGEUR GD.ST.BERNARD OUEST (AR),positive,A 9
CH:0605.03,55.5,47.408432,9.30785656,,SG,"ST.GALLEN, ANSCHL. BREITFELD",,A1
CH:0320.04,113.0,46.8843575,9.53653812,positive,GR,CHUR NORD (AB),positive,A 13
CH:0619.05,81.1999969,47.1988564,8.45952606,,ZG,BLEGI S (AB),,A 4
CH:0265.02,121.400002,46.2841492,8.99300194,negative,TI,MOLENO N (AS),negative,A 2
CH:0640.06,90.1999969,47.5306587,8.81434822,,ZH,ANSCHLUSS ATTIKON (AB)),,A 1
CH:0264.01,48.2999992,46.8710976,8.78112698,positive,UR,KLAUSENPASS W,positive,H 17
CH:0673.01,110.0,46.9287186,6.81980753,positive,NE,BEVAIX (AR),positive,A 5
CH:0123.06,77.0,47.7138405,8.65039444,positive,SH,SCHAFFHAUSEN N (AB),positive,A 4
CH:0055.02,112.599998,47.2119293,8.67221069,positive,ZH,RICHTERSWIL (AB),positive,A 3
CH:0260.01,45.2999992,46.5931778,8.46073341,positive,UR,"FURKAPASS, TIEFENBACH",positive,H 19
CH:0191.03,119.800003,47.0454178,8.55920887,positive,SZ,GOLDAU S (AB),positive,A 4
CH:0727.07,76.5999985,47.1541367,8.43448257,,ZG,VERZW. RUETIHOF (AB),,A 4
CH:0561.01,69.3000031,47.3715897,8.42026043,,ZH,ANSCHLUSS URDORF S 1 - ZH1102,,A 4
CH:0678.05,93.9000015,47.0837784,8.27289104,positive,LU,ANSCHL. EMMEN NORD,positive,A 2
CH:0528.03,112.099998,46.7300415,8.62689304,positive,UR,GURTNELLEN (AB),positive,A 2
CH:0340.06,,47.4585762,8.28536415,negative,AG,BADEN-WEST (AB) - AG1441,negative,A 1
CH:0340.01,,47.4582138,8.28517914,positive,AG,BADEN-WEST (AB) - AG1441,positive,A 1
CH:0573.04,96.4000015,47.2965279,8.4288559,positive,ZH,"ISLISBERG, ISLISBERGTUNNEL S (AB) - ZH2103",positive,A 4
CH:0573.01,102.099998,47.2966499,8.4285183,negative,ZH,"ISLISBERG, ISLISBERGTUNNEL S (AB) - ZH2103",negative,A 4
CH:0516.04,111.800003,47.5303116,8.77272511,negative,ZH,ANSCHLUSS OBERWINTERTHUR 1 (AB),negative,A 1
CH:0760.02,35.5,47.3458595,8.74354553,negative,ZH,USTER O,negative,A 15
CH:0003.02,46.7999992,46.1050606,8.69822979,positive,TI,BRISSAGO S,positive,H 13
CH:0210.04,,47.5288734,7.7374506,positive,BL,"AUGST S, VERZW. A2/A3 (AB)",positive,A 2
CH:0692.01,50.2999992,47.0075569,9.07846355,positive,GL,"GLARUS S, MITLOEDI",positive,H 17
CH:0291.01,83.0999985,46.5462418,6.56897831,positive,VD,RENENS (AR),positive,A 1
CH:0508.04,82.5999985,45.8931084,8.97610378,positive,TI,MENDRISIO N (AS),positive,A 2
CH:0541.02,119.900002,47.1494865,8.42776108,negative,ZG,GISIKON (AB),negative,A 14
CH:0035.04,92.3000031,47.0388451,9.46286964,positive,SG,TRUEBBACH S (AB),positive,A 13
CH:0383.02,78.1999969,47.3495483,8.52344418,,ZH,ZUERICH BRUNAU (AB) 1,,A 3
CH:0383.01,82.0,47.3496017,8.52334309,,ZH,ZUERICH BRUNAU (AB) 1,,A 3
CH:0635.02,81.8000031,46.6814079,8.81194496,positive,GR,"TAVETSCH, CRESTAS-TUNNEL -  GR0306",positive,H 19
CH:0035.01,81.3000031,47.0388069,9.46235752,negative,SG,TRUEBBACH S (AB),negative,A 13
CH:0229.03,120.699997,47.3161163,7.94427252,negative,AG,OFTRINGEN E (AB),negative,A 1
CH:0391.01,81.8000031,46.6516762,6.78880167,negative,VD,MOUDON S,negative,H 1
CH:0115.02,76.9000015,47.0602417,8.28802013,negative,LU,"LUZERN, REUSSPORTTUNNEL (AB)",negative,A 2
CH:0647.01,79.5,46.7802315,7.09046793,,FR,ANSCHLUSS MATRAN S,,A 12
CH:0127.03,91.0,46.7430573,6.52357674,negative,VD,ORBE N (AR),negative,A 9
CH:0378.01,73.6999969,47.6745644,8.6239996,,ZH,UHWIESEN ANSCHLUSS (AB),,A 4
CH:0098.01,56.7999992,46.3334999,9.53078747,negative,GR,CASTASEGNA,negative,H 3
CH:0837.01,91.0,47.4085617,8.58642006,positive,ZH,SCHWAMENDINGEN (AB),positive,A 1
CH:0837.08,83.0999985,47.4088936,8.5865736,negative,ZH,SCHWAMENDINGEN (AB),negative,A 1
CH:0042.04,,46.9585648,7.47041368,positive,BE,UMF. BERN OST (AB),positive,A 6
CH:0801.01,119.300003,47.0134315,7.00916529,negative,NE,MARIN EST (AB),negative,A 5
CH:0042.02,,46.9586258,7.47033167,negative,BE,UMF. BERN OST (AB),negative,A 6
CH:0590.02,94.6999969,47.3472595,8.42826748,negative,ZH,ANSCHLUSS BIRMENSDORF 2 (AB) - ZH1108,negative,A 3
CH:0764.01,46.9000015,47.2163391,8.61096287,negative,ZH,HIRZEL,negative,H 338
CH:0054.03,109.300003,47.3197746,8.5344677,negative,ZH,ADLISWIL (AB),negative,A 3
CH:0298.03,119.800003,47.4026337,8.20717907,negative,AG,OTHMARSINGEN (AB),negative,A 1
CH:0066.06,118.199997,47.4056129,8.45954609,negative,ZH,SCHLIEREN (AB),negative,A 1
CH:0615.04,40.0,46.9667473,8.35429192,,NW,ANSCHLUSS STANS NORD RI ALTDORF (AB),,A 2
CH:0615.02,103.199997,46.9669609,8.35348797,negative,NW,ANSCHLUSS STANS NORD RI ALTDORF (AB),negative,A 2
CH:0672.04,101.900002,46.9119606,6.7986536,negative,NE,GORGIER (AR),negative,A 5
CH:0672.03,108.5,46.9119568,6.79868174,negative,NE,GORGIER (AR),negative,A 5
CH:0589.03,73.0,47.3484344,8.42644501,positive,ZH,ANSCHLUSS BIRMENSDORF 1 (AB) - ZH1107,positive,A 3
CH:0776.01,58.0,47.3614693,9.29438972,positive,AR,WALDSTATT,positive,H 8
CH:0537.01,62.7999992,46.4757195,6.86152029,,VD,VEVEY (AR),,A 9
CH:0331.04,119.5,46.5019493,6.89692259,negative,VD,CHATEL ST. DENIS (AR),negative,A 12
CH:0237.03,,47.1763306,7.42516232,negative,SO,GRENCHEN (AB),negative,A 5
CH:0331.02,116.599998,46.5019035,6.89704704,positive,VD,CHATEL ST. DENIS (AR),positive,A 12
CH:0569.02,52.0,47.3355484,8.46105862,,ZH,DREIECK ZUERICH-WEST 4 (AB) - ZH1205,,A 4
CH:0569.01,49.2999992,47.3355179,8.4603014,,ZH,DREIECK ZUERICH-WEST 4 (AB) - ZH1205,,A 4
CH:0675.04,87.0,46.9835625,6.90976572,negative,NE,NEUCHATEL-OUEST TUNNEL (AR),negative,A 5
CH:0570.03,90.0,47.3933144,8.41654873,positive,ZH,URDORF N (AB) - ZH1302,positive,A 3
CH:0205.05,92.8000031,47.0748367,8.29405022,positive,LU,"EMMENBRUECKE, GRUEBLISCH. (AB)",positive,A 2
CH:0618.01,75.8000031,47.2014389,8.46184444,,ZG,BLEGI N (AB),,A 4
CH:0282.01,67.5999985,47.420681,9.33621693,positive,SG,"ST. JOSEFEN, SITTERVIADUKT (AB)",positive,A 1
CH:0338.01,106.599998,47.4505386,8.25941563,positive,AG,BADEN-WEST (AB) - AG1442,positive,A 1
CH:0282.05,70.3000031,47.4208298,9.33612156,negative,SG,"ST. JOSEFEN, SITTERVIADUKT (AB)",negative,A 1
CH:0562.03,101.699997,47.3551865,8.42194176,negative,ZH,"BIRMENSDORF, HAFNERBERGTUNNEL (AB) - ZH1104",negative,A 4
CH:0562.04,99.0999985,47.3551788,8.42164803,positive,ZH,"BIRMENSDORF, HAFNERBERGTUNNEL (AB) - ZH1104",positive,A 4
CH:0687.01,39.9000015,46.8758965,8.64929867,negative,UR,"ALTDORF, GOTTHARDSTRASSE - UR6014",negative,H 2
CH:0631.02,45.0,46.8249512,9.54016495,positive,GR,MALIX N  - GR213,positive,H 3A
CH:0517.02,120.900002,47.4150429,9.27772427,positive,SG,"GOSSAU, OBERBERG (AB)",positive,A 1
CH:0257.02,,47.5792274,7.59948206,negative,BS,"BASEL, ANSCHLUSS WIESE, KLEINHAENINGEN (AB)",negative,A 2
CH:0517.04,110.599998,47.4151077,9.27783871,negative,SG,"GOSSAU, OBERBERG (AB)",negative,A 1
CH:0083.02,119.400002,46.3831024,6.92475986,positive,VD,VILLENEUVE (AR),positive,A 9
CH:0083.03,116.800003,46.3830872,6.92486286,negative,VD,VILLENEUVE (AR),negative,A 9
CH:0549.02,93.6999969,47.7933884,8.60306931,positive,SH,"BARGEN N, ZOLL (AB)",positive,A 4
CH:0270.02,,47.411602,8.57367039,positive,ZH,ZUERICH - OERLIKON (AB) ZH 1301,positive,A 1L
CH:0363.02,56.7999992,47.2471352,7.75765181,positive,BE,"AARWANGEN, SCHUERHOF",positive,H 244
CH:0318.04,111.0,47.0473175,9.43175125,negative,SG,MELS N (AB),negative,A 3
CH:0505.01,113.199997,46.4140396,6.23374653,positive,VD,"GLAND, DUILLIER (AR)",positive,A 1
CH:0542.05,112.900002,47.4355812,8.35303688,negative,AG,SPREITENBACH W (AB) - AG1446,negative,A 1
CH:0301.03,92.5999985,47.3646889,8.42414284,positive,ZH,BIRMENSDORF N (AB) - ZH1103,positive,A 4
CH:0301.02,79.0,47.3646927,8.42409134,positive,ZH,BIRMENSDORF N (AB) - ZH1103,positive,A 4
CH:0668.01,56.2000008,46.2469864,6.93685389,negative,VS,MONTHEY - VS164002,negative,H 201
CH:0828.03,124.300003,47.0808754,9.50107288,positive,SG,TRUEBBACH N (AB),positive,A 13
CH:0280.04,,47.3909645,8.14183235,negative,AG,SCHAFISHEIM (AB) -  AG1410,negative,A 1
CH:0370.01,81.0999985,46.4750671,6.81361389,positive,VD,CHEXBRES E (AR),positive,A 9
CH:0325.04,116.0,46.8493881,7.17646456,negative,FR,DUEDINGEN S (AB),negative,A 12
CH:0051.02,46.0,45.84692,8.93453693,positive,TI,STABIO,positive,H 394
CH:0051.01,43.2000008,45.8469658,8.93451118,negative,TI,STABIO,negative,H 394
CH:0337.01,108.800003,47.4266777,8.2351265,positive,AG,BIRRHARD (AB) - AG1406,positive,A 1
CH:0612.02,56.5,47.4708023,8.19210625,negative,AG,"BRUGG W, UNTERFUEHRUNG - AG1533",negative,H 5
CH:0218.02,109.5,47.0412941,7.03053188,positive,NE,CRESSIER (AR),positive,A 5
CH:0287.03,,47.4244041,8.48388958,negative,ZH,"WEININGEN, GUBRIST (AB)",negative,A 1C
CH:0763.01,112.0,47.2812271,8.82382679,negative,ZH,HINWIL S,negative,A 15
CH:0345.03,84.5,47.5344543,7.74140644,positive,AG,RHEINFELDEN (AB) - AG1424,positive,A 3
CH:0509.01,103.099998,46.4682274,6.34413862,positive,VD,ROLLE N (AR),positive,A 1
CH:0022.04,116.800003,47.367382,9.62212467,positive,SG,KRIESSERN (AB),positive,A 13
CH:0566.03,78.6999969,47.3427238,8.45872879,negative,ZH,DREIECK ZUERICH-WEST 1 (AB) - ZH1202,negative,A 4
CH:0578.01,100.5,47.3443718,8.51403332,negative,ZH,UETLIBERGTUNNEL E (AB) - ZH1208,negative,A 3
CH:0522.01,93.5999985,47.3409233,7.83337688,negative,SO,BELCHEN S (AB),negative,A 2
CH:0238.04,98.5,46.759079,9.42459583,positive,GR,ROTHENBRUNNEN S (AB),positive,A 13
CH:0238.01,99.9000015,46.7590446,9.42446518,negative,GR,ROTHENBRUNNEN S (AB),negative,A 13
CH:0342.01,116.599998,47.4226952,8.38875008,positive,AG,DIETIKON (AB) - AG1400,positive,A 1
CH:0639.04,105.099998,47.49786,8.69385242,negative,ZH,WINTERTHUR TOESS (AB) - ZH105,negative,A 1
CH:0696.02,69.0,47.210247,7.73704958,negative,BE,BUETZBERG,negative,H 1
CH:0121.02,118.0,46.9631805,6.86743116,positive,NE,"COLOMBIER, AREUSE (AR)",positive,A 5
CH:0017.03,106.300003,47.3878708,8.1010952,negative,AG,BUCHS AG (AB),negative,A 1R
CH:0563.02,51.7000008,47.348156,8.42526817,,ZH,ANSCHLUSS BIRMENSDORF 1 EIN-AUSFAHRT (AB) -ZH1105,,A 4
CH:0189.02,61.7000008,47.0680008,6.76747799,positive,NE,LE LOCLE E,positive,H 20
CH:0619.03,90.0999985,47.1989326,8.45944786,positive,ZG,BLEGI S (AB),positive,A 4
CH:0374.03,109.699997,47.329937,8.5289259,positive,ZH,WOLLISHOFEN (AB) RI SARGANS - ZH1215,positive,A 3
CH:0072.03,,47.382206,8.11104774,negative,AG,HUNZENSCHWIL (AB),negative,A 1
CH:0329.03,122.300003,46.9425583,7.15331221,negative,FR,"MURTEN, LOEWENBERG (AB)",negative,A 1
CH:0518.03,68.0,47.3934212,8.49397469,positive,ZH,ZUERICH HARDTURM (AB),positive,A 1H
CH:0312.03,,47.4490395,8.23760033,negative,AG,MUELLIGEN OST (AB) - AG1422,negative,A 3
CH:0336.01,,47.3215866,7.96567059,positive,AG,WALTERSWIL (AB) - AG1413,positive,A 1
CH:0393.04,79.0999985,46.8433304,8.20024967,positive,OW,"SACHSELN, ZOLLHAUS",positive,A 8
CH:0393.02,60.7000008,46.8438225,8.20078754,negative,OW,"SACHSELN, ZOLLHAUS",negative,A 8
CH:0200.02,72.0999985,46.1513824,6.09680176,positive,GE,"GENEVE, BARDONNEX (AR)",positive,A 1A
CH:0117.05,118.599998,47.1735115,8.43217468,positive,ZG,HUENENBERG S (AB),positive,A 4
CH:0064.01,101.400002,46.5455971,6.63148642,positive,VD,CONT. DE LAUSANNE (AR),positive,A 9
CH:0625.02,121.099998,47.189621,8.49853706,negative,ZG,STEINHAUSEN E (AB),negative,A 14
CH:0207.04,,46.7877045,7.5994401,positive,BE,HEIMBERG (AB),positive,A 6
CH:0207.03,,46.7876854,7.59939194,positive,BE,HEIMBERG (AB),positive,A 6
CH:0555.02,99.5,47.4835739,7.77771616,negative,#N/A,#N/A,negative,#N/A
CH:0511.04,103.199997,46.515873,6.50198889,negative,VD,MORGES CENTRE (AR),negative,A 1
CH:0694.03,118.699997,47.1189919,8.37459469,positive,LU,ROOT (AB),positive,A 14
CH:0694.04,110.0,47.1189651,8.37459755,positive,LU,ROOT (AB),positive,A 14
CH:0296.06,69.5,47.0190964,8.29653549,,LU,"HORW, SCHLUNDTUNNEL (AB)",,A 2
CH:0203.01,77.6999969,46.2304535,9.11452007,negative,GR,ROVEREDO (AS),negative,A 13
CH:0194.01,85.5,47.3889656,8.41390514,positive,ZH,URDORF (AB),positive,A 3
CH:0056.06,92.6999969,47.0048485,7.49358559,negative,BE,"SCHOENBUEHL, GRAUHOLZ (AB)",negative,A 1
CH:0056.03,104.400002,47.0047722,7.49374151,positive,BE,"SCHOENBUEHL, GRAUHOLZ (AB)",positive,A 1
CH:0240.05,87.3000031,47.4244385,8.56947613,negative,ZH,"UMF. ZUERICH N, SEEBACH (AB)",negative,A 1C
CH:0272.02,99.5,46.1945877,6.07825279,positive,GE,"GENEVE, PONT DU RHONE (AR)",positive,A 1
CH:0304.02,103.199997,47.14814,8.17442703,negative,LU,EICH (AB),negative,A 2
CH:0515.01,61.5,47.5306053,8.77463531,,ZH,ANSCHLUSS OBERWINTERTHUR 2 (AB),,A 1
CH:0097.04,97.6999969,47.4566994,8.30743122,positive,AG,"BADEN, BAREGGTUNNEL (AB)",positive,A 1
CH:0785.03,122.599998,47.5823441,9.01882362,negative,TG,ESCHIKOFEN,negative,A 23
CH:0102.01,92.0,47.5446053,7.78234196,positive,AG,RHEINFELDEN (AB),positive,A 3
CH:0171.01,,47.0832863,8.63847733,negative,SZ,SATTEL N,negative,H 8
CH:0674.02,121.300003,46.9466362,6.83698082,positive,NE,BOUDRY (AR),positive,A 5
CH:0605.04,56.0,47.4083748,9.30787277,,SG,"ST.GALLEN, ANSCHL. BREITFELD",,A1
CH:0209.02,84.0,46.0787735,7.05328083,negative,VS,"MARTIGNY, LE BROCARD",negative,H 21
CH:0391.02,78.0,46.6516914,6.78874731,positive,VD,MOUDON S,positive,H 1
CH:0250.03,122.800003,46.3121529,6.946908,negative,VD,AIGLE E (AR),negative,A 9
CH:0249.01,100.5,46.3171997,6.14579296,positive,VD,COPPET W (AR),positive,A 1
CH:0338.06,98.3000031,47.4507256,8.25931358,negative,AG,BADEN-WEST (AB) - AG1442,negative,A 1
CH:0201.02,129.0,46.2405014,7.3939662,positive,VS,SION E  (AR),positive,A 9
CH:0829.04,114.5,47.1486397,9.03940105,negative,GL,BILTEN (AB),negative,A 3
CH:0830.04,112.5,47.128727,9.08473492,negative,GL,NIEDERURNEN (AB),negative,A 3
CH:0554.02,,47.4849434,7.77745056,negative,#N/A,#N/A,negative,#N/A
CH:0337.03,117.0,47.4267273,8.23500824,negative,AG,BIRRHARD (AB) - AG1406,negative,A 1
CH:0394.02,43.7000008,47.0481606,9.06077671,negative,GL,GLARUS N,negative,H 17
CH:0722.01,43.2999992,46.2019615,7.01529169,,VS,CCTL ST MAURICE OST,,A 9
CH:0333.02,121.0,46.6649284,6.5713625,positive,VD,BAVOIS (AR),positive,A 1
CH:0104.04,80.5,46.9209061,7.50716734,positive,BE,MURI BE S (AB),positive,A 6
CH:0022.02,123.300003,47.3674622,9.62201595,negative,SG,KRIESSERN (AB),negative,A 13
CH:0313.01,118.599998,46.2076645,7.27202749,positive,VS,ARDON (AR),positive,A 9
CH:0043.02,99.5999985,46.5296211,6.54129362,positive,VD,PREVERENGES (AR),positive,A 1
CH:0640.01,77.0999985,47.5303383,8.81423473,,ZH,ANSCHLUSS ATTIKON (AB)),,A 1
CH:0640.04,125.199997,47.530529,8.81430244,negative,ZH,ANSCHLUSS ATTIKON (AB)),negative,A 1
CH:0640.05,118.400002,47.5305634,8.81431103,negative,ZH,ANSCHLUSS ATTIKON (AB)),negative,A 1
CH:0317.08,68.0,47.6470909,8.65016651,,ZH,BENKEN ANSCHLUSS (AB),,A 4
CH:0857.02,116.599998,46.7486839,7.60231972,negative,BE,"THUN, ALLMENDTUNNEL S (AB)",negative,A 6
CH:0354.01,,46.518856,7.31044197,negative,BE,SAANENMOESER,negative,H 11
CH:0607.04,104.599998,47.285183,8.55678558,negative,ZH,THALWIL ( AB) - ZH104,negative,A 3
CH:0059.02,117.599998,46.9974823,6.95201683,positive,NE,TRAV. DE NEUCHATEL E (AR),positive,A 5
CH:0232.03,,46.1483612,7.15333271,negative,VS,SAXON W (AR),negative,A 9
CH:0348.01,,47.5447845,7.80132627,,AG,RHEINFELDEN (AB) - AG1427,,A 3
CH:0348.06,,47.5452919,7.80111504,negative,AG,RHEINFELDEN (AB) - AG1427,negative,A 3
CH:0105.04,41.0,47.2108917,8.54365826,positive,ZG,BAAR N (AB),positive,A 14
CH:0040.02,90.5,46.9527626,8.27787113,positive,OW,ALPNACHSTAD (AB),positive,A 8
CH:0174.01,32.2999992,47.0511894,6.71952486,negative,NE,COL DES ROCHES,negative,H 20
CH:0827.04,115.0,47.1903725,9.48538208,positive,SG,BUCHS (AB),positive,A 13
CH:0117.02,114.900002,47.1735191,8.43198204,negative,ZG,HUENENBERG S (AB),negative,A 4
CH:0580.03,90.3000031,47.3469124,8.52002716,positive,ZH,DREIECK ZUERICH-SUED N (AB) - ZH1210,positive,A 3
CH:0344.02,,47.5323143,7.73584032,positive,AG,RHEINFELDEN (AB) - AG1423,positive,A 3
CH:0288.02,,47.2717896,7.71592474,positive,BE,NIEDERBIPP (AB),positive,A 1
CH:0252.02,82.5,46.8896599,8.61875057,negative,UR,VERZWEIGUNG ALTDORFA2/A4 (AB),negative,A 2
CH:0220.04,,47.4469986,8.24522018,negative,AG,"MUELLIGEN, VERZW. A3/A1 (AB)",negative,A 3
CH:0743.03,87.0,46.5611305,6.56062508,positive,VD,CRISSIER (AR) RI NORD,positive,A 1
CH:0137.01,96.6999969,46.144619,8.94665337,negative,TI,MONTE CENERI (AS),negative,A 2
CH:0296.02,90.5,47.0194168,8.2959137,negative,LU,"HORW, SCHLUNDTUNNEL (AB)",negative,A 2
CH:0194.07,66.3000031,47.3918724,8.41514492,,ZH,URDORF (AB),,A 3
CH:0766.02,79.4000015,47.2396049,8.86439419,positive,SG,JONA,positive,A 15
CH:0503.02,,46.1495476,8.874897,positive,TI,MAGADINO,positive,H 405
CH:0284.04,120.0,47.4618301,8.70892715,negative,ZH,"WINTERTHUR, KEMPTTHAL (AB)",negative,A 1
CH:0284.05,111.5,47.4618263,8.70888424,negative,ZH,"WINTERTHUR, KEMPTTHAL (AB)",negative,A 1
CH:0527.02,51.0,46.1961899,8.14208126,positive,VS,GONDO - VS40001,positive,A 9
CH:0081.03,98.5,47.5387955,7.64484501,negative,BL,"MUTTENZ, HARD (AB)",negative,A 2
CH:0142.03,104.300003,47.3039894,7.91865683,negative,AG,ZOFINGEN (AB),negative,A 2
CH:0199.01,92.8000031,45.8644791,8.97045517,negative,TI,MENDRISIO S (AS),negative,A 2
CH:0576.02,96.0,47.3469391,8.46248627,negative,ZH,"UETLIBERG, UETLIBERGTUNNEL W (AB) - ZH1206",negative,A 3
CH:0097.03,90.9000015,47.4566917,8.30738258,positive,AG,"BADEN, BAREGGTUNNEL (AB)",positive,A 1
CH:0773.01,74.6999969,47.5127983,7.72259283,positive,BL,FUELLINSDORF,positive,A 22
CH:0289.01,108.300003,46.0971413,8.92819786,negative,TI,CAMIGNOLO (AS),negative,A 2
CH:0233.01,80.6999969,47.378109,7.16749573,positive,JU,"ST-URSANNE, TUN. TERRI (AR)",positive,A 16
CH:0802.02,109.699997,47.0133286,7.00838423,positive,NE,MARIN OUEST (AB),positive,A 5
CH:0253.04,93.0999985,46.3031921,7.9582057,negative,VS,GAMSEN (TUNNEL) (AB),negative,A 9
CH:0315.04,,47.2010651,7.56636286,negative,SO,ZUCHWIL (AB),negative,A 5
CH:0241.01,76.5999985,47.4290352,8.57185555,,ZH,OPFIKON (AB),,A 11
CH:0556.01,94.0,47.4819756,7.77763557,negative,#N/A,#N/A,negative,#N/A
CH:0379.02,97.4000015,47.6009216,8.69164467,positive,ZH,KLEINANDELFINGEN ANSCHLUSS 1 (AB),positive,A 4
CH:0695.02,107.599998,47.0898781,8.25038242,negative,LU,ANSCHL. ROTHENBURG,negative,A 2
CH:0695.08,50.5,47.0898743,8.2507391,,LU,ANSCHL. ROTHENBURG,,A 2
CH:0367.01,,47.457756,8.28125477,,AG,BADEN WEST ANSCHL. - AG1572,,A 1
CH:0744.02,92.0,46.5612602,6.5602603,,VD,CRISSIER (AR) RI SUED,,A 1
CH:0858.01,108.800003,46.7631836,7.5937748,positive,BE,"THUN, ALLMENDTUNNEL N (AB)",positive,A 6
CH:0720.02,121.0,47.0130692,8.62533569,negative,SZ,SCHWYZ (AB),negative,A 4
CH:0114.01,44.0,47.4233131,8.64356518,positive,ZH,BRUETTISELLEN N (AB),positive,A 1
CH:0208.03,,47.4472008,8.24876213,negative,AG,"BIRRHARD, VERZW. A1  (AB)",negative,A 1
CH:0077.06,88.5999985,45.840992,9.01964569,positive,TI,CHIASSO-BROGEDA (AS),positive,A 2
CH:0077.04,88.9000015,45.8399315,9.0212841,negative,TI,CHIASSO-BROGEDA (AS),negative,A 2
CH:0335.04,107.099998,47.3050766,7.92480135,negative,AG,WIGGERTAL (AB) - AG1411,negative,A 1
CH:0273.05,74.6999969,47.5725975,7.60261059,positive,BS,"BASEL, ANSCHLUSS WIESE, A2 (AB)",positive,A 2
CH:0032.03,113.699997,47.2245293,7.61187029,negative,SO,DEITINGEN (AB),negative,A 1
CH:0273.03,78.5,47.5742989,7.60069036,negative,BS,"BASEL, ANSCHLUSS WIESE, A2 (AB)",negative,A 2
CH:0135.02,89.3000031,47.5081444,9.40544128,positive,TG,"ARBON, A1/ZUBRINGER TG",positive,A 23
CH:0605.07,60.2999992,47.4082298,9.30806923,,SG,"ST.GALLEN, ANSCHL. BREITFELD",,A1
CH:0605.06,62.0,47.408287,9.3079443,positive,SG,"ST.GALLEN, ANSCHL. BREITFELD",positive,A1
CH:0204.02,,46.4276314,8.85456085,negative,TI,LAVORGO S (AS),negative,A 2
CH:0020.03,102.0,47.4297028,8.5109005,positive,ZH,"UMF. ZUERICH N, AFFOLTERN (AB)",positive,A 1C
CH:0548.04,115.0,47.3463249,7.28316021,positive,JU,DEVELIER (AR),positive,A 16
CH:0285.01,,46.9559059,7.41815138,,BE,"BERN, FORSTHAUS (AB)",,A 1
CH:0111.01,56.5,46.5427094,7.6662879,negative,BE,"FRUTIGEN S, KANDERGRUND",negative,H 223
CH:0332.01,59.0,47.3282204,8.5311203,,ZH,WOLLISHOFEN (AB) RI ZUERICH - ZH1214,,A 3
CH:0332.03,98.3000031,47.3278656,8.53045559,negative,ZH,WOLLISHOFEN (AB) RI ZUERICH - ZH1214,negative,A 3
CH:0216.02,125.5,47.1935463,8.89491272,positive,SZ,WANGEN SZ (AB),positive,A 3
CH:0581.02,100.5,47.3349266,8.52414608,positive,ZH,"WOLLISHOFEN, ENTLISBERG (AB ) - ZH1213",positive,A 3
CH:0739.01,105.5,46.3063278,7.68527079,positive,VS,TURTMANN (AB),positive,A 9
CH:0504.01,109.300003,46.3865166,6.20430088,positive,VD,"NYON, CRASSIER (AR)",positive,A 1
CH:0167.04,93.0,47.0766716,8.30867386,positive,LU,"EBIKON, RATHAUSEN (AB)",positive,A 14
CH:0167.01,85.3000031,47.0767746,8.30858707,negative,LU,"EBIKON, RATHAUSEN (AB)",negative,A 14
CH:0155.02,56.0,46.5615578,8.35938358,positive,VS,"GLETSCH N, GRIMSEL",positive,H 6
CH:0212.01,77.6999969,47.0637169,6.88588095,negative,NE,VUE-DES-ALPES (TUNNEL),negative,H 20
CH:0727.05,93.0999985,47.1540527,8.43408203,positive,ZG,VERZW. RUETIHOF (AB),positive,A 4
CH:0727.04,99.5999985,47.1540413,8.43402863,positive,ZG,VERZW. RUETIHOF (AB),positive,A 4
CH:0339.02,,47.4571037,8.27614212,positive,AG,BADEN-WEST (AB) - AG1573,positive,A 1
CH:0323.01,115.0,46.9033966,7.08939838,positive,FR,MURTEN (AB),positive,A 1
CH:0225.02,96.5,47.3153687,7.80590057,negative,SO,"EGERKINGEN, VERZWEIGUNG A2 (AB)",negative,A 2
CH:0668.02,56.0,46.2469635,6.93687296,positive,VS,MONTHEY - VS164002,positive,H 201
CH:0370.04,,46.4752388,6.81361437,negative,VD,CHEXBRES E (AR),negative,A 9
CH:0656.02,60.5999985,46.8772736,8.70813084,negative,UR,SPIRINGEN - UR6301,negative,H 17
CH:0534.04,114.199997,46.5631065,6.57731962,negative,VD,LAUSANNE BLECHERETTE (AR),negative,A 9
CH:0502.01,68.0,47.1273804,9.0692749,positive,GL,"OBERURNEN, ZUBRINGER GLARNERLAND (AB)",positive,A 17
CH:0121.04,105.900002,46.963253,6.86735058,negative,NE,"COLOMBIER, AREUSE (AR)",negative,A 5
CH:0072.01,,47.3821526,8.11117363,positive,AG,HUNZENSCHWIL (AB),positive,A 1
CH:0518.06,58.0,47.3937531,8.49398613,,ZH,ZUERICH HARDTURM (AB),,A 1H
CH:0852.02,118.0,46.1151962,7.09862518,positive,VS,ECHANGEUR GD.ST.BERNARD EST (AR),positive,A 9
CH:0543.01,121.599998,47.4301453,8.36466694,positive,AG,SPREITENBACH AUSFAHRT (AB) - AG1445,positive,A 1
CH:0827.01,114.199997,47.1904144,9.48517418,negative,SG,BUCHS (AB),negative,A 13
CH:0149.03,115.0,46.5705032,6.55742979,positive,VD,MEX (AR),positive,A 1
CH:0182.04,,47.093586,7.57318163,negative,BE,KIRCHBERG N (AB),negative,A 1
CH:0628.02,62.0,46.0913734,7.05489206,negative,VS,"MARTIGNY-CROIX W, FORCLAZ - VS00134021",negative,H 203
CH:0194.03,97.9000015,47.3889618,8.4139843,positive,ZH,URDORF (AB),positive,A 3
CH:0535.01,,46.5349884,6.67241859,positive,VD,LAUSANNE BELMONT (AR),positive,A 9
CH:0093.05,106.800003,47.5178261,8.69492054,negative,ZH,UMF. WINTERTHUR (AB),negative,A 1
CH:0308.01,99.5,47.1902924,8.83076477,positive,SZ,LACHEN (AB),positive,A 3
CH:0341.03,94.3000031,47.4545097,8.32589245,positive,AG,NEUENHOF (AB) - AG1402,positive,A 1
CH:0097.02,80.3000031,47.4566841,8.30732536,positive,AG,"BADEN, BAREGGTUNNEL (AB)",positive,A 1
CH:0303.02,,47.4569321,9.07377911,positive,SG,THURAU (AB),positive,A 1
CH:0303.01,,47.4569016,9.07379341,positive,SG,THURAU (AB),positive,A 1
CH:0392.01,64.0,46.4181938,9.72605038,negative,GR,PLAUN DA  LEJ,negative,H 3B
CH:0180.01,49.5,47.7409439,8.71371078,negative,SH,THAYNGEN,negative,H 15
CH:0593.03,123.0,47.2083511,8.0147295,positive,LU,UFFIKON (AB),positive,A 2
CH:0070.03,71.0999985,47.5569763,7.61465931,positive,BS,"BASEL, SCHWARZWALDBR. (AB)",positive,A 2
CH:0330.04,54.7999992,47.193119,8.72140217,,SZ,WOLLERAU ANSCHLUSS (AB),,A 3
CH:0640.02,114.099998,47.5304413,8.81426239,positive,ZH,ANSCHLUSS ATTIKON (AB)),positive,A 1
CH:0619.04,85.1999969,47.1989098,8.45948792,positive,ZG,BLEGI S (AB),positive,A 4
CH:0575.01,120.400002,47.2725296,8.43762875,negative,ZH,ANSCHLUSS AFFOLTERN  A.A1(AB) - ZH2105,negative,A 4
CH:0182.02,,47.0935783,7.57332611,positive,BE,KIRCHBERG N (AB),positive,A 1
CH:0576.04,106.300003,47.3468704,8.46294308,positive,ZH,"UETLIBERG, UETLIBERGTUNNEL W (AB) - ZH1206",positive,A 3
CH:0564.02,49.0,47.3474159,8.42931557,,ZH,ANSCHLUSS BIRMENSDORF 2 EIN-AUSFAHRT (AB) - ZH1106,,A 4
CH:0303.03,,47.4570122,9.07380581,negative,SG,THURAU (AB),negative,A 1
CH:0674.03,120.099998,46.9466858,6.83692265,negative,NE,BOUDRY (AR),negative,A 5
CH:0285.08,77.1999969,46.9557724,7.41741848,negative,BE,"BERN, FORSTHAUS (AB)",negative,A 1
CH:0228.01,112.0,46.9269791,9.56188869,negative,GR,ZIZERS (AB),negative,A 13
CH:0802.03,65.8000031,47.0132446,7.00858164,,NE,MARIN OUEST (AB),,A 5
CH:0612.01,56.4000015,47.4707642,8.19215298,positive,AG,"BRUGG W, UNTERFUEHRUNG - AG1533",positive,H 5
CH:0333.04,110.5,46.6648903,6.57122564,negative,VD,BAVOIS (AR),negative,A 1
CH:0348.02,,47.5451584,7.80140686,,AG,RHEINFELDEN (AB) - AG1427,,A 3
CH:0149.02,104.0,46.570507,6.55747223,positive,VD,MEX (AR),positive,A 1
CH:0191.01,112.400002,47.0453453,8.55927944,negative,SZ,GOLDAU S (AB),negative,A 4
CH:0685.02,47.2000008,46.8748207,8.65288448,negative,UR,"ALTDORF, KLAUSENSTRASSE - UR6017",negative,H 17
CH:0289.03,117.599998,46.0971031,8.92832947,positive,TI,CAMIGNOLO (AS),positive,A 2
CH:0126.02,80.6999969,47.0397339,8.29349709,negative,LU,"LUZERN, SONNENBERGTUNNEL (AB)",negative,A 2
CH:0639.01,93.0,47.497921,8.69404984,positive,ZH,WINTERTHUR TOESS (AB) - ZH105,positive,A 1
CH:0599.02,122.0,47.4731598,9.58762264,positive,SG,"BURIET, RUDERBACH (AB)",positive,A1
CH:0033.02,72.0,47.3965836,7.81340265,negative,BL,EPTINGEN N (AB),negative,A 2
CH:0347.01,,47.5412407,7.76310396,,AG,RHEINFELDEN (AB) - AG1426,,A 3
CH:0802.05,67.3000031,47.0132256,7.00431871,,NE,MARIN OUEST (AB),,A 5
CH:0114.02,98.4000015,47.4233513,8.64355373,positive,ZH,BRUETTISELLEN N (AB),positive,A 1
CH:0398.01,60.0,46.4866943,7.20251274,negative,VD,ROUGEMONT W,negative,H 11
CH:0587.05,35.2999992,47.6559677,9.15938663,negative,TG,"KREUZLINGEN, HAUPTZOLLAMT",negative,A 7
CH:0321.02,57.9000015,47.5722198,7.5987587,positive,BS,"BASEL, ANSCHLUSS WIESE, A3 (AB)",positive,A 3
CH:0634.01,56.7999992,46.4142914,10.0373182,negative,GR,"BERNINA, BARACON - GR0248",negative,H 29
CH:0077.03,80.4000015,45.8399048,9.02125072,negative,TI,CHIASSO-BROGEDA (AS),negative,A 2
CH:0118.01,81.0,46.9688911,7.46041775,positive,BE,"BERN, FELSENAUVIADUKT (AB)",positive,A 1
CH:0114.07,97.0,47.4234619,8.64303207,negative,ZH,BRUETTISELLEN N (AB),negative,A 1
CH:0676.03,108.0,47.0045586,6.96369791,negative,NE,HAUTERIVE (AR),negative,A 5
CH:0319.03,123.300003,47.1410408,8.44598007,positive,ZG,BUONAS (AB),positive,A 4
CH:0577.01,103.300003,47.3500786,8.47027779,negative,ZH,UETLIBERGTUNNEL MITTE (AB) - ZH1207,negative,A 3
CH:0635.01,79.5,46.6814423,8.81194496,negative,GR,"TAVETSCH, CRESTAS-TUNNEL -  GR0306",negative,H 19
CH:0378.05,80.0,47.6732292,8.62308311,positive,ZH,UHWIESEN ANSCHLUSS (AB),positive,A 4
CH:0603.03,118.699997,47.1144333,9.33468151,negative,SG,"WALENSTADT, TSCHERLACH (AB)",negative,A 3
CH:0054.01,111.5,47.319725,8.53432751,positive,ZH,ADLISWIL (AB),positive,A 3
CH:0834.01,74.5999985,47.1255722,7.26380825,positive,BE,LAENGHOLZTUNNEL,positive,A 5
CH:0505.04,114.0,46.4141655,6.23364592,negative,VD,"GLAND, DUILLIER (AR)",negative,A 1
CH:0325.02,123.800003,46.8493156,7.17653227,positive,FR,DUEDINGEN S (AB),positive,A 12
CH:0287.02,,47.4243469,8.4840107,positive,ZH,"WEININGEN, GUBRIST (AB)",positive,A 1C
CH:0299.03,100.900002,47.1969414,8.70276833,negative,SZ,"WOLLERAU, BLATTTUNNEL (AB)",negative,A 3
CH:0214.02,102.800003,46.9513741,7.38439846,positive,BE,"BERN, BRUENNENTUNNEL (AB)",positive,A 1
CH:0543.03,101.099998,47.4300804,8.36463451,positive,AG,SPREITENBACH AUSFAHRT (AB) - AG1445,positive,A 1
CH:0600.04,120.5,47.4353027,9.64230919,positive,SG,"AU, LEHNENVIADUKT (AB)",positive,A 13
CH:0598.04,73.0,47.4708939,9.44283009,negative,SG,"MEGGENHUS, VERZWEIGUNG (AB)",negative,A 23
CH:0308.04,98.5,47.1905174,8.8308506,negative,SZ,LACHEN (AB),negative,A 3
CH:0397.02,53.7999992,46.6174355,7.13850069,negative,FR,CHARMEY,negative,H 189
CH:0507.05,85.3000031,45.9871902,8.93209457,positive,TI,CIRCONVALLAZIONE DI LUGANO (AB),positive,A 2
CH:0141.01,57.0,47.545826,9.18854237,negative,TG,SULGEN E,negative,H 14
CH:0060.02,102.599998,47.3117104,7.81935787,positive,SO,GUNZGEN (AB),positive,A 1
CH:0853.02,92.0,47.157608,7.27068615,negative,BE,BIENNE NORD (AB),negative,A 16
CH:0149.04,112.400002,46.5704956,6.55732727,negative,VD,MEX (AR),negative,A 1
CH:0016.02,,47.1020393,7.1759944,negative,BE,"TWANN, WINGREIS (AR)",negative,A 5
CH:0761.01,66.6999969,47.3101234,8.81027412,positive,ZH,HINWIL N,positive,H 340
CH:0379.01,78.0,47.6008835,8.6917944,,ZH,KLEINANDELFINGEN ANSCHLUSS 1 (AB),,A 4
CH:0271.01,,46.936451,7.49125051,negative,BE,MURI BE N (AB),negative,A 6
CH:0220.06,,47.4470673,8.24526787,negative,AG,"MUELLIGEN, VERZW. A3/A1 (AB)",negative,A 3
CH:0239.04,112.900002,47.2386551,7.96088791,positive,LU,REIDEN S (AB),positive,A 2
CH:0507.01,65.0,45.9881248,8.93075752,,TI,CIRCONVALLAZIONE DI LUGANO (AB),,A 2
CH:0159.02,120.0,47.0954056,8.24598694,negative,LU,"EMMENBRUECKE, RIFFIG (AB)",negative,A 2
CH:0630.01,60.0,46.8397141,9.58739281,positive,GR,CALFREISEN - GR211,positive,H 566
CH:0216.04,119.5,47.193634,8.89498997,negative,SZ,WANGEN SZ (AB),negative,A 3
CH:0739.02,114.0,46.306366,7.68524742,positive,VS,TURTMANN (AB),positive,A 9
CH:0200.03,80.8000031,46.1513901,6.09675741,positive,GE,"GENEVE, BARDONNEX (AR)",positive,A 1A
CH:0077.05,101.0,45.8409767,9.01960754,positive,TI,CHIASSO-BROGEDA (AS),positive,A 2
CH:0335.05,99.5,47.3051109,7.92477989,negative,AG,WIGGERTAL (AB) - AG1411,negative,A 1
CH:0376.01,83.6999969,47.6159897,8.68516731,,ZH,TRUELLIKON ANSCHLUSS S (AB),,A 4
CH:0285.06,86.5,46.9557266,7.41748524,negative,BE,"BERN, FORSTHAUS (AB)",negative,A 1
CH:0216.01,116.400002,47.1935234,8.89488411,positive,SZ,WANGEN SZ (AB),positive,A 3
CH:0208.02,,47.4471512,8.24882698,positive,AG,"BIRRHARD, VERZW. A1  (AB)",positive,A 1
CH:0248.01,,47.541893,7.75949287,negative,AG,"RHEINFELDEN, AUTOBAHNZUBRINGER A3",negative,A 3
CH:0577.06,93.0,47.3497047,8.47028828,positive,ZH,UETLIBERGTUNNEL MITTE (AB) - ZH1207,positive,A 3
CH:0346.04,,47.5399704,7.75662708,negative,AG,RHEINFELDEN (AB) - AG1425,negative,A 3
CH:0059.01,106.800003,46.9974365,6.95200205,positive,NE,TRAV. DE NEUCHATEL E (AR),positive,A 5
CH:0198.04,113.400002,47.4661674,9.4805212,negative,SG,GOLDACH S (AB),negative,A 1
